{"type":"FeatureCollection","features":[{"type":"Feature","properties":{},"geometry":{"type":"Polygon","coordinates":[[[85.33001757995416,27.694216947466316],[85.33000837545012,27.6943695967192],[85.32995247569936,27.694516978664808],[85.32988173235672,27.694582034110702],[85.32980852624092,27.694597389757398],[85.32966263499203,27.694664404179832],[85.32931132780527,27.694901831600287],[85.32925564874763,27.69496420287575],[85.32919609630204,27.695069511334758],[85.32918291295617,27.6951600964408],[85.3292128780243,27.695235919347176],[85.32925409672187,27.69527748998242],[85.32941043633774,27.69537012061507],[85.32971722934631,27.695519012502178],[85.32996814720778,27.695602275955583],[85.33001796465413,27.69564299519251],[85.33033962593869,27.695661202498428],[85.33059473531381,27.695751202380837],[85.33078691577303,27.695886291812773],[85.33188361050382,27.69730079031698],[85.33192111624061,27.69744547699583],[85.33190989116147,27.697548503279872],[85.33187268282546,27.697666500291817],[85.33180038650713,27.697763059527762],[85.3316216764792,27.697941439657743],[85.33145377018859,27.698044487504],[85.33122355980271,27.698151561369254],[85.33057024879002,27.698770296817905],[85.33048202849541,27.69892588589588],[85.33062684997101,27.69928201216812],[85.33072009144404,27.69943119255703],[85.33079312339318,27.699497981830884],[85.33122430581581,27.699724786635755],[85.33138665683875,27.699775458644528],[85.33160577663232,27.699762815677264],[85.33206704130554,27.699705330534485],[85.33233947485276,27.699715299484158],[85.33323385555238,27.699828275880495],[85.33364483378594,27.699901998464977],[85.33432389538171,27.70034287663213],[85.33495399753201,27.700898741642604],[85.33536212548549,27.701301968933027],[85.33571802929487,27.701823011743937],[85.3360923382935,27.702545823605302],[85.33631195924008,27.70278344234042],[85.33751193419644,27.702420554044856],[85.33903384108386,27.70191728210716],[85.3396811829267,27.70169102201897],[85.34006381128802,27.70151144741392],[85.33982532349171,27.70103098679965],[85.33970203706697,27.70066796393111],[85.33966264540177,27.700611611792],[85.3395351017801,27.700529845195383],[85.33920998294175,27.700419918014116],[85.3391061476173,27.700367090574513],[85.33873636925595,27.700017348244952],[85.33861523902667,27.69983106284873],[85.33856532027114,27.6997258697453],[85.33840670766796,27.699293586959087],[85.33803488093503,27.6980701660014],[85.33758500768062,27.69634988892146],[85.33755484389603,27.69589723799014],[85.33759426889029,27.695667985645006],[85.33757547527962,27.695598029711118],[85.33752219571515,27.695502347623062],[85.33743311791284,27.695396683051047],[85.33729886950822,27.695085107454382],[85.33718037578274,27.695113033646997],[85.33696009810016,27.69522931011937],[85.33644015984582,27.695335897533447],[85.3361380683048,27.695486652708645],[85.33609817110144,27.69554348529601],[85.33608475909666,27.695631799470803],[85.3360295015729,27.695719611651917],[85.33578090488383,27.695898589057187],[85.33570745443757,27.695912392495952],[85.3354342737146,27.695855020373465],[85.33527212516233,27.695879577911352],[85.33490682274635,27.695899543268197],[85.33431540404462,27.695863415186114],[85.3340855616746,27.695893722982465],[85.33390464386869,27.69593524667195],[85.33363207722215,27.696022949970498],[85.33311135298388,27.696339778874375],[85.332961469515,27.696457612848686],[85.33285980397787,27.69647429893921],[85.33277375518152,27.696469680563567],[85.332555888634,27.69634741836962],[85.3324831204323,27.696157411551983],[85.33240082508098,27.696064721217837],[85.33240576349527,27.69600460312025],[85.33252008827463,27.695825685564255],[85.33252045119774,27.695801810243427],[85.33223911689652,27.69551329419588],[85.33217606769698,27.69547814754561],[85.33201094200825,27.695433890120064],[85.33154073968569,27.695339391261015],[85.33114712715992,27.69518348656005],[85.33104897807355,27.695127857157175],[85.33089428503234,27.69497984692834],[85.33070413124463,27.694700199830287],[85.33056545907232,27.69417818223946],[85.33001757995416,27.694216947466316]]]}},{"type":"Feature","properties":{},"geometry":{"type":"Polygon","coordinates":[[[85.33001723172595,27.69421078155452],[85.33056671966794,27.694172036628235],[85.33058159551729,27.694181767678874],[85.33071205826835,27.69469848037062],[85.33089885325234,27.694975830592067],[85.33105490932451,27.695122424897765],[85.33115010828244,27.695178018738233],[85.33150208981938,27.69531933203905],[85.33217854879763,27.695470284625216],[85.33224985403695,27.695509351218405],[85.33252931180839,27.69579784554777],[85.33253152977694,27.69582843804826],[85.33241351059561,27.696003251444306],[85.33241042069885,27.69606530250648],[85.33249541308435,27.696157070418597],[85.33257035554873,27.696345192715345],[85.33268669614677,27.69642205425078],[85.33277783064574,27.696462792633092],[85.3329577515551,27.696451585975364],[85.3330897107185,27.696348102478037],[85.33362970774455,27.696016461894157],[85.33389606552007,27.695931311212217],[85.33419162390243,27.695866570531486],[85.33432319136047,27.695859413092567],[85.334907114322,27.695894496096454],[85.33527524936163,27.695873489857398],[85.33543456968813,27.695849614939668],[85.33574362599438,27.695903120343417],[85.33585714276353,27.695847889371215],[85.33602412784965,27.69571664536627],[85.33607934632441,27.69563134090968],[85.33609154106294,27.69554372783068],[85.33613757288921,27.695484819990146],[85.33643859183213,27.695334051928658],[85.33695788368163,27.69522582494192],[85.33717857469505,27.69510883681033],[85.3372962157433,27.695082310166175],[85.33715802849137,27.694437750960244],[85.33702210014798,27.69367971737287],[85.33695409757216,27.693564275581505],[85.3368342246891,27.693419555594012],[85.3362722545154,27.6926187921473],[85.33619403053207,27.692469795760037],[85.33617677175022,27.692104222582163],[85.33618743625189,27.691489439109635],[85.33614417227255,27.691246536109634],[85.33594935966616,27.69082510035073],[85.33585471642948,27.690520685516912],[85.33566738964166,27.690047996762257],[85.33565395567808,27.689607248010695],[85.33567075127212,27.689295814748732],[85.33564334545551,27.68898026799482],[85.33552106472601,27.688464182670298],[85.33310649555563,27.68900587270795],[85.33280545709889,27.68904403867745],[85.33275522014573,27.68908403062535],[85.33270304555734,27.689075043914926],[85.33255342190675,27.689123390827753],[85.33105661269452,27.68946833567987],[85.33026285915783,27.68971189554756],[85.32994175258324,27.689834588011],[85.32884066948813,27.690352634893177],[85.32849001461581,27.69056571058768],[85.32845868626919,27.690773088701764],[85.32848636248949,27.691069535139256],[85.32852271351861,27.69114877831774],[85.32852756448776,27.691270624316537],[85.32861890512571,27.69161440538156],[85.32874370601796,27.691875010469072],[85.32886142498428,27.692072247664125],[85.32899431481374,27.692242205044334],[85.32909148952464,27.69229113795933],[85.32910125457099,27.692354538117744],[85.3291950884232,27.69253477068966],[85.32918589683955,27.692609881038177],[85.32954229286224,27.693429684121636],[85.3297742940881,27.693785907152748],[85.32992289937849,27.693981127939956],[85.33001723172595,27.69421078155452]]]}}]}