{"type":"FeatureCollection","features":[{"type":"Feature","properties":{"derived":true},"geometry":{"type":"Polygon","coordinates":[[[85.34097842975967,27.68780858692197],[85.34090819068868,27.688171276306665],[85.34093502096539,27.688196085208617],[85.34101279838184,27.68820405920138],[85.3412202147084,27.688179166952146],[85.34146851087681,27.688274488362413],[85.3415644292912,27.688360556098633],[85.34166047294474,27.688491141985683],[85.34174593702768,27.688577947453656],[85.34190450393434,27.68868204449116],[85.34234731379213,27.689245213520437],[85.34267949920434,27.689767772132097],[85.34281769965804,27.690081415710505],[85.34273101058086,27.690241972368717],[85.34281032198464,27.69049871443059],[85.3430178463595,27.690709410490584],[85.34337262689398,27.6911579454945],[85.34362103322451,27.691506027479377],[85.34395472429442,27.692084616889947],[85.34430664585192,27.692621647888362],[85.34444610604305,27.693013968779884],[85.34448179041894,27.693227584355938],[85.34447428162865,27.69336779504474],[85.34441985920759,27.693593062321693],[85.34438801952783,27.693852442893593],[85.34438529484636,27.69415757204357],[85.3444490987368,27.69506656431452],[85.34443422714166,27.695499869705863],[85.34445246397091,27.696234581764887],[85.34441284731845,27.696350445949076],[85.34418946404534,27.696521404993266],[85.34405567282275,27.69684404961163],[85.34401124469268,27.696989116368798],[85.34394330485284,27.697250349994658],[85.3438751320566,27.697772471359468],[85.34383548806103,27.698260315370668],[85.3438475905791,27.69851926487155],[85.34396593288226,27.699097055438788],[85.3441614462202,27.699649365444078],[85.34422933897953,27.699772249376505],[85.34425960355284,27.699804178377924],[85.34429446092447,27.699809129684862],[85.3447171355489,27.699517158567623],[85.34493294387596,27.69942912875562],[85.34507733249255,27.699382009343253],[85.34539340516403,27.699323377255016],[85.34569236128604,27.69928696126784],[85.34570849814949,27.699321616319306],[85.3457478240935,27.699329828944247],[85.34593134035863,27.699244962181975],[85.34619439042908,27.699174456596772],[85.34648180644486,27.69902265464431],[85.34652944443744,27.69893406099648],[85.34637491686816,27.69864572705567],[85.34637171413024,27.698303559159907],[85.34633599413995,27.698003191560556],[85.34648365065705,27.697548613243452],[85.3465646756612,27.697383845903587],[85.3467578861408,27.697157823528343],[85.34714985168613,27.69679749731045],[85.34724618359108,27.69668495096108],[85.34738143052093,27.696450762923536],[85.34744302198074,27.69637875716818],[85.34772722485377,27.696221602445817],[85.34837010882568,27.695701784321624],[85.34896348620079,27.695386124502367],[85.3493295154077,27.695155458447672],[85.34968668355741,27.695059019780853],[85.34990090154406,27.69496794379151],[85.35032272783137,27.694877334603568],[85.3504944040574,27.694862342425356],[85.35067387757847,27.694742251410002],[85.35114887007731,27.694522198227048],[85.35129381064374,27.69440687096091],[85.3515500226278,27.694035130004945],[85.3516074882073,27.69363705691352],[85.35156593560924,27.69336156865868],[85.35137077854064,27.693072021352243],[85.3513457242279,27.693006168814946],[85.35112252466111,27.69271994159752],[85.35104680971301,27.69258006983556],[85.35086837030097,27.69235295859631],[85.35070643197831,27.692203346335717],[85.35060948042097,27.69213376638871],[85.35131794829252,27.69031170990373],[85.35127609795319,27.690282917020628],[85.35123412246908,27.690304064488238],[85.35037587342865,27.692019771284546],[85.34929258398695,27.691798152299732],[85.34895180384869,27.69175455440357],[85.3487521122022,27.69169593035893],[85.34846899880394,27.69154932524753],[85.3481915532409,27.69124727337321],[85.34783268431316,27.690694672623067],[85.34781023008452,27.690414656513592],[85.34793391619627,27.69014071855559],[85.34803929029336,27.689681673639896],[85.34810834800922,27.689528472458445],[85.34815787381541,27.689285809148174],[85.34816067455824,27.68896041251482],[85.34812930755477,27.688765650059217],[85.34807365846356,27.688589096654038],[85.34797912235929,27.688412469911277],[85.3478406130693,27.688307329254965],[85.34774956486913,27.688259355843382],[85.3471342188498,27.688160472315523],[85.34614958475628,27.687978179983627],[85.34584908203664,27.68795660583372],[85.34559624975476,27.68779945580351],[85.34525781582919,27.687432829711238],[85.34519547521772,27.687258228355866],[85.34484947940292,27.6870289844462],[85.34478299330044,27.686947417661113],[85.34395797661489,27.68668677294229],[85.34368675834827,27.686675627231235],[85.34356193391775,27.686704811039984],[85.34331246793029,27.68667391459657],[85.3431739885001,27.68669354694161],[85.34086404558629,27.687217124975053],[85.34084579860362,27.68726308153395],[85.34098726339963,27.687624474322373],[85.34097842975967,27.68780858692197]],[[85.34271218641314,27.689622928744882],[85.34257447815256,27.689398838146648],[85.34255673117346,27.689225302630245],[85.34279484866498,27.689198037340248],[85.34296078829763,27.689196781936253],[85.34309060171992,27.68911930377984],[85.3433115063015,27.68910070167578],[85.34343376831562,27.689333905766937],[85.34352079190307,27.68939508887787],[85.34344703285694,27.68953261728243],[85.34336549070709,27.689532872239724],[85.34320727913905,27.689625066954765],[85.343010427882,27.68959531780517],[85.34297772747912,27.68960701764986],[85.34292931265249,27.68967475057044],[85.3429637506618,27.68983485543145],[85.34286278739715,27.689986017797295],[85.34271218641314,27.689622928744882]],[[85.34461052485,27.692523738847232],[85.34477865327165,27.692506268393135],[85.34488904191163,27.69257431230989],[85.34479589023006,27.692719506485062],[85.34481343820698,27.692787793822983],[85.34473556386284,27.69295249278977],[85.3445339446255,27.69295029373831],[85.34450524448867,27.69293247865147],[85.34439462497876,27.692624686739972],[85.34461052485,27.692523738847232]],[[85.34489013307544,27.69302635824419],[85.34501921545329,27.692979544419433],[85.34528172714683,27.69309155345422],[85.34558947263635,27.693143569796344],[85.34565173492825,27.693276701156318],[85.34569547553616,27.693474641759778],[85.34568734607178,27.69360335312844],[85.34564571921187,27.693789870141316],[85.34564312249131,27.693898679070085],[85.34548310388121,27.693992994887406],[85.34532583482383,27.693979812114605],[85.34528421448847,27.693869702905772],[85.3453860351218,27.693762571693895],[85.34539158575011,27.693731897950723],[85.34521045632307,27.69361299188038],[85.34517446646835,27.69362457508963],[85.34514992649721,27.69369316247976],[85.3449697147723,27.69385642639495],[85.34476146810881,27.693880391070024],[85.34471433755314,27.693551253767637],[85.34476007711166,27.693476380508866],[85.34458308024594,27.69333209660913],[85.34458774163541,27.693210363832186],[85.34455064060829,27.69302267911044],[85.34489013307544,27.69302635824419]],[[85.34495481276903,27.694034317167073],[85.3448711007285,27.69407399299966],[85.34480935201957,27.694080587491598],[85.34477639231663,27.693951472324244],[85.34495715689451,27.693930670258986],[85.34495481276903,27.694034317167073]],[[85.3444686509495,27.69394813921827],[85.34461132764616,27.693957856159518],[85.34451102941544,27.694110293812404],[85.3444680368725,27.69411592425848],[85.3444686509495,27.69394813921827]],[[85.34447062813598,27.69419661267751],[85.34489178452499,27.694152798299314],[85.34500780242004,27.6941039996932],[85.34521513581112,27.69411124152137],[85.34522862990562,27.694155884891476],[85.3452111008983,27.694323418607524],[85.3451291865955,27.69435322560803],[85.34494003404268,27.69436326633304],[85.34491392879656,27.694377470244454],[85.34490553609916,27.694401180735486],[85.34501883059266,27.694618807034928],[85.34517388286002,27.69470296914244],[85.34537657081263,27.694987871390346],[85.34530323886584,27.69516940573843],[85.34502816817366,27.695264695582512],[85.34499653757915,27.695069024149095],[85.34503185871064,27.695048235613374],[85.34504087784562,27.695020863001492],[85.34497879524594,27.694901007706953],[85.34492537015859,27.694902985076254],[85.3448330448942,27.695017566117432],[85.34470669848564,27.695038136728083],[85.34453549912293,27.694938226725],[85.34454307355477,27.694829401917772],[85.34451865047225,27.69443618409548],[85.3444849595208,27.69440297758187],[85.34447062813598,27.69419661267751]],[[85.34457964253855,27.695677294977123],[85.3445234175008,27.695721503345354],[85.34452087527927,27.6956271535212],[85.34457964253855,27.695677294977123]],[[85.34449554362223,27.696705754193985],[85.34436350932835,27.696742859430238],[85.34431763519702,27.696729043308537],[85.34417518161348,27.696784960497567],[85.34424986582538,27.696590266305726],[85.34449554362223,27.696705754193985]],[[85.34455280971805,27.696474818799704],[85.34479809196861,27.69662072928174],[85.34462533465873,27.696669279224704],[85.34455280971805,27.696474818799704]],[[85.34520780477767,27.696604795994574],[85.34523557398366,27.696569497652835],[85.34520568913959,27.69653570241105],[85.3449986607311,27.696552513746475],[85.34485674372267,27.69620491034398],[85.34501844734979,27.696205942255943],[85.34522721734561,27.69625560725228],[85.34540701708558,27.696222107699107],[85.34556827735405,27.696713201786444],[85.3455778905966,27.696932165334236],[85.34496782168999,27.696971431414077],[85.34485156995086,27.697029114196866],[85.34474136460378,27.697172242210016],[85.34467214559788,27.69720442241831],[85.3444701845181,27.697253812428478],[85.34438257217842,27.69681472213629],[85.34496194677607,27.69665506040309],[85.34520780477767,27.696604795994574]],[[85.34557751071733,27.69631566979939],[85.34557385987011,27.696472853641758],[85.34550738332162,27.696270409407234],[85.34557751071733,27.69631566979939]],[[85.34558028740645,27.697253578792402],[85.34553477616562,27.697531902823755],[85.34548780035207,27.697665182867972],[85.34538957253203,27.697767348222644],[85.34529840601033,27.697742832179404],[85.34524812119463,27.697553146749506],[85.34521092290271,27.697528817248173],[85.3442471101704,27.697715734731144],[85.34427543352378,27.697389792569393],[85.34448447990931,27.69736358444117],[85.34451463344577,27.697343772375312],[85.34468426937936,27.697298032352144],[85.34486748616617,27.69734841641759],[85.34490412703195,27.69738752076935],[85.34494309498166,27.697391052671257],[85.34507647636747,27.697310006705358],[85.34515505872803,27.697279400862733],[85.34516491420776,27.69707045388597],[85.34518475906368,27.69703594499844],[85.34558184083852,27.69700433685622],[85.34558028740645,27.697253578792402]],[[85.34447756881919,27.697750408212404],[85.34508044627819,27.697641975701597],[85.34517747474325,27.697797245204722],[85.34510786871431,27.69791443523936],[85.34476960419936,27.697947255435864],[85.34466026880587,27.69793576458446],[85.3444435480519,27.69795408922024],[85.34447756881919,27.697750408212404]],[[85.34406339348736,27.699101072890503],[85.34406993994861,27.699073889738624],[85.34402879176439,27.698941312533428],[85.34411268256488,27.69885269432054],[85.34424820646278,27.698933995154324],[85.34457645614792,27.698863296949998],[85.34476203229626,27.6987854846973],[85.34491154868455,27.69907931466948],[85.34490926333554,27.6991332090864],[85.34477129802144,27.699245033680086],[85.34473998611642,27.699211546433393],[85.34471042054709,27.69913378867676],[85.34465295822004,27.699096025202405],[85.34441733112442,27.69917324514196],[85.344289528261,27.69919940348226],[85.34425737135759,27.69922793531635],[85.34411154983034,27.699277791420318],[85.34406339348736,27.699101072890503]],[[85.34626798827091,27.69883286173655],[85.34616398220857,27.698909154814203],[85.34571658200227,27.69882877796647],[85.34561551264494,27.69827227107559],[85.34562089063759,27.698248104117056],[85.34572739633558,27.698129598346117],[85.34606148700081,27.698105957591242],[85.34625272709773,27.69804978897513],[85.34629041777744,27.698667723884952],[85.34626798827091,27.69883286173655]],[[85.34554491720961,27.69906391783607],[85.34523595490867,27.69908860504849],[85.34512275977595,27.698824974507616],[85.34500444486491,27.69861697489509],[85.34497408288784,27.69861672885429],[85.34454482730136,27.698766623235034],[85.34439655622106,27.69879259367252],[85.34425044539532,27.69875453781648],[85.34421865026816,27.698732587796584],[85.34414859664196,27.69873416824089],[85.34401116614337,27.698694729712138],[85.34404149381109,27.69854139514331],[85.34441996016777,27.698496270772303],[85.34461602421669,27.698452766085826],[85.34489202425787,27.69836540466595],[85.3449111025069,27.69833867931505],[85.34491251413286,27.698242385342567],[85.34489278540693,27.69820236997667],[85.34488899688665,27.698022972104145],[85.34507394276369,27.698025175986064],[85.34515683658358,27.698047106549332],[85.34526152016375,27.697882363752147],[85.34539050579993,27.697855177426614],[85.34545904512437,27.697910837055353],[85.34545414890405,27.698079949706624],[85.34547373504417,27.69822641684545],[85.34546391415478,27.698305980553055],[85.34564583954221,27.699088885318364],[85.34554491720961,27.69906391783607]],[[85.34604151302604,27.69801922432367],[85.34594746084302,27.698026432249975],[85.34572836921826,27.69796325522905],[85.34564173425532,27.697913466578047],[85.34569053497488,27.697748050235408],[85.3461718912825,27.697672756253535],[85.34618959058182,27.69765292068261],[85.3461874555444,27.697625994048412],[85.34612974519514,27.6975904046371],[85.34592510503091,27.69760981927904],[85.34591240403606,27.697464643158803],[85.34598388983407,27.697416678498673],[85.3462500891948,27.697347090740134],[85.34640322715721,27.697371648318626],[85.346398796858,27.697526880138085],[85.34627108935715,27.69787940904078],[85.34604151302604,27.69801922432367]],[[85.34671730099507,27.69707391955101],[85.34670593499747,27.696899533644455],[85.34680852271897,27.69687725042849],[85.34690726897743,27.696909953612245],[85.34671730099507,27.69707391955101]],[[85.34702266280598,27.696621624884525],[85.34694939681052,27.696503374301],[85.34715274197775,27.69640523697881],[85.34730940690835,27.696417216966733],[85.34716649187736,27.69662566212232],[85.34702266280598,27.696621624884525]],[[85.34725266573223,27.69629080333983],[85.34681815331977,27.696003623022552],[85.34688501523061,27.695743862732645],[85.34707597442535,27.695717959458953],[85.34713976402897,27.695795582711167],[85.34725253443216,27.695834576726796],[85.34759314464651,27.69620908006044],[85.34739498198168,27.696312599798226],[85.34725266573223,27.69629080333983]],[[85.34771565040631,27.695815085792084],[85.3477261174729,27.695777442638676],[85.34783187474939,27.69562596846269],[85.34825507008847,27.695692592201826],[85.34782870246717,27.696031820588882],[85.34771565040631,27.695815085792084]],[[85.34808519617188,27.695479564571038],[85.34793883308781,27.695296930626398],[85.34791132204721,27.6952835336555],[85.34771845686907,27.69506490616654],[85.34771187955248,27.69503484439414],[85.34756584692732,27.694884576678945],[85.3477604784632,27.694842126144945],[85.34795359072635,27.694831370223014],[85.34849841706776,27.695005441432976],[85.34867580671877,27.695136282835996],[85.3488707228206,27.695342855764764],[85.348344883768,27.695627442920028],[85.34808519617188,27.695479564571038]],[[85.34770726310208,27.69539902092891],[85.34756533035365,27.69521280104037],[85.34766467350991,27.695120842576575],[85.3478384002213,27.695317775278316],[85.34770726310208,27.69539902092891]],[[85.34933821322406,27.695070894071794],[85.34931413916702,27.694964679388836],[85.34929097253989,27.69494629087684],[85.3491583268416,27.694968210016302],[85.34901137807174,27.69488257977437],[85.34908659855856,27.69473053536682],[85.34932639623206,27.694741751615222],[85.34945219540326,27.694833789733913],[85.34963329023934,27.69485832116654],[85.34963195406267,27.694993979943348],[85.34933821322406,27.695070894071794]],[[85.35064233545009,27.694502520084583],[85.35069033566843,27.694349157367636],[85.35080493769966,27.694322972860565],[85.35098860167774,27.69438933860917],[85.35103477041666,27.694447758328252],[85.35087733007558,27.694539765054905],[85.350862385488,27.69456570164514],[85.3506784559252,27.69464996577614],[85.35064233545009,27.694502520084583]],[[85.3512792583231,27.694278673274024],[85.35125246055988,27.694291491248457],[85.35122172283089,27.694337240700875],[85.35105196451156,27.694321133783454],[85.35097553661409,27.694091483840815],[85.35105225383525,27.693972835599123],[85.35119129583643,27.69394436030936],[85.3513713648227,27.693965879947008],[85.35134077006218,27.694090654494836],[85.35135459352367,27.694115308535345],[85.3513890759918,27.694128486489156],[85.3512792583231,27.694278673274024]],[[85.35143916135928,27.69351001281781],[85.35149134606588,27.693456877177564],[85.35150672232517,27.693554969037077],[85.35143916135928,27.69351001281781]],[[85.35126971072673,27.693076002624764],[85.35050778060425,27.69344085236794],[85.35038853498423,27.693432690329576],[85.35031533362908,27.69338325294675],[85.35032797387979,27.693204512924982],[85.35098808978036,27.692670164048593],[85.3512619166513,27.693040537859893],[85.35126971072673,27.693076002624764]],[[85.35128193833356,27.69315166098572],[85.35134130979343,27.6936138934964],[85.35119808325597,27.693672019107538],[85.35101773999541,27.693273341777992],[85.35128193833356,27.69315166098572]],[[85.35028920174106,27.692247869150325],[85.35011356359945,27.692376607687024],[85.3500270693268,27.69255316320299],[85.34990445311843,27.692622207975404],[85.3497395322454,27.692677822152305],[85.34959464430753,27.692767609371135],[85.34942771879942,27.692920147088326],[85.34925051949499,27.692996765153218],[85.34915262966496,27.69299353094386],[85.34896867305898,27.69303893115214],[85.34879386027369,27.69304198458538],[85.3487425214296,27.69295938836962],[85.34867898936614,27.692785738769803],[85.34871935241564,27.692772782111707],[85.34887414142298,27.6928408611462],[85.34890564017117,27.69283084048285],[85.34891799698781,27.692803913087975],[85.34879931047153,27.69257573420428],[85.34877652127992,27.69255697621635],[85.34873472467197,27.692564520136987],[85.34859813167019,27.69270358522139],[85.3484051866194,27.692711419730994],[85.34839635289049,27.692701411452294],[85.34838463483501,27.692515018477017],[85.34835091267155,27.692383101694325],[85.3485072406973,27.692328188341108],[85.34859372506556,27.692151705729607],[85.34877742491483,27.692068222182552],[85.34893752817015,27.691900895203844],[85.34907236208765,27.692084385939705],[85.34914948846092,27.692143479449985],[85.34941744984575,27.692127889777762],[85.34953305121168,27.692084005611243],[85.34968216627135,27.691953859199092],[85.3503463059307,27.692089862778406],[85.35028920174106,27.692247869150325]],[[85.34908380002258,27.691911499722963],[85.34902354313348,27.691839098169343],[85.34917934082011,27.691858739937896],[85.34908380002258,27.691911499722963]],[[85.34825243525124,27.691667786032234],[85.34813131688131,27.69183444223073],[85.34805001042602,27.691795333515934],[85.34800017064421,27.69169354621],[85.34816780722961,27.6913401653915],[85.34831954281469,27.69150495593626],[85.34825243525124,27.691667786032234]],[[85.34778901541517,27.691447165008476],[85.34761881079692,27.691350978095162],[85.34758351933849,27.69127919266039],[85.34755417084027,27.69112589004408],[85.34753163361941,27.691106892673844],[85.34749852705447,27.691106311673245],[85.34732709895276,27.690757611718666],[85.3473397043843,27.690656105412607],[85.34726496428479,27.69052212587034],[85.34724974436207,27.690463114151054],[85.3472635436426,27.690415785878884],[85.34746907760464,27.690442765440586],[85.34750821909694,27.69042097220337],[85.3477066736732,27.69048039398025],[85.34769774617672,27.690631168981913],[85.34797760110713,27.691066265060755],[85.34778901541517,27.691447165008476]],[[85.34747405521009,27.69127240821805],[85.34735142964708,27.691423479773704],[85.34723448438464,27.691431134331296],[85.34698812672825,27.691350374722383],[85.34689976157293,27.691278416073065],[85.34680411949299,27.691248806619754],[85.34675230912359,27.691116757221504],[85.34685627630606,27.691063255120746],[85.34713064203083,27.691139125277306],[85.34716292419895,27.691131577425132],[85.34717777831179,27.69110682243698],[85.34716417848789,27.691074882438325],[85.34711499260841,27.691035380167982],[85.34682614987713,27.69094075936317],[85.34676798762986,27.690794875961014],[85.34694815606848,27.69053046883238],[85.34691563919202,27.690450479858324],[85.3468949554086,27.69029802820714],[85.34691229737214,27.69021446046487],[85.34706174920045,27.690213868310565],[85.34707289775884,27.690229113141015],[85.34713030936965,27.690358726549967],[85.34715273088361,27.6904703183414],[85.34713837828423,27.69052353047052],[85.34721653046668,27.690681132771452],[85.34722593147687,27.690743604793838],[85.3474410509336,27.691169486997705],[85.34747405521009,27.69127240821805]],[[85.34791813709639,27.689665777902977],[85.34795487009879,27.689687446886197],[85.3479085930213,27.689876614747973],[85.34782461619554,27.68979082354284],[85.34791813709639,27.689665777902977]],[[85.34799588758236,27.689448983650195],[85.34792207975477,27.689496351350282],[85.34776178404523,27.689270596479222],[85.34768671446878,27.689200027809946],[85.348079112549,27.68902137127607],[85.34807696602209,27.68927549284034],[85.34799588758236,27.689448983650195]],[[85.34768880737474,27.689584687084924],[85.34761085341437,27.689525708597014],[85.34732073405605,27.689235889211194],[85.34743526573949,27.689121509002458],[85.34770816702292,27.689334381671436],[85.3478562885559,27.68953875171006],[85.34768880737474,27.689584687084924]],[[85.34711104274923,27.688915607441224],[85.34703189127605,27.68890521664106],[85.34694438095232,27.688866782200193],[85.34709375129151,27.688420271005395],[85.34711104274923,27.688915607441224]],[[85.34665721355631,27.688810225592547],[85.3464941236614,27.688862953902127],[85.34630994189756,27.688884945021726],[85.34613404150453,27.68884343927924],[85.34611668638728,27.688765835069646],[85.3462092044074,27.68857590424484],[85.3462941729773,27.68848551154822],[85.34659875535553,27.68857622432659],[85.34663635405172,27.688562971196816],[85.34664200902044,27.68852654050743],[85.34660103209173,27.688483777638876],[85.34645581760068,27.688432044973485],[85.3461300566443,27.68835188329823],[85.34602548753718,27.68827586139508],[85.3457680949486,27.68821434671641],[85.34581338438753,27.688140194293815],[85.34614424481751,27.68805092156806],[85.34707503181866,27.688223257109215],[85.34687015372778,27.688835696962272],[85.34665721355631,27.688810225592547]],[[85.34594495822807,27.688335476119104],[85.34599567814689,27.68849448828116],[85.34571760916877,27.688671511443815],[85.34554153686666,27.68859657729278],[85.34561647493237,27.688440127186354],[85.34572279615881,27.68827779139923],[85.34594495822807,27.688335476119104]],[[85.3454581399309,27.687763561428834],[85.3454072942384,27.687751870553143],[85.34541406173133,27.68771581149078],[85.3454581399309,27.687763561428834]],[[85.34516601407071,27.687601544920536],[85.34522640462414,27.687512521839857],[85.3453050573456,27.687597726748013],[85.34516601407071,27.687601544920536]],[[85.34477176168157,27.687084926504784],[85.34505636136538,27.6872722199879],[85.3450252006948,27.687618491605814],[85.34495959477175,27.687741196073734],[85.34472189157418,27.68798668576297],[85.34452333204636,27.68802047045718],[85.34447216309205,27.687966474938897],[85.3444309721436,27.687952054342617],[85.34440203663927,27.68796077042738],[85.34430790755387,27.688098203213016],[85.3443474836621,27.688282387063946],[85.34394489243003,27.68852987187793],[85.3434596302785,27.688012249799186],[85.34349466662957,27.68794959300639],[85.34342367541757,27.687789067298578],[85.34365383861682,27.687689715796786],[85.34381582301357,27.6875828480092],[85.34403768340998,27.687543759834522],[85.34418064655614,27.687567492119975],[85.34421113367503,27.687587984592138],[85.34401296821356,27.687763890238276],[85.34401824194147,27.68782197459045],[85.34404064945666,27.687845165241594],[85.34439128899815,27.687778724073993],[85.34460504682575,27.687827487710038],[85.34463390076674,27.687817307293276],[85.34464621790971,27.687791876378242],[85.34461650966233,27.687728857429402],[85.34458111345323,27.68755484567741],[85.34464125077506,27.687442925731936],[85.3446281735319,27.6874045411153],[85.34439020034839,27.68731399860987],[85.34438437102021,27.68727446474877],[85.34435110756685,27.687257685868204],[85.34431947577743,27.687270117588863],[85.34428929618262,27.687316081570952],[85.3440915277871,27.687406368148253],[85.34398700727827,27.687361079551287],[85.34381895140885,27.687206453023027],[85.34382820624286,27.687080953049293],[85.34397131683833,27.686767331994023],[85.34472909715733,27.687005222490413],[85.34477176168157,27.687084926504784]],[[85.34376120965965,27.688662820747986],[85.3436797329802,27.688729935049246],[85.34341986010838,27.688812875581323],[85.34335567509812,27.688813530834985],[85.343247675809,27.688970217473802],[85.343075731636,27.688972762105333],[85.34268730876342,27.688920569345335],[85.34261843060916,27.68885294563517],[85.3426235577505,27.688664090193384],[85.34284156975727,27.688632291733757],[85.34300906808639,27.688564919858468],[85.34302312903736,27.688539710699263],[85.34301255836772,27.688449156133814],[85.34305092576756,27.688255073344656],[85.34340046056586,27.688061793800937],[85.34370361241307,27.688382884991718],[85.34376120965965,27.688662820747986]],[[85.3442792554557,27.687645537246983],[85.34424532053038,27.68765940419739],[85.34427083719686,27.687636969003588],[85.3442792554557,27.687645537246983]],[[85.34353252594833,27.686774046618165],[85.34364112954472,27.6870968511471],[85.34367782409745,27.687456168810428],[85.34352874379864,27.687656232966926],[85.34348047357109,27.68767738469992],[85.34316298553468,27.6876527540572],[85.34311009891587,27.68757603921018],[85.3429931248573,27.687479690250786],[85.34280204646672,27.687366243009485],[85.34279063936799,27.687189111965292],[85.34275493588451,27.687000408671253],[85.34282214223198,27.686931057750385],[85.34296083111524,27.686851988582465],[85.3431640828506,27.686838180004578],[85.34332076443286,27.6867476390014],[85.34353252594833,27.686774046618165]],[[85.34125302790098,27.687206319334326],[85.34145779020976,27.687291213392093],[85.3414313645718,27.687452021983887],[85.34124539804176,27.687538083372328],[85.34106609425231,27.687431616053487],[85.34106566918007,27.687248578808024],[85.34125302790098,27.687206319334326]]]}}]}