{"type":"FeatureCollection","features":[{"type":"Feature","properties":{"derived":true},"geometry":{"type":"Polygon","coordinates":[[[85.31424677660944,27.70702278043023],[85.31422274815189,27.70704004792268],[85.31421934569778,27.707067367185438],[85.3147346611731,27.708639394003026],[85.31482531767324,27.708675796676914],[85.31514518941532,27.708725732888652],[85.31591069476937,27.708924141747147],[85.31673395580223,27.70921682276042],[85.31687174674283,27.709225249060488],[85.317018958836,27.70913012374228],[85.31714713585396,27.709123412673833],[85.31722502480669,27.70950969061282],[85.31734742145014,27.709716054036218],[85.317645498516,27.709816748111425],[85.31780400176049,27.709900879637498],[85.31794731755069,27.709936118317735],[85.31829747936416,27.709926430508773],[85.3183553829304,27.709911104662773],[85.3188431980302,27.709956403623845],[85.31932679824267,27.710033810844706],[85.32145148154154,27.70975417799513],[85.32187901173073,27.709678736631442],[85.32212938458044,27.709788219188262],[85.32220288053374,27.710209169719853],[85.32227818507509,27.710275613557283],[85.3223899641866,27.710284517635245],[85.32365468640126,27.710141080665927],[85.32394676760075,27.710153203482715],[85.32538927137294,27.710026590914165],[85.32583226741649,27.70995593552866],[85.32596228053939,27.70996138969662],[85.3261964992672,27.709772793835622],[85.32638795530215,27.709841788056696],[85.3275976474156,27.709594149856443],[85.32777624232865,27.70950941342144],[85.32779535759875,27.709485252714963],[85.32756893013989,27.708665012839273],[85.327513098293,27.708402831814418],[85.32742880739966,27.708195387399048],[85.3273840053021,27.707978980713875],[85.3272826285061,27.70765409243151],[85.32721678750413,27.707290073819195],[85.32702207686562,27.706477235200374],[85.32691854070804,27.706151059725368],[85.32684384636042,27.705827565489813],[85.32677371787771,27.70535140799345],[85.32674246403126,27.705342647494543],[85.32595258568499,27.705426943012444],[85.32559115339146,27.705474689409197],[85.32528095434883,27.705532859296177],[85.32424502138981,27.70566549063925],[85.32324672268723,27.705678022795954],[85.32275771866972,27.705665563598174],[85.3227717897363,27.705490851397954],[85.32271005452274,27.70498247475836],[85.32237789573462,27.702488226678838],[85.32218561750302,27.701195579209163],[85.32219541045605,27.701166317184786],[85.32184546135278,27.699536589884534],[85.32181401128305,27.699507862657455],[85.32155710630084,27.69956052330031],[85.32148367373735,27.699636292381552],[85.32126824092667,27.699691458724747],[85.32092803920212,27.699886160517316],[85.32093896690402,27.699922462362593],[85.3209957429399,27.69994084193684],[85.32135088044095,27.69975147613865],[85.32152435210077,27.699719891112455],[85.32169558033085,27.69961305634066],[85.32177454768917,27.699626762292553],[85.32179946282993,27.699735094899534],[85.3217706850435,27.699849341302038],[85.32165861402142,27.699897300653905],[85.32164293918851,27.69993304338957],[85.32169111465953,27.699986437517563],[85.32174174131163,27.69998377146156],[85.32185954806405,27.70001800996797],[85.32189243459646,27.700171041620603],[85.3217164262387,27.700224715130457],[85.32167580669653,27.70029983214025],[85.32170259900906,27.700331029106597],[85.32190153458384,27.700380124525964],[85.32195270935753,27.700462060930924],[85.32197267330655,27.700555129671347],[85.32183019845236,27.700640378679022],[85.32175936510967,27.70065609840255],[85.32171029171538,27.7004890978958],[85.3216552499692,27.700468806272774],[85.32158906070471,27.700482918833604],[85.3214072017591,27.700554481499417],[85.3214041348809,27.700586702080766],[85.32143893690885,27.700625190574982],[85.32144521145662,27.70069348162373],[85.32127620192998,27.700746027528595],[85.32121092847217,27.700664632037903],[85.32117756489254,27.7005755438298],[85.3211477697525,27.70056779471825],[85.32103858357152,27.70059044423451],[85.32100067142837,27.700619119040503],[85.32100045215863,27.700653351721385],[85.3211188563972,27.700721489414743],[85.32104328583371,27.700773777522155],[85.32095569258067,27.700763811929328],[85.32078841450355,27.700830942657547],[85.32078442395512,27.700864790273577],[85.32081382629278,27.700886548250377],[85.32087485550232,27.700892354799215],[85.32116389995994,27.700847699523564],[85.32120150045232,27.70089246357367],[85.32114195362766,27.70096505156863],[85.3210893576771,27.70099010731419],[85.32096178254366,27.70101354815497],[85.32093811756198,27.701040280406247],[85.32094851523502,27.70108426123192],[85.32100353044277,27.701089668266995],[85.32110213543011,27.70117000858956],[85.32123187373885,27.701168093539515],[85.32128147793647,27.701186649788756],[85.32120426508867,27.701358033040236],[85.3211040009647,27.701394320732835],[85.32108311142595,27.70141895791203],[85.32108831803679,27.701445269156565],[85.32112000389266,27.701462268006964],[85.32119558200316,27.701591386819835],[85.32110727386645,27.701672533053355],[85.32105105469662,27.701671109574768],[85.32102400050036,27.701692659419958],[85.32031529875786,27.7017762254981],[85.32030764709364,27.701457974381807],[85.32020520706126,27.700793366452835],[85.32007020839092,27.700386527656143],[85.31992950253343,27.700224617231985],[85.31949417644282,27.699860813662863],[85.3192756027297,27.699749736760136],[85.31896055196948,27.699693093273694],[85.31893541045737,27.699658305029804],[85.31880153673788,27.699634834759422],[85.31876961391788,27.69964477889482],[85.31875557886994,27.699673470063253],[85.31853093061993,27.699669634534114],[85.3182768693404,27.699699046009034],[85.31802573344369,27.699763072383824],[85.31780909990222,27.699850269912133],[85.31753512185351,27.700027779157363],[85.3173372607807,27.700212293190386],[85.31715538506026,27.70044493934034],[85.31703645799143,27.70081383465749],[85.3170111611409,27.701010015136543],[85.31676389249515,27.701375618199705],[85.31664525094125,27.701792402959832],[85.31670391415665,27.702080893158097],[85.31669313838199,27.70223216183994],[85.31665375058735,27.702347763111725],[85.31653897560291,27.702451880173424],[85.31648699325127,27.70350849745525],[85.3163943433604,27.704634490291994],[85.31633362690573,27.704942345721182],[85.31628921571452,27.705864579674934],[85.316342087358,27.706007332301056],[85.31657470129491,27.706121954006633],[85.31645636924794,27.706246909721546],[85.3163960927386,27.706372818703954],[85.3162917361131,27.706468474718374],[85.3159672004655,27.70640891772319],[85.314484891512,27.70695984221175],[85.31424677660944,27.70702278043023]],[[85.31668610296525,27.708028082174096],[85.31696511624519,27.70904377392114],[85.31673963202402,27.709141847160257],[85.31598763788952,27.708873796469987],[85.31668610296525,27.708028082174096]],[[85.31680822141976,27.707880217131844],[85.31696205265426,27.708019832530248],[85.31689582934375,27.708220463398497],[85.31706707355733,27.708833381115948],[85.31702068688601,27.708942068715928],[85.31674876825817,27.707952205042112],[85.31680822141976,27.707880217131844]],[[85.31707440063009,27.708104439016076],[85.3172095891378,27.708104627685845],[85.31736727127964,27.708081949077346],[85.31767957455197,27.708078346694307],[85.31769389655499,27.708197984453303],[85.31767535517648,27.708331478675838],[85.31707194412093,27.708551184881497],[85.31698013799961,27.708225444306734],[85.31707440063009,27.708104439016076]],[[85.31729614816473,27.70945471075147],[85.31717015261295,27.708845025540874],[85.31775007658024,27.708420086369355],[85.3177842767106,27.708409130270958],[85.3178107648078,27.70836619273693],[85.31779334191737,27.708254188414596],[85.3180891363329,27.708355035932872],[85.31817053156658,27.70924943034499],[85.31729614816473,27.70945471075147]],[[85.31800413359576,27.70955103309154],[85.31780615476798,27.709818429526315],[85.31773014388361,27.709777784415436],[85.31800413359576,27.70955103309154]],[[85.31823450438014,27.709779717712053],[85.3182470876628,27.709855749362035],[85.31809707036821,27.70986020932111],[85.31823450438014,27.709779717712053]],[[85.31838633014814,27.709841389646837],[85.31835674303157,27.709784999771323],[85.3185617727038,27.709857681571943],[85.31838633014814,27.709841389646837]],[[85.31934126320955,27.708912691958993],[85.31991077100066,27.708911192378093],[85.31997567169076,27.70970836356184],[85.31934126320955,27.708912691958993]],[[85.31911735410544,27.70882189420108],[85.31907497033039,27.70884259821401],[85.3190846497867,27.708890400129846],[85.31829542424899,27.709220715131757],[85.318257829041,27.70913348907755],[85.3182296008704,27.708855481122885],[85.31825761808453,27.70874977099889],[85.31817637923852,27.70832393973463],[85.31814990484494,27.70806923172171],[85.31981731888213,27.70805435945475],[85.31981008622368,27.708146357908806],[85.31987245996353,27.7085690253276],[85.31987965551609,27.708839077086466],[85.31927014482397,27.70884068179331],[85.31911735410544,27.70882189420108]],[[85.31808952998806,27.707980875512927],[85.31916032967167,27.70796841204223],[85.31918808293797,27.70798777361788],[85.3181161082066,27.70799733241433],[85.31808952998806,27.707980875512927]],[[85.31798559461632,27.707832576090652],[85.31801927832063,27.707805655666096],[85.31802493507304,27.70771129714221],[85.31800407842402,27.707684558546045],[85.31796082837624,27.707678235593765],[85.3179443521559,27.707575917747235],[85.3179775156114,27.707523772907415],[85.3179745665865,27.70745718607619],[85.31795561757681,27.707433102842806],[85.31791856089717,27.707426587060493],[85.3178114246822,27.70697589558266],[85.31781217493942,27.706825684354666],[85.31775263547331,27.706429549429863],[85.31775144100348,27.70625535264154],[85.31773705867478,27.706230828633526],[85.31772061825785,27.70601426887848],[85.31795734064315,27.706007403071716],[85.31798502427412,27.70599366597269],[85.31817362448754,27.705978969651724],[85.31819614705589,27.70605172070529],[85.31823354628035,27.706069000549476],[85.31826620752784,27.70605061453079],[85.31829643916845,27.705969399405127],[85.31847948818765,27.705955135234248],[85.31853230048527,27.706642877956615],[85.31847180027421,27.706649654604448],[85.31845238864511,27.70668561696448],[85.31857171061594,27.706821948342103],[85.31861998480619,27.706811844509318],[85.31862648002692,27.706768589657294],[85.3187268544,27.70673373608209],[85.31876631241772,27.706798533141903],[85.31879590405373,27.70681255768448],[85.31882813143514,27.706801149890378],[85.31884080192091,27.706771286967655],[85.31916857774235,27.706809501794087],[85.31936863421879,27.706817241325272],[85.31948459144613,27.706813644794156],[85.31957215544514,27.706793306558477],[85.31984865467331,27.706784212769087],[85.3198871376383,27.706797137982946],[85.31985172246539,27.70693014612012],[85.31989423835272,27.706986605943616],[85.3198975460633,27.707101973353424],[85.31986642225203,27.707134557512806],[85.31977503945562,27.707196126421575],[85.31931295271423,27.707188174916855],[85.31925936234778,27.707214003703328],[85.31924340467204,27.707257099720028],[85.31929149131403,27.707325205985565],[85.31931811238393,27.70733869560172],[85.31935549467487,27.707324956430416],[85.31937826938825,27.707273816161518],[85.31963598627388,27.707283938224602],[85.3196433171402,27.707355120887698],[85.31967607763359,27.70737807302046],[85.31970602471498,27.707370824999888],[85.31979621833865,27.707295338537353],[85.31988935319458,27.707329743807932],[85.31985282767701,27.70742646515648],[85.31984657145668,27.707636066485968],[85.31987580062405,27.707761608504946],[85.31983641945698,27.70779403516199],[85.31983547748459,27.707835405692027],[85.31974146758868,27.707870482199432],[85.31965117462124,27.707873730406362],[85.3195629480678,27.70783415830376],[85.31949315360004,27.707555711292354],[85.3194363042234,27.70749908822403],[85.31934663997,27.70746513636918],[85.31931551332836,27.70746765917494],[85.31929433230488,27.70750475903071],[85.31933013012933,27.707568075365845],[85.31913672951681,27.707639432714576],[85.31908717436308,27.707466717875292],[85.31896807399288,27.707443707975106],[85.31874246032065,27.707470541640056],[85.31861739689914,27.70743982499017],[85.31858184675643,27.70727237870239],[85.31850971764057,27.707246833430204],[85.31844714268466,27.70727134810964],[85.31843478120332,27.70730355418947],[85.31848025858805,27.707375044985582],[85.31850781475478,27.707490648685617],[85.31857197438222,27.707566391811973],[85.31860512805235,27.707577552431964],[85.31873716899366,27.707555525578208],[85.31897926303157,27.707683547034748],[85.31907935493574,27.707769012272085],[85.3188702267235,27.707874735307833],[85.31871433657726,27.70789239258868],[85.31863977679068,27.707892896815842],[85.31852722636533,27.707863435150298],[85.31849601068089,27.70787630218709],[85.31848576507561,27.7079040110225],[85.31799780000102,27.70790975122302],[85.31798559461632,27.707832576090652]],[[85.31777280185024,27.70591026959636],[85.31780178024113,27.705907701192842],[85.31781010183084,27.705928960157696],[85.3177548720797,27.705933322381867],[85.31777280185024,27.70591026959636]],[[85.31803439013358,27.70588708436154],[85.31813762707105,27.705877934069715],[85.31814694465581,27.7059023547362],[85.31802093888004,27.705912307359558],[85.31803439013358,27.70588708436154]],[[85.318365873808,27.70585770339229],[85.31843583741812,27.70585150208188],[85.31845067504614,27.705878363972282],[85.31834284986193,27.705886880842097],[85.318365873808,27.70585770339229]],[[85.31871913840786,27.70598612993069],[85.31873452453037,27.70603091875706],[85.31874914056662,27.706463287709717],[85.31859700646616,27.706412121570573],[85.31856189836861,27.705968904634016],[85.31871913840786,27.70598612993069]],[[85.31942725304926,27.707969705560178],[85.31973353648227,27.707966720079025],[85.31975414240843,27.707982722713655],[85.31940749376517,27.707985816107335],[85.31942725304926,27.707969705560178]],[[85.31998889018048,27.708871786112784],[85.32004275663125,27.708543790116405],[85.3199166708236,27.70814552168897],[85.31993422799502,27.708053168726224],[85.32125180333196,27.708038732826314],[85.32140126863993,27.7096877704004],[85.32025939298427,27.70983703660827],[85.3200648178782,27.709804323170598],[85.31998889018048,27.708871786112784]],[[85.31995130424194,27.70796334531244],[85.321320323911,27.707954715094303],[85.32128233923875,27.707966195621907],[85.31994798297598,27.70798081564296],[85.31995130424194,27.70796334531244]],[[85.32029678746578,27.707888261189524],[85.31996099563283,27.70786595720427],[85.31997783841216,27.70777618113386],[85.31997683977738,27.707579101480082],[85.32031749903702,27.707548208797984],[85.32051503906698,27.707509516015588],[85.32052893616651,27.707485117933867],[85.32053548227998,27.70731248159852],[85.3205033276129,27.707279522892208],[85.32048702591156,27.707152457694846],[85.32066410079716,27.70710749017584],[85.32068272454879,27.70708538542797],[85.32067624320419,27.707055207910912],[85.32063791260293,27.707035229545582],[85.32042622464148,27.70703478132339],[85.32039841042715,27.707047050317257],[85.32036975314847,27.707138567042364],[85.32040835604694,27.707320594611968],[85.32028812840414,27.70745176414944],[85.31999581959528,27.707396914904372],[85.3199804069793,27.70723006643527],[85.31999290855791,27.706964889109184],[85.31997634300667,27.70691775750054],[85.31999220048402,27.70676882972652],[85.31996684841752,27.70672461816962],[85.31994291823985,27.706710162284068],[85.3198521434433,27.706701516380353],[85.31938743523487,27.70672477554946],[85.31922820287274,27.70657817265065],[85.31886148568924,27.70659587949031],[85.31887069837666,27.70652224353376],[85.31883621365807,27.70638767239851],[85.3188286166609,27.706097162608085],[85.31886219881301,27.706032259071215],[85.31881359064785,27.70592805072928],[85.31928543208188,27.705886489139445],[85.31929190605211,27.706061266415254],[85.31924670607951,27.706202822880392],[85.3192733041464,27.706294218202686],[85.31931336093854,27.706314336615268],[85.31937752007344,27.706281217090677],[85.31939859332337,27.706070146803196],[85.31952276107401,27.705897323283914],[85.31991956788927,27.70583921443903],[85.31992880977555,27.706314326731306],[85.31994928917398,27.70635337180753],[85.31998238665128,27.706364856126008],[85.32015367086758,27.706268973141725],[85.3201780961626,27.70623143862495],[85.32016158106437,27.705831961031254],[85.32019006577691,27.705819846828827],[85.32170925483405,27.70571422634079],[85.32171941184961,27.705752797450213],[85.32170022454082,27.705893006805653],[85.32161815403117,27.706044628813792],[85.3216480354262,27.706188599255253],[85.32162575533192,27.706483261706513],[85.32163749708191,27.706530274940377],[85.32167236586959,27.70654648186516],[85.32172002375016,27.706514195045603],[85.32175452943179,27.706444732972862],[85.32175670041404,27.706223596568808],[85.3218306148166,27.705772569311026],[85.32181579143692,27.70571022511829],[85.32204236188258,27.705711258564985],[85.32227278938143,27.705749590155754],[85.32231003459339,27.705841143992465],[85.32234383790359,27.705859388760462],[85.32250603230608,27.705820598070453],[85.32260315420503,27.705832153551885],[85.32274586707818,27.70601319723806],[85.32275136788954,27.70644580698608],[85.32272350477909,27.70647332488307],[85.3227238941692,27.706576542245624],[85.32267187500067,27.70661799586656],[85.32239638419723,27.70650457370642],[85.32233819383238,27.70642740666822],[85.3223444837349,27.7062238775428],[85.32231307645718,27.706191363097183],[85.32228247039191,27.70619598066785],[85.32226543909117,27.706215461306186],[85.32224521010896,27.706403890377345],[85.32217593125812,27.706418395700226],[85.32212339792508,27.70641097477015],[85.3220663036581,27.706432103548828],[85.32201844804385,27.70664953261073],[85.32203146752771,27.706680995291663],[85.322172083297,27.706723769878217],[85.32223179475768,27.706656414975868],[85.32224786218931,27.706601674314463],[85.32234348634181,27.70657961646256],[85.32243175733834,27.70673793844304],[85.32230949642113,27.70694791459113],[85.3222302170329,27.706916565151875],[85.3221964533128,27.706920416982666],[85.32207614715719,27.70708708926354],[85.32208165199654,27.70712689944799],[85.32214100042077,27.707151859872745],[85.32219728007135,27.707210563226763],[85.32214396684616,27.707346301587776],[85.32212778774645,27.707475036643324],[85.32176056884167,27.707866644110034],[85.32156928925674,27.707880945335166],[85.32029678746578,27.707888261189524]],[[85.31887531303359,27.705812547792338],[85.31922959582292,27.70578150188163],[85.31925158453578,27.70581215166216],[85.31885063749803,27.705846262306686],[85.31887531303359,27.705812547792338]],[[85.31986231780803,27.705752991980138],[85.31987420260344,27.70576564669735],[85.31985422869727,27.705767112832454],[85.31986231780803,27.705752991980138]],[[85.3200118437715,27.70613141067493],[85.32001054802184,27.70591848138988],[85.32008108367572,27.705869877987404],[85.3200859113971,27.706160634652658],[85.3200118437715,27.70613141067493]],[[85.32024199826326,27.705701504766267],[85.32031323923609,27.70569679794628],[85.32033905733249,27.70573152435883],[85.32022615928571,27.705739811707687],[85.32024199826326,27.705701504766267]],[[85.32056229093665,27.705679732906958],[85.32168365886758,27.705599206962635],[85.3216902558575,27.705632331544326],[85.32052462577148,27.705717902392518],[85.32056229093665,27.705679732906958]],[[85.32106374105199,27.705545815584983],[85.32095760027008,27.70555830761749],[85.32100073828283,27.705408626940173],[85.32098720551811,27.70538311162585],[85.32095283121821,27.705367888453534],[85.32093535515101,27.705225316325603],[85.3209536546796,27.705183144562415],[85.3209376451772,27.705155494121804],[85.32074799637384,27.705153231568755],[85.32063890863434,27.70516961138226],[85.32054782132599,27.705208885221115],[85.3204670749295,27.705160880392935],[85.32045124800273,27.705121146230333],[85.32051033984166,27.705038869097155],[85.32068206680088,27.70504801929151],[85.32086002292215,27.70502949855306],[85.320905746093,27.705004624319255],[85.32091439918047,27.70497344837681],[85.32087801031864,27.70494529683576],[85.32063959476122,27.704949867953378],[85.32050033344638,27.70488333278558],[85.32037458433251,27.704953490151514],[85.32032276989911,27.70486352543205],[85.3202983125361,27.704678537415028],[85.32031549569484,27.704570671825202],[85.32048439148578,27.704527703918504],[85.3205021359847,27.704588190893414],[85.32054580825678,27.70460110006342],[85.32075690863972,27.70443064884939],[85.3208422724133,27.7044386632956],[85.32091824747864,27.704499853594214],[85.32090963244175,27.70457742638041],[85.3208598383477,27.704581142620363],[85.32076264312471,27.704528123126778],[85.32073030310323,27.704538292585845],[85.32071815842353,27.70456409619525],[85.32074700833373,27.70465509917323],[85.32085093730656,27.7047796678662],[85.32089600115641,27.70477924237714],[85.32099065516604,27.704689436106626],[85.3210878481599,27.704757007216138],[85.32126496718185,27.704757894159933],[85.32130645786116,27.704863385591892],[85.321329298736,27.704882069697025],[85.32153132687337,27.70487363510587],[85.32160939222793,27.704896416267463],[85.32167337724529,27.70552731525465],[85.32118072396943,27.705560288519884],[85.32106374105199,27.705545815584983]],[[85.32086836343031,27.70534448514294],[85.3207359259015,27.70534883741033],[85.32067849335972,27.7053728000903],[85.32068979017751,27.705273502002616],[85.32085778861224,27.705258213817636],[85.32086836343031,27.70534448514294]],[[85.32032743154804,27.704492546830163],[85.32033980587163,27.704365118226864],[85.32042232810045,27.704374066408487],[85.32048657026218,27.704411924996077],[85.3204801768145,27.70445368765801],[85.32032743154804,27.704492546830163]],[[85.32186214977766,27.705598276859185],[85.32196457739717,27.70559940016887],[85.32199099938867,27.70563586673404],[85.3218411756498,27.705631762218935],[85.32186214977766,27.705598276859185]],[[85.32282047137855,27.706564645064457],[85.32283664660838,27.706011187857342],[85.32291254029742,27.70592772103702],[85.32290393171336,27.706573436259614],[85.32282047137855,27.706564645064457]],[[85.32305685749748,27.705769002507942],[85.3231870269552,27.705823183497834],[85.32320525765401,27.705878043851058],[85.32327788134774,27.705961569345458],[85.32329834258132,27.706007283697385],[85.32327366502746,27.70627957431318],[85.32330511994886,27.70631271269253],[85.32333927427143,27.706305866832814],[85.32350319216742,27.70617902231659],[85.32365031100854,27.706272414878423],[85.32376846127819,27.706278239379564],[85.32385224530472,27.70626393549652],[85.32407472247698,27.70600072500221],[85.32410486280423,27.706004203661475],[85.32418972718867,27.705976767693645],[85.32430296801877,27.70602806151605],[85.32447743293106,27.706241431940143],[85.32445015225369,27.706335502545365],[85.32441558326227,27.706390020593734],[85.32441897499024,27.706671114472947],[85.32435115008794,27.7067355460632],[85.3242181962566,27.70669580780895],[85.32417531584981,27.70661964209393],[85.32412362780275,27.70657242443244],[85.32411884362018,27.706442016442693],[85.32409234318202,27.706395727786173],[85.32405335799469,27.706396670723574],[85.32395388216361,27.706469825355008],[85.32382547435911,27.706450602843546],[85.3237876134044,27.706482176569363],[85.32379869681795,27.706511725187898],[85.3239471576982,27.70662274336364],[85.32410465116097,27.70667770481463],[85.32417722883926,27.706825864201893],[85.32416931282408,27.70692359820566],[85.32395702656596,27.706963273245165],[85.3238936081064,27.70687740466879],[85.3239228218279,27.706823931613776],[85.32388807443067,27.70674581757315],[85.32385877500417,27.70672929968278],[85.32381672708759,27.70675049316212],[85.32380252659773,27.706840168069842],[85.32363915728757,27.706844125154184],[85.32366058766962,27.706657367213882],[85.32359118860035,27.706526249694054],[85.32354317469576,27.70649619192578],[85.32351564161918,27.70650773122541],[85.32350492821328,27.706530236254387],[85.32353915783888,27.706788763933265],[85.32331413284737,27.706876629186308],[85.3230398400401,27.707012293947365],[85.3229596748768,27.706811384163554],[85.32298449223839,27.706615143583814],[85.32299487133989,27.705837174305994],[85.32305685749748,27.705769002507942]],[[85.32459161150865,27.706026006177648],[85.32451259584656,27.706126516577967],[85.32441204848357,27.70603245294472],[85.32459161150865,27.706026006177648]],[[85.32419616850356,27.706993659087473],[85.32432518620398,27.707005154090815],[85.32451133251135,27.707108107161233],[85.32452386259358,27.707179872072768],[85.32447874502608,27.70729878673724],[85.32404840181725,27.707232453263423],[85.32402421059629,27.707172242609058],[85.32395413232027,27.707083714857543],[85.32401016389831,27.707027113948715],[85.32419616850356,27.706993659087473]],[[85.32380630185443,27.70691230045792],[85.32385129611309,27.707096896264957],[85.32390542905978,27.70721059154311],[85.32403086174395,27.707380651039323],[85.32410978909515,27.707583204349593],[85.3239826410008,27.70765328678348],[85.32390539118853,27.707632472249998],[85.32386710701566,27.707503920207923],[85.32384213658561,27.707487505622478],[85.32381143854572,27.707491613437707],[85.32376258780666,27.707542674695127],[85.32378566064074,27.70776457099941],[85.3237366372135,27.707776526975987],[85.32364281746716,27.707842709772432],[85.32357394619066,27.70779686986291],[85.32346187339836,27.707788911260526],[85.32342652511129,27.70767892232323],[85.32339392873936,27.707478788923073],[85.32346520920825,27.707376093942166],[85.32351856562669,27.707335454787763],[85.3235167790748,27.70729837214067],[85.32348316801036,27.707282142037958],[85.32342586489479,27.707301860905723],[85.32326726091185,27.707291057631302],[85.32321858905271,27.707206327217644],[85.32314864186972,27.707145415347092],[85.32318024825881,27.707059103872137],[85.32345257316962,27.70691797920932],[85.3235416358557,27.70695875303681],[85.32354307726273,27.707132288114337],[85.3236205942985,27.707220604568974],[85.32365710106329,27.707214305481152],[85.32367253894503,27.70718666379038],[85.3236383016144,27.70691636970548],[85.32380630185443,27.70691230045792]],[[85.32294759233869,27.70704744497961],[85.32290607116097,27.707086541445275],[85.3229122271032,27.7071107521456],[85.32294953564828,27.707151990076227],[85.32303038131941,27.70717959273588],[85.32305332517674,27.707216215654544],[85.32306291825,27.707289555131403],[85.32309037262905,27.707326899132614],[85.32313402959556,27.70734503559952],[85.32321268072874,27.707470577779468],[85.32309634660636,27.707537834013444],[85.3229625563267,27.70754825232555],[85.32287887082371,27.707616853392086],[85.32275583308456,27.707666581470786],[85.3224785402257,27.70771301644868],[85.3224590031777,27.707746832105446],[85.32249327955364,27.70785405062965],[85.3222857232846,27.707894303877257],[85.32224755666017,27.707881806468112],[85.32216498350243,27.707909121768676],[85.32213000075808,27.7078338005693],[85.3224083205737,27.707538240879476],[85.32257600965467,27.707336515107578],[85.32269019697615,27.707227192380184],[85.32269685245087,27.707195921859753],[85.32287362753114,27.706929382069212],[85.32294759233869,27.70704744497961]],[[85.32262075518521,27.707990181813447],[85.32261169547279,27.708082863596594],[85.32269302219677,27.70857400024813],[85.32272813145615,27.70859796598011],[85.32286846563508,27.70858400731331],[85.3228859958839,27.708594461230607],[85.32247225837538,27.709085323201748],[85.32245787006,27.708930590701726],[85.32248510164541,27.708914891890824],[85.32249447311361,27.708888779159473],[85.32247741251983,27.708860036444857],[85.32244090330559,27.70885522881801],[85.3224208153171,27.70869861823324],[85.32245126151165,27.708550074887935],[85.32240951917264,27.708383251565337],[85.32238729068587,27.70836396537549],[85.32235154560851,27.70836443816956],[85.32233037468643,27.70838466665421],[85.32231730485553,27.70845193290958],[85.32220026843284,27.70846552784243],[85.32201747587695,27.708379086658642],[85.32197926901446,27.708241668635942],[85.32196900565296,27.708131263010728],[85.3220077931184,27.708029038016246],[85.32211771110985,27.70800206376058],[85.32215691170967,27.708011824684977],[85.32228889573672,27.70796757986018],[85.32252809294893,27.70792119020372],[85.32262075518521,27.707990181813447]],[[85.32276171075836,27.70800402865546],[85.32280652215455,27.707897637419283],[85.32278534787065,27.70786994792287],[85.32270054292132,27.70784366287182],[85.32273142230196,27.70776593196815],[85.32288274462968,27.707701375596972],[85.32293086824414,27.70780443727009],[85.32291936263759,27.707891218119713],[85.32292962444217,27.707949806652096],[85.32298850484243,27.70802868642108],[85.32303830336416,27.70801797192948],[85.32310455128076,27.7078981414219],[85.32334437863321,27.707894361423726],[85.32338245432152,27.70795473383145],[85.32320937661521,27.708080278398985],[85.32319733720473,27.708105642769112],[85.32333833706734,27.70853706299227],[85.3230577123369,27.708557010202888],[85.32292700726785,27.708504007602755],[85.32276548810448,27.708520731600995],[85.32269453446453,27.708088349416126],[85.32276171075836,27.70800402865546]],[[85.32295617626997,27.707670506453912],[85.32314089575773,27.707616972044626],[85.32325531969876,27.707563055073578],[85.32327294821462,27.70772441478429],[85.32323483644258,27.707802173399006],[85.32313507862001,27.70780954889389],[85.32300338324417,27.707771604904213],[85.32295617626997,27.707670506453912]],[[85.32342416700843,27.708021088075878],[85.32353160935038,27.7082510227184],[85.32355712315253,27.708381706741537],[85.32352686697887,27.708465131241375],[85.32344063521852,27.708483123744976],[85.32336279867052,27.708353236643088],[85.32328460922943,27.708119120266353],[85.32342416700843,27.708021088075878]],[[85.3233571408627,27.708610041436962],[85.32348192910662,27.708564114601185],[85.32356321506244,27.708557425717828],[85.32365789235347,27.708627354473478],[85.32368096580616,27.708764009315292],[85.32371549556554,27.708813641301713],[85.32366637353375,27.708969515607887],[85.32369487643946,27.709007044364785],[85.32387320473329,27.709009456526932],[85.32390282865641,27.70899283979722],[85.32389667267645,27.708947623453348],[85.32383018328362,27.708934441480764],[85.32380793689185,27.70878118205212],[85.32385700539791,27.708765223314064],[85.32397276523939,27.708808175575903],[85.32401662982515,27.708847891147848],[85.32408662316408,27.708837080898924],[85.32419514452607,27.708854486372182],[85.32418455138017,27.708966853575976],[85.32419464280159,27.709029198947228],[85.32413709345806,27.709150679330563],[85.32407454384926,27.70922941547491],[85.32408127086235,27.70932183139167],[85.32411022013225,27.70938522292943],[85.3241324608522,27.70951336648243],[85.32404505299799,27.709570606941796],[85.32403161114138,27.70959447238377],[85.32405992632614,27.70977081403023],[85.32412160779944,27.709880996514592],[85.32415584905013,27.70999498922148],[85.32407870963802,27.710043813915714],[85.32397484596567,27.710059841764856],[85.32365904090553,27.710054375523146],[85.32354878856093,27.710020137374855],[85.32350319395867,27.70978545993937],[85.32352516984518,27.709611131187863],[85.32349801236587,27.709585808743956],[85.32336419143152,27.70957146385356],[85.32333245207772,27.70959045806872],[85.32332572895591,27.709636186003173],[85.32339170925212,27.709745321984876],[85.32322221676036,27.709797207390164],[85.32321942128668,27.710045870634815],[85.32316595015182,27.710118431267507],[85.32308491186383,27.71012684380511],[85.32300948182069,27.7100223635918],[85.32297123497295,27.709998311161268],[85.32292416987387,27.70999524749964],[85.32288888081507,27.709881300057088],[85.32272084318458,27.709664348747868],[85.32284326599273,27.709571070355903],[85.32298699779437,27.70953811946243],[85.32303567953949,27.709501584155205],[85.32318633319215,27.708624763335756],[85.3233571408627,27.708610041436962]],[[85.32216155201348,27.708842650827517],[85.32234491400408,27.708743414515002],[85.3223603383898,27.708863667239733],[85.32216155201348,27.708842650827517]],[[85.32201005714926,27.707732016139904],[85.32212183324533,27.707609389668033],[85.32219328610788,27.707647512695047],[85.32207538993288,27.707778962458097],[85.32201005714926,27.707732016139904]],[[85.32222329195586,27.707499565005904],[85.32225243853557,27.70746878552755],[85.32231031383199,27.707517030792367],[85.32226247535748,27.707570369104076],[85.32222329195586,27.707499565005904]],[[85.32239031687095,27.7073194345842],[85.32245372050332,27.707251229600008],[85.32250608220404,27.707298754808686],[85.32243288942263,27.707380362749888],[85.32239031687095,27.7073194345842]],[[85.322577623361,27.707101815770056],[85.3227096406058,27.706909073175286],[85.3227985875334,27.706900497590176],[85.32263719308584,27.70714384640588],[85.322577623361,27.707101815770056]],[[85.32279767829033,27.706670672201255],[85.322801189527,27.70665709400262],[85.32289825575805,27.706652375894432],[85.32288686618094,27.70674195342096],[85.32279767829033,27.706670672201255]],[[85.322263803373,27.707288377541236],[85.32225079775392,27.707292866655376],[85.32225636364441,27.707278750371835],[85.322263803373,27.707288377541236]],[[85.3219185029226,27.707906785004873],[85.321847539176,27.70788662374298],[85.32190703276854,27.707823299051196],[85.3219185029226,27.707906785004873]],[[85.32163082193932,27.708033645082814],[85.32177183968166,27.707955611043815],[85.32190372788352,27.7080162310221],[85.32188182159194,27.708117796880533],[85.32189041189682,27.708253308857635],[85.3219788543962,27.70881800826204],[85.32138867789304,27.70867091203515],[85.32133308272242,27.7080377340803],[85.32163082193932,27.708033645082814]],[[85.32206692785353,27.70853118068765],[85.32203060785943,27.708607336875403],[85.3220150794376,27.708512970818845],[85.32206692785353,27.70853118068765]],[[85.32148266725343,27.7096751136351],[85.3214512882546,27.709318744661076],[85.32203321185555,27.70915579845453],[85.32210548003087,27.709560556441595],[85.32195736169794,27.709591109446517],[85.3218691932251,27.709583750389083],[85.32183880476862,27.70961223175765],[85.32148266725343,27.7096751136351]],[[85.32211864733775,27.709652020449493],[85.32208563344048,27.70963876108941],[85.32211605571817,27.709632485743644],[85.32211864733775,27.709652020449493]],[[85.32258701262971,27.71018571270356],[85.32254459946654,27.7101612227714],[85.32240432450794,27.710197728676953],[85.3222776007933,27.709998661469662],[85.32223844331725,27.709709288815343],[85.32226810237297,27.709540262070114],[85.32224724571455,27.709513103219187],[85.32220720372338,27.709510429179648],[85.32215716921729,27.709376443797535],[85.32214109558072,27.709278765633115],[85.3221607665776,27.70923867345534],[85.3224060548729,27.709187598863423],[85.3225449780339,27.709589230594666],[85.3225503138066,27.70964979886324],[85.32293015972861,27.710145514085657],[85.32258701262971,27.71018571270356]],[[85.3226623966791,27.709431761925714],[85.32256438898231,27.709395952145726],[85.32253714919428,27.70931565864592],[85.3226623966791,27.709431761925714]],[[85.32447333578249,27.7099341966621],[85.32457267384821,27.709859110492808],[85.32457798324396,27.709831795847595],[85.32455996581247,27.709809184208407],[85.32451419569763,27.709801568611482],[85.32438449414826,27.709841853996497],[85.3243671985123,27.70986578376059],[85.32437214703279,27.709909741000555],[85.32425002191621,27.709997308531086],[85.3241453318582,27.709688910771415],[85.32423520662493,27.7095494227068],[85.32418180926261,27.709311422826946],[85.32421185581947,27.70922089657528],[85.32432479186478,27.709129924506787],[85.3242890150201,27.70895756215104],[85.32433059024827,27.708889512725523],[85.32458018409429,27.709090666932685],[85.32463395755482,27.709104101969867],[85.3247324225334,27.709201755334433],[85.32487573797872,27.709262639315767],[85.3250449582517,27.709299120987193],[85.32512944994471,27.7092949759897],[85.32523611664058,27.709323289981402],[85.32527170196434,27.70931011851163],[85.32595511575526,27.70932605085632],[85.3257978438066,27.709878958382703],[85.32572201735944,27.70989264458637],[85.32510794771662,27.709695886024335],[85.3250637862876,27.709591709247768],[85.32487986791169,27.709528454293835],[85.32478754131617,27.709544127313087],[85.32476734714592,27.709583746265768],[85.32479068601177,27.70961070597943],[85.3249754063919,27.709670285764133],[85.32499399407078,27.709715141546255],[85.32496078133174,27.70998785875915],[85.32451626227444,27.710031203238643],[85.32447333578249,27.7099341966621]],[[85.32479642097303,27.709089680115564],[85.32490570860887,27.708811573815506],[85.32490766449632,27.708730868507338],[85.32486608580558,27.708669771286843],[85.32482524017425,27.708671552321714],[85.32479696884744,27.708715482805292],[85.32451605561916,27.70887351208785],[85.32439467204863,27.708795460645007],[85.32429626053528,27.708757352726806],[85.32418111901437,27.708730725072314],[85.32403836312672,27.708718486406713],[85.32382123778233,27.708640973133864],[85.32377916601592,27.708555576437664],[85.32379610216826,27.70847524750854],[85.32390229662585,27.708454961853207],[85.32396451199077,27.708468267318576],[85.32403081363489,27.70844660931194],[85.32421648703972,27.708438466766903],[85.32423890584275,27.708416156589756],[85.32426615086172,27.708278836375406],[85.32419631839264,27.708145044264487],[85.32415048282864,27.708131401348247],[85.3241225094981,27.708165507416613],[85.32415046361058,27.70836047186732],[85.32395296826674,27.708369764839333],[85.32384375985521,27.708085811884246],[85.32385709579644,27.708032605030606],[85.3239809424674,27.70802537223816],[85.32400734359102,27.70798598348432],[85.32394176621203,27.707922331881605],[85.32385056569905,27.70790210333436],[85.32387664935085,27.707834071507953],[85.32396764130009,27.707799558484847],[85.3240157051825,27.707732597004167],[85.32409151095447,27.707685458230195],[85.32421497168804,27.707654324370374],[85.32427408991646,27.707656793773378],[85.32432112829575,27.708135531334154],[85.32435924610853,27.708172971510038],[85.32438918794647,27.70818026580201],[85.32442409233576,27.70815052306091],[85.32441088831564,27.708043483381687],[85.32453527711091,27.708055485566227],[85.32465356895652,27.708045741571873],[85.32467292287862,27.70802297536607],[85.32469539903236,27.70788190912882],[85.32477604785144,27.707849769085964],[85.32476613601003,27.70772619889244],[85.3247080940013,27.707617803693072],[85.32481974927431,27.70757736154388],[85.32490537570452,27.707649064898156],[85.32491870677268,27.7077466565976],[85.3249529014869,27.707756889282756],[85.3249931360445,27.707736573259787],[85.32499459471013,27.707519312690938],[85.32498194842994,27.707493909505075],[85.32484552157261,27.707475238644307],[85.32481372107007,27.70748791521288],[85.32466530469725,27.70749206506983],[85.32463341320862,27.707444324400125],[85.3247590529744,27.70739194218563],[85.32498795802451,27.707333781262186],[85.32508895226685,27.707333416040644],[85.32520217049638,27.707305599723988],[85.32521014550773,27.707259294338744],[85.32511248413817,27.70716906583724],[85.32510898477736,27.707081676115937],[85.32507133281327,27.70706666396656],[85.32503059389892,27.707089034825017],[85.32492314596044,27.70702716249176],[85.32488567834449,27.70702720939697],[85.32486574811065,27.70704843968077],[85.32487052949712,27.70707897699107],[85.32497528286616,27.70714755288848],[85.32484615616474,27.70728190692385],[85.32477079397333,27.70729148600767],[85.3246790824986,27.70733390863667],[85.32457495510528,27.707314501726035],[85.32459502427146,27.707241610605486],[85.32466400032912,27.70715080732423],[85.32464008997455,27.707069627263497],[85.32438355161177,27.706921543755342],[85.32434830668865,27.70685252007882],[85.32439027822184,27.70681720972168],[85.32456906081308,27.706756948936107],[85.32465896570703,27.706768218998224],[85.32471184291113,27.70674109550456],[85.32469623507106,27.706694431884554],[85.32459328951714,27.706674594778843],[85.32452283785938,27.70656556531059],[85.32451969522842,27.706474265269897],[85.32460824202182,27.706430614927598],[85.32467226991513,27.706442521977415],[85.32481545776193,27.70643951797866],[85.32486053387132,27.70641079314178],[85.32482094478152,27.706150171961987],[85.32484407457025,27.706110216194823],[85.32472638212825,27.705906091054096],[85.32496990977698,27.705676443312086],[85.32520356393778,27.705709406626738],[85.32521925768204,27.705725702068197],[85.32521494760219,27.70585109192764],[85.32524897945102,27.70587817339629],[85.32525627060376,27.706013961138925],[85.32530581305382,27.706096739172686],[85.32529852634474,27.706191243683456],[85.32531387500961,27.706250814873794],[85.32533460586812,27.706274348411736],[85.32536926477727,27.70627549089067],[85.32541045925977,27.706252178637765],[85.32542091729695,27.706223917328266],[85.32530604063051,27.705691080139395],[85.32544334496541,27.70558735339744],[85.32553393916854,27.705582667842613],[85.32562668092072,27.705648352566982],[85.32564333940124,27.70573022988704],[85.32569633488113,27.705772468009943],[85.32571077891537,27.70592213433154],[85.32576174657783,27.706003154094788],[85.3258355957205,27.706186998687368],[85.32607615567917,27.70644829483948],[85.32589705462016,27.7065189953848],[85.32590860703135,27.706707808279056],[85.32582517172165,27.706764896733674],[85.32582421367357,27.706809230572194],[85.32589356403487,27.70685436602884],[85.32601569685188,27.706791819859866],[85.32603137279229,27.706764620998545],[85.32618271697389,27.706754607074274],[85.32621685948746,27.706796252011326],[85.32626451810586,27.70679233957922],[85.32627860250923,27.70677149613671],[85.32628180630593,27.706697642193266],[85.3262618579082,27.706667823547637],[85.32624838325577,27.706528094670922],[85.3263618733021,27.70654879440006],[85.3264425277978,27.706603755903338],[85.32653439013971,27.706586869764898],[85.32656560494935,27.70663710044534],[85.32653099584142,27.70706545411501],[85.32638787359188,27.707172639128107],[85.326341053672,27.707191877400252],[85.32633799095298,27.707227139568975],[85.32622980159205,27.707471452265448],[85.3259088779917,27.707555641800806],[85.32586509203169,27.70754070146166],[85.32582915442099,27.707552758211012],[85.3258174592909,27.707581818613175],[85.32584111116634,27.707693558959548],[85.32573269895909,27.707728352365756],[85.32571946192688,27.707794045939828],[85.32560836875368,27.707786860664932],[85.32544060281674,27.707718565697522],[85.32539807237882,27.707733953636172],[85.3253894134323,27.70776087120324],[85.3254012809762,27.707782990587013],[85.32554479132726,27.707876060576062],[85.32574521792851,27.708065490143206],[85.32565950363708,27.708220104228115],[85.3251146016625,27.708235923943853],[85.32507784501927,27.708264730556053],[85.3250922623418,27.708300118572218],[85.32521866969822,27.708368428632784],[85.32524760531516,27.708360992479797],[85.32528415796268,27.708324823033614],[85.32568375300912,27.708326394705917],[85.32580877200338,27.70831301858097],[85.32587075957241,27.7084031816925],[85.32592479654171,27.708555920873042],[85.32599398033989,27.708661827501576],[85.32599931202296,27.708737113016607],[85.32597106063432,27.708832685493757],[85.32604466713114,27.70913572861567],[85.32599989050591,27.709226502898957],[85.32523616028521,27.70920718892568],[85.32487340199404,27.70913170847668],[85.32479642097303,27.709089680115564]],[[85.32473089355624,27.7090362662163],[85.32458821909297,27.708939162974094],[85.32479309955512,27.70886982776582],[85.32473089355624,27.7090362662163]],[[85.32456811671457,27.70793046851261],[85.32456461224481,27.70791243426209],[85.32461046416219,27.707901034853695],[85.32460249547019,27.70795152298846],[85.32456811671457,27.70793046851261]],[[85.3261160145866,27.706378279391256],[85.3260846426839,27.706345040029852],[85.32612760390015,27.706341148684757],[85.3261160145866,27.706378279391256]],[[85.32506488567354,27.709979156723048],[85.32508129640229,27.709946702358135],[85.32517159278505,27.709970921936108],[85.32506488567354,27.709979156723048]],[[85.3262148432446,27.70949374742449],[85.32614616393347,27.709269679169523],[85.32615606433224,27.709152395924356],[85.32610894352514,27.708964650928234],[85.32612857517232,27.708941821594188],[85.32645140000018,27.708898863813808],[85.32651412465705,27.708909478151526],[85.32654014787133,27.708889071391326],[85.32654450995379,27.708847388033554],[85.32650934586722,27.708817888340093],[85.3263416248732,27.708827833564587],[85.3262959596423,27.708635869763174],[85.32630121347707,27.708603132421604],[85.32640533225131,27.708559605620508],[85.32641499241736,27.70853123390515],[85.32639914129057,27.708507019624612],[85.3262921694929,27.70850465968533],[85.32618136783212,27.70853841490915],[85.32614250868019,27.708575129362885],[85.32603894630306,27.708509487365593],[85.32601311306097,27.708467876072618],[85.32613772453351,27.70835410056428],[85.32624544856209,27.70833696170551],[85.32641899910878,27.708283699230183],[85.32644328775838,27.70824182138535],[85.32642669999282,27.7082203969713],[85.32637985632977,27.708203264323025],[85.32613053637002,27.708257645987995],[85.32587454534527,27.70824406399315],[85.32581229553571,27.707915655498127],[85.32607169712006,27.707873520272106],[85.32622376918137,27.707831675312185],[85.32623418046877,27.70779540568082],[85.32619956069964,27.707767299258073],[85.32606246296967,27.7077751952722],[85.32596826679121,27.70773242278738],[85.32631492988978,27.70762456869506],[85.32637668551028,27.707490989520757],[85.32642582957678,27.707248541472214],[85.3265935487946,27.707231436980315],[85.32666436912639,27.707564367929248],[85.3267902164441,27.7076938858361],[85.32672100525737,27.70771088766453],[85.32671157439071,27.707739417952617],[85.32672531478742,27.707765924184947],[85.32675753795898,27.70777772973771],[85.3268583776693,27.70776275176967],[85.32726399827683,27.707931932591862],[85.32733282347102,27.70817087549209],[85.32736319833602,27.70840050546213],[85.32713421792663,27.70847172861026],[85.32710987182458,27.708505391590826],[85.32723498457666,27.708715265672105],[85.32722406507118,27.708746873047414],[85.3272466071499,27.708773039264244],[85.32728370044691,27.708973920059584],[85.32719220218375,27.70899615429485],[85.327129325418,27.709034094807627],[85.32704418305488,27.7091842483115],[85.32697377155371,27.709170011631112],[85.32693432948685,27.709200509062594],[85.3269368133867,27.709308448027492],[85.32701723137168,27.709425907934865],[85.32707047163287,27.709634263069848],[85.32639896085699,27.709765710975248],[85.3262148432446,27.70949374742449]],[[85.32758441194386,27.70901014213777],[85.32766647451285,27.70934799790268],[85.32755799567477,27.709523210901377],[85.32725552074012,27.709582697294866],[85.32713573547501,27.70944331065087],[85.3272597721793,27.709406918728828],[85.32728168733021,27.709383789377807],[85.32727783115274,27.70935637469958],[85.32722842653153,27.709299299107716],[85.32723973890096,27.70909373698752],[85.32735578446015,27.709056087898567],[85.32748289192273,27.708991926540588],[85.32758441194386,27.70901014213777]],[[85.32749819087383,27.70890906934361],[85.32737275227927,27.708750260166145],[85.3275006955199,27.708718765204615],[85.32755888105702,27.70892025926852],[85.32749819087383,27.70890906934361]],[[85.32705113172645,27.707514095310977],[85.3269828588117,27.707514733548425],[85.32690800380364,27.70745126509297],[85.32692168091526,27.707384878682696],[85.32714294212917,27.707342919354442],[85.32716587428732,27.707496023593887],[85.32705113172645,27.707514095310977]],[[85.32704910286391,27.707260087357813],[85.3268246510338,27.707322538000827],[85.32679934529914,27.707361133351537],[85.32671160097232,27.707373148419634],[85.32669196742991,27.70728277709124],[85.32670550118186,27.707215507677493],[85.32709434866787,27.70714128674247],[85.32712574145035,27.707260586760096],[85.32704910286391,27.707260087357813]],[[85.3270761725753,27.707067805442886],[85.32681357716513,27.70707767722315],[85.32668226130328,27.70713438783562],[85.32662211341112,27.7070626358376],[85.32667486445816,27.706742448649152],[85.32673334127482,27.706642055240646],[85.32684227666083,27.70659723430851],[85.32690415562146,27.706585965470943],[85.32697320483074,27.706665496984943],[85.32698122903392,27.706790999020797],[85.32701806907251,27.706818168389713],[85.3270761725753,27.707067805442886]],[[85.32686705295257,27.70647013610493],[85.32678763986985,27.706444770983992],[85.32674007602134,27.7063671687758],[85.32670685505164,27.70635251893318],[85.32645523213411,27.706478665090682],[85.32640658544001,27.706456434228386],[85.326327330886,27.70632842190005],[85.32663343135533,27.706283357061228],[85.32668529782171,27.70623304652237],[85.32681354655818,27.706211173352774],[85.32687818575354,27.706289572551405],[85.32692131629186,27.706425268111122],[85.32686705295257,27.70647013610493]],[[85.32683031403532,27.706127616865338],[85.32647963523252,27.706188918984363],[85.3262747069768,27.70621072375017],[85.32617143232252,27.706255218533332],[85.32612734046344,27.706256629719498],[85.32596568766213,27.70614694350325],[85.32612428994508,27.706098684796764],[85.3261645865701,27.706105749147945],[85.32624706711593,27.706062811583656],[85.3263904725116,27.70606921035605],[85.32641166127362,27.706037752304976],[85.32639386499777,27.705994262505513],[85.3264775227644,27.70588546455222],[85.32653324355014,27.7058795950816],[85.32665316253558,27.705909845234057],[85.3267379168524,27.705908731212293],[85.32677572675998,27.70589120375182],[85.32683031403532,27.706127616865338]],[[85.32583827533033,27.70586392006077],[85.32579119453302,27.70568276226868],[85.32573576453535,27.705617539847246],[85.32583274399076,27.70553770492851],[85.32634102030741,27.705465173961134],[85.3266122677475,27.70545583794378],[85.32669481632081,27.705481555319555],[85.32670848626651,27.705609825746755],[85.32639933102335,27.70562052112237],[85.32638247223633,27.705644377816533],[85.32639036471042,27.705677466145314],[85.3262448994485,27.70597755034546],[85.32595379443454,27.70607335056518],[85.32583827533033,27.70586392006077]],[[85.32467763377463,27.705714518789897],[85.3246711407542,27.705684980902312],[85.32471400386956,27.70567817879752],[85.32467763377463,27.705714518789897]],[[85.32430486233166,27.705743247676452],[85.32452225533298,27.70571393590301],[85.32456800210048,27.705783416759793],[85.32433682181528,27.70587589272237],[85.32430486233166,27.705743247676452]],[[85.324258018169,27.705893027424267],[85.3241141469901,27.705901364187966],[85.32405490847366,27.705740082083476],[85.32421704670153,27.705738046227424],[85.324258018169,27.705893027424267]],[[85.32386038802214,27.705742524289445],[85.32372943202584,27.705882853495147],[85.32350745451852,27.70592838748525],[85.32336964465001,27.705909502231233],[85.32345270322531,27.705837904949963],[85.32351822277558,27.705808417538982],[85.32360448555485,27.705836970526878],[85.32365582190917,27.705833804921472],[85.32367367091643,27.70581068055684],[85.3236749296439,27.705744852466065],[85.32386038802214,27.705742524289445]],[[85.32376669842624,27.70611395351163],[85.32368625977186,27.706127939695424],[85.32361560363985,27.706107612252097],[85.32356103779335,27.705991485856316],[85.32372172420702,27.705958524435427],[85.32376669842624,27.70611395351163]],[[85.32250587559672,27.704083206027992],[85.32247984784308,27.70411241317813],[85.3224854756161,27.70426691701752],[85.32253956918764,27.704422602150284],[85.32253298955776,27.704487228981932],[85.32245695284578,27.70452231831712],[85.32237162146362,27.704475296497037],[85.32232465559701,27.70415177955984],[85.3222823836444,27.704093592008775],[85.32224676802738,27.704084125715063],[85.32221813058716,27.704103200666914],[85.32212301836022,27.70430788115844],[85.32208355918236,27.704326755728506],[85.32207059388791,27.704351613115357],[85.32209354210923,27.704385782846803],[85.32215708480315,27.70438076358466],[85.32223637732541,27.704416932296827],[85.32218908281718,27.704476044513193],[85.32214361988505,27.704481114581945],[85.32201871333665,27.70457514671089],[85.32190590511959,27.704596826153647],[85.3218169328477,27.704497304596153],[85.32174604798573,27.704272914147438],[85.32161449839943,27.704202400690537],[85.32150805766256,27.70417583328208],[85.32139279358223,27.704206644548286],[85.32129024468398,27.70420267530253],[85.3212947376857,27.704167236902087],[85.32136061285608,27.704089668559863],[85.3216982896424,27.70407617503464],[85.32180161266768,27.70405340611295],[85.32182469203813,27.704019856924255],[85.32181410805657,27.70399649332013],[85.32178600179711,27.7039847648104],[85.32138216732932,27.703993480657207],[85.32134650351166,27.704004100792794],[85.32127708174032,27.703928902933907],[85.3213060715023,27.703836011251838],[85.32144301745492,27.703806561597794],[85.32146704792352,27.7037739208594],[85.3214208048263,27.7034491271811],[85.32140128374502,27.703428463278446],[85.3213614824255,27.70342385132243],[85.32127569845167,27.703310986583755],[85.32134558373427,27.70324851972942],[85.32137607088389,27.703250354822654],[85.32151815282658,27.703375656476098],[85.32154995339657,27.70338516311778],[85.32158335043323,27.703362920748837],[85.32158175515734,27.703314120832054],[85.32165440275529,27.703244056032652],[85.32187909130384,27.703252120550044],[85.32191696228433,27.70327250338515],[85.32195775788642,27.7032512693439],[85.32213936839737,27.70323960097938],[85.32217146945875,27.703511810825592],[85.32221166132935,27.70354041317047],[85.3222530302955,27.70350951358133],[85.32226158873684,27.7034468887109],[85.32224796374462,27.703409999070946],[85.32234933545745,27.703306345126244],[85.3223998477688,27.70336620317129],[85.32244814941512,27.70385619193872],[85.32248219190349,27.703886803247666],[85.32250587559672,27.704083206027992]],[[85.3221525678087,27.703106765869755],[85.3220685560613,27.703096107970477],[85.32204937285316,27.70304753913185],[85.32206851515085,27.702936442381198],[85.32205583843934,27.70279092333926],[85.32201748669051,27.70269456868583],[85.32194922490858,27.702358509644085],[85.32191310871735,27.702339953471753],[85.32176519945035,27.702364288536316],[85.32164679431493,27.702365368797516],[85.32163807933414,27.70224390167418],[85.32187511602382,27.702170761135267],[85.3220394508453,27.702159261355455],[85.32224527107415,27.702278042092374],[85.32236076461997,27.703011358853793],[85.3221525678087,27.703106765869755]],[[85.32185270379017,27.70192775288443],[85.32193533403232,27.701773912421817],[85.32205271189991,27.70177677113575],[85.32219079524302,27.701748886270295],[85.32221206771774,27.701894974441576],[85.32185270379017,27.70192775288443]],[[85.32216130479058,27.701612162738375],[85.32215880914075,27.7016525361637],[85.32206301456345,27.701677629982417],[85.32202397553984,27.70163979007224],[85.32216130479058,27.701612162738375]],[[85.32192363904683,27.701565975472768],[85.32190036085667,27.70158749127955],[85.32131341496176,27.701658404442966],[85.32130456298096,27.70146442397521],[85.32128481848555,27.7014057968159],[85.32138851603538,27.701188849068423],[85.3214752894104,27.70114679024668],[85.32157369662231,27.70112832309019],[85.32175229452375,27.701172033825014],[85.32190853565808,27.70107640099058],[85.32202747657843,27.701101935630792],[85.32210207052334,27.701185755752704],[85.32215925858678,27.70153855605448],[85.32197304517507,27.701576017694585],[85.32192363904683,27.701565975472768]],[[85.32182809232528,27.701703953082138],[85.32134452747782,27.70176313610001],[85.32133035794222,27.70172921663398],[85.32185756528817,27.70166552102532],[85.32182809232528,27.701703953082138]],[[85.32171919367573,27.70195100745107],[85.32166881867191,27.70196201952638],[85.32156898549066,27.701936491140785],[85.32152919775308,27.701813435621],[85.32165622395382,27.701798796191717],[85.32171919367573,27.70195100745107]],[[85.32187857775796,27.700992722217904],[85.32175995243688,27.70101459161606],[85.32170918857737,27.700785840016216],[85.3217452707594,27.7007423387952],[85.3220058373957,27.700678952153996],[85.32203444116016,27.700822221724668],[85.32187857775796,27.700992722217904]],[[85.32161863133109,27.70057491612816],[85.32165294295463,27.700568656321657],[85.32167910970627,27.700667722783212],[85.32161431631448,27.700672873027862],[85.32161863133109,27.70057491612816]],[[85.32103735638255,27.701797006096232],[85.32029387411801,27.70189576255613],[85.32030740717182,27.701849983831284],[85.32103275315839,27.701764455235555],[85.32103735638255,27.701797006096232]],[[85.32111145378325,27.701895073614395],[85.32129999586867,27.70194710260266],[85.32126601205094,27.702062852864003],[85.32128235361034,27.70210207212063],[85.32148850320299,27.702228391397874],[85.32143865647231,27.70230522972274],[85.32131961481375,27.702314556909467],[85.32129065839801,27.702345291624017],[85.32131879456753,27.702385819764853],[85.32142516769676,27.702387906257638],[85.32144793975989,27.702536036098387],[85.3214753781709,27.702605145740378],[85.32151203099026,27.702631101115745],[85.32155835593632,27.702756298182276],[85.32143480534037,27.70275072554291],[85.3214145560039,27.70277835694927],[85.32142785425269,27.702826734563082],[85.32145710045356,27.702843325502204],[85.32155247379747,27.702844491334083],[85.32184360713909,27.70280482160236],[85.32192149889342,27.702831386877914],[85.32194771491119,27.702959399998036],[85.32194394021191,27.70303652573419],[85.32183193798575,27.703094822992554],[85.32179768382824,27.70309063610648],[85.32168862081888,27.70300560074212],[85.321544222474,27.703098933992635],[85.32108565193883,27.70305989597965],[85.32044636038833,27.7030806959315],[85.32026126020475,27.702006086578503],[85.32027141296861,27.701971742559433],[85.32107080241433,27.70186556003285],[85.32111145378325,27.701895073614395]],[[85.32166501462966,27.702637153532752],[85.32169590598939,27.702617095855402],[85.32169598696987,27.70257361685942],[85.32163133651518,27.702466933036664],[85.32177124581268,27.702459579084437],[85.32186381398333,27.702489692770918],[85.3218809541569,27.702611236078067],[85.32181266154913,27.70270665533146],[85.32174571050692,27.702735167664798],[85.32163983734836,27.7027457036086],[85.321602557643,27.702644952304635],[85.32166501462966,27.702637153532752]],[[85.3214539925578,27.703163825860123],[85.32136448806752,27.70315606491736],[85.3214541069113,27.70316374361905],[85.3214539925578,27.703163825860123]],[[85.32088716058041,27.70320675341743],[85.32093434181297,27.70324808125332],[85.32103614080911,27.703227671511073],[85.32108290343508,27.703233750869945],[85.32115569704196,27.703310527672677],[85.32111087131815,27.70345094536788],[85.32111546396989,27.70347751902243],[85.32113850069636,27.703495770978876],[85.32124939958325,27.703515481590014],[85.32131692394672,27.703587583288286],[85.32129850405163,27.703604031945392],[85.32114226370518,27.70361816738181],[85.32101638698187,27.70367008184738],[85.32089556600054,27.70352360572212],[85.32086428725356,27.703524544030152],[85.32084311316629,27.70354360350527],[85.3206816010753,27.70355097849425],[85.32063031401078,27.70347432076831],[85.32060205977551,27.703268949311145],[85.32073812641075,27.703201723567112],[85.32088716058041,27.70320675341743]],[[85.3208349465302,27.70361626841537],[85.32083143376849,27.703850293869436],[85.32091158170897,27.70393496771363],[85.32094274685166,27.704079950820905],[85.32091955413274,27.704182265550873],[85.32084240090815,27.704143633001646],[85.32077473884122,27.70405266454123],[85.32079641174025,27.70395037856],[85.3207498972698,27.70389942503322],[85.32071629333336,27.703892462961274],[85.32062118665891,27.703922278344077],[85.32048426175116,27.703918272142154],[85.32042129479893,27.70383974987367],[85.32047080238391,27.703775326560823],[85.32068545404418,27.70369229137345],[85.32071158004112,27.703656404478505],[85.32070741860514,27.703622091614907],[85.3208349465302,27.70361626841537]],[[85.32036578812705,27.70308934193968],[85.3200840608191,27.703113474404507],[85.32004656611738,27.703102869598112],[85.32001636214294,27.70311775683345],[85.31816788762664,27.703234673188202],[85.31815402020104,27.70320714911529],[85.31812328851737,27.703198440320126],[85.31804209654662,27.70324262858759],[85.31762603280457,27.70327470563859],[85.31755329091017,27.70330774576503],[85.31691087228904,27.702382881880514],[85.31898897927438,27.702129035172053],[85.31902272892249,27.702142489747803],[85.31947007849193,27.702104751769248],[85.31957411814749,27.702078512733454],[85.32022733392745,27.702280790987466],[85.32036578812705,27.70308934193968]],[[85.32000601372421,27.703190790579328],[85.31862778620777,27.703287350229942],[85.31862577803952,27.70327809290506],[85.32000601372421,27.703190790579328]],[[85.32003843772294,27.703286080017065],[85.32008173271124,27.703267722271818],[85.32021960177534,27.703273059442324],[85.32029977866418,27.703330870676226],[85.32029533708398,27.70346551499897],[85.32018268261027,27.703488366195472],[85.32007569090256,27.703463974913024],[85.3197761178901,27.70346072838134],[85.31974890155952,27.703474015671365],[85.31974021297242,27.703500539944546],[85.31975930531188,27.703624360998624],[85.31978134197101,27.703648197000135],[85.31981784756844,27.703648614632485],[85.31994851015845,27.70359643591145],[85.32004730668449,27.703631611212227],[85.32013188208833,27.70378118013816],[85.32009027787777,27.70382994499028],[85.31996557205996,27.703736520932377],[85.3198260130908,27.703841633615855],[85.31970772306794,27.703846865505703],[85.31968070369481,27.70383049914892],[85.3196032978004,27.703830139467403],[85.31959163703092,27.703671507230176],[85.31955857228417,27.703644932529325],[85.31911843484247,27.703679177398143],[85.31911571712696,27.70350366402145],[85.31907625319047,27.703388824404975],[85.31918724143564,27.703343948903047],[85.31938678341494,27.703332354748742],[85.3195108265697,27.703410347154083],[85.31962443960558,27.70331936104542],[85.31984240848575,27.703300250796957],[85.3199041388571,27.703275076352305],[85.32000968957686,27.70326841050446],[85.32003843772294,27.703286080017065]],[[85.31959874675685,27.703930133779743],[85.31998918844681,27.703915251061588],[85.32003763936987,27.703931953927366],[85.32005770160319,27.70405287003693],[85.32018918499273,27.70413398647837],[85.32027158923312,27.704210115087534],[85.32024592543442,27.70443199412927],[85.32014479573449,27.704519286810612],[85.32011148003367,27.704522052510786],[85.32009058718182,27.704409664011752],[85.32006370821311,27.70438580322483],[85.31969741580244,27.704373091161166],[85.31959990343975,27.70433742555757],[85.31939405100239,27.704328361997437],[85.31935309946503,27.704356467332342],[85.31924276845331,27.704351140293614],[85.31911957923019,27.704239144781283],[85.319117436483,27.70409765505641],[85.31914100885635,27.70399284108759],[85.31912706802245,27.703958742334418],[85.31923547515447,27.703928290680977],[85.31928486497432,27.703982627976245],[85.3193137020941,27.703990844389214],[85.31940810338908,27.70398435092204],[85.31959874675685,27.703930133779743]],[[85.31989423175902,27.70454361663356],[85.31984559924915,27.704533948980608],[85.31973519205016,27.70455280426879],[85.31972993562108,27.704446964341816],[85.31989165669793,27.704454772010987],[85.31989423175902,27.70454361663356]],[[85.31935511283994,27.704429667702065],[85.31938355406722,27.70444255340184],[85.319555082525,27.70443852246364],[85.31949620544576,27.704542837899687],[85.31922994884982,27.70452842959258],[85.31916444492808,27.704477088119653],[85.3192164083807,27.70442217070224],[85.31935511283994,27.704429667702065]],[[85.31896793283863,27.70333470070981],[85.31901330552576,27.703746229168708],[85.3182156809582,27.70381684174338],[85.31812088033017,27.70375171420159],[85.31809386015799,27.703579296140063],[85.31801401509719,27.703479473943574],[85.31800318701909,27.703441970454165],[85.31807596224388,27.703377094642637],[85.3181525663075,27.703377086858623],[85.31828454673251,27.703422889851737],[85.31839951969975,27.703395781545286],[85.31844021357477,27.703442260480745],[85.31846840064293,27.703451601487416],[85.31861577901354,27.703391948972627],[85.31863653614664,27.7033591492868],[85.31896793283863,27.70333470070981]],[[85.31902544331182,27.70389530750389],[85.31900895668834,27.703935109049063],[85.31899897196976,27.704098148661704],[85.31902423767008,27.70413913748265],[85.3190171594847,27.70425964050861],[85.31903728859729,27.704381734434474],[85.31869879455748,27.704385482194958],[85.31866296297522,27.704369046001325],[85.31864401655024,27.704254289337648],[85.31859693545027,27.704237028935093],[85.31847360042049,27.704285488648384],[85.31845490721652,27.70431311898271],[85.31847101041663,27.704351560491222],[85.3185636868408,27.704393879528787],[85.3185762118499,27.704418139057005],[85.31858669155227,27.704446269715227],[85.31857655626544,27.704557141618423],[85.31852670085236,27.70453530870857],[85.31842719225993,27.704436475599085],[85.31839732179597,27.704427483420645],[85.31836993704265,27.70443953624928],[85.31835976095843,27.704461977073493],[85.31838809066235,27.70453599038285],[85.31811144076174,27.704592518766276],[85.31807757135655,27.704355575684314],[85.31802230162162,27.70426939689001],[85.3180218822689,27.704173402548555],[85.31807713350813,27.704102188210467],[85.31823913030249,27.70407101639947],[85.31826634592647,27.704043396438756],[85.31826710844352,27.704011392773367],[85.31834085841726,27.70389328180289],[85.31901796204917,27.703818371476736],[85.31902544331182,27.70389530750389]],[[85.3190204014698,27.70449966568685],[85.31892854451985,27.704551644073895],[85.31871850478059,27.70456196439484],[85.31870368643234,27.704474879443374],[85.31902427337431,27.70445479887713],[85.3190204014698,27.70449966568685]],[[85.3184647154882,27.703288279484365],[85.31841547299022,27.70329416311826],[85.31838286946372,27.703293455853935],[85.3184647154882,27.703288279484365]],[[85.31724675896271,27.7022139858992],[85.31883829452443,27.702024699253013],[85.3189126545581,27.70206548518711],[85.31707861815556,27.70228951881543],[85.31724675896271,27.7022139858992]],[[85.3168242932732,27.701608427345125],[85.31707513393773,27.701394412277168],[85.31712264989703,27.70108366161583],[85.31872916178392,27.70196484061911],[85.3172574347775,27.702139877649373],[85.3168242932732,27.701608427345125]],[[85.32019367081676,27.70160650769213],[85.32017854467809,27.701792445091346],[85.31960790521303,27.70186032117187],[85.32014254140948,27.700917987549225],[85.32022633057308,27.701461592806265],[85.32019367081676,27.70160650769213]],[[85.32016903142647,27.701911983963903],[85.31956639396545,27.701985311775612],[85.31953482905985,27.701989121487614],[85.3195635886937,27.701938431261027],[85.3201726925494,27.701865980123465],[85.32016903142647,27.701911983963903]],[[85.31690816511535,27.703561256364473],[85.3173288806988,27.703531078676303],[85.31747391825284,27.703488994340333],[85.3175393756659,27.70345268902497],[85.31770726591066,27.703830792559398],[85.31786305385565,27.70409074826414],[85.3179301888812,27.70426947446105],[85.31791091774504,27.70432222151443],[85.31775651569639,27.704378139773905],[85.317655470561,27.704494947637947],[85.31724273914925,27.704724555532398],[85.31648957580012,27.704558879026237],[85.31657923976078,27.70354928123973],[85.31690816511535,27.703561256364473]],[[85.31775485494515,27.703545820496743],[85.31778004903346,27.70352457586821],[85.31780114145455,27.70342597531115],[85.31791191302443,27.70345975107852],[85.31793139088235,27.703607034013586],[85.318023550937,27.70372486825675],[85.31803025191661,27.70376736538616],[85.31799835287204,27.703852272781987],[85.31801271171578,27.70399329889238],[85.31790130584656,27.703932388000613],[85.31777896295145,27.703796090939885],[85.3176750020718,27.703561797379027],[85.31775485494515,27.703545820496743]],[[85.31645649361346,27.704854922066513],[85.31725808393945,27.704819228988683],[85.31740882046886,27.70473960886746],[85.31762607953144,27.704661501600594],[85.31770284540762,27.70458533892998],[85.31782207114139,27.704522751376167],[85.31784009779874,27.704487276800954],[85.31794636537491,27.704408879239033],[85.3179744788811,27.704426450997854],[85.31806763672918,27.70478632706589],[85.31805787726067,27.704870808304634],[85.31807588618811,27.704986191547654],[85.31805604706597,27.705151632811074],[85.31797309917091,27.70515936429517],[85.31780085107212,27.705209970773222],[85.31771902091704,27.705117658539265],[85.3176087364255,27.705050079669377],[85.31756755904466,27.70505130049091],[85.3175503982646,27.70509194963723],[85.31761906146261,27.705207202065793],[85.31754999547624,27.705261678855294],[85.3174677656061,27.705200197757165],[85.31741755252038,27.70521275120962],[85.31741574400516,27.705291895948324],[85.31744249323876,27.705401704994063],[85.31736363456172,27.70549951506834],[85.31709963553885,27.70555922581381],[85.31702269999175,27.7055911977798],[85.31701823023342,27.70561733644939],[85.31708361143282,27.70583857736973],[85.31700552265981,27.70591596061799],[85.31678216428112,27.705963641556913],[85.31664796932675,27.705952668374668],[85.31637536918724,27.705772351600356],[85.31642033467656,27.704952624742997],[85.31645649361346,27.704854922066513]],[[85.31738729950038,27.705568578599355],[85.31743782385182,27.705604008195593],[85.31753244092364,27.705559773692787],[85.31755428245528,27.705416420203825],[85.3175843571252,27.705366969421856],[85.31771744198295,27.705311106095213],[85.31826146669057,27.705220688020365],[85.31851046844858,27.70516138468907],[85.31863438514229,27.705163259809723],[85.31877593275136,27.705122189911737],[85.31881319826827,27.705129717130287],[85.31890454535262,27.705213765761528],[85.31887117204941,27.705302512633544],[85.31871893841016,27.70535221227158],[85.31866252640376,27.70541441672765],[85.31866156648043,27.705448439416177],[85.31868486643722,27.705466439713845],[85.318718284003,27.705467564079],[85.31886595030645,27.70539053276174],[85.31895615308107,27.705406128472283],[85.31906050403732,27.705621541417642],[85.31898063061782,27.705704682199197],[85.31885258881368,27.705700362767743],[85.3186969240991,27.705722244989072],[85.3182563492295,27.70573633408422],[85.3180355922754,27.705778439880373],[85.3177580204988,27.705809948090554],[85.3175652979275,27.705813049280138],[85.3173660685182,27.70584252174267],[85.31716187470988,27.705731744399934],[85.31715049283669,27.70570052553419],[85.31718095271965,27.705635238753963],[85.31724473113871,27.705638730349552],[85.31728556603366,27.705623946494978],[85.31729787666072,27.705594060828716],[85.31738729950038,27.705568578599355]],[[85.31629310947537,27.70659743870393],[85.31642204050723,27.707066799768494],[85.31467423019186,27.70696768960743],[85.31597905110112,27.706482549946212],[85.31629310947537,27.70659743870393]],[[85.31643182884181,27.70658484894258],[85.31651526844225,27.70692451572423],[85.31655493538985,27.707074334709],[85.31650686975662,27.707071609474497],[85.31637656878904,27.706597262703237],[85.31643182884181,27.70658484894258]],[[85.31669768103998,27.706159063072263],[85.31681037022395,27.706116876411276],[85.31698747786615,27.70608772446443],[85.31737293194544,27.706048573784162],[85.31750925570562,27.7062439747873],[85.3172994257069,27.706244305635668],[85.31719256924053,27.706282505708973],[85.31717467386497,27.70632091560627],[85.31721162604687,27.706351018926327],[85.31754061244484,27.706339955641504],[85.31753912664398,27.70641223905871],[85.31730354278325,27.706437636085855],[85.3172791471021,27.70645512180453],[85.31727602217056,27.70648286080354],[85.31742836436325,27.706631895841433],[85.31756690149591,27.70663100771637],[85.31763773638887,27.70665558638854],[85.31750251178171,27.706718462600016],[85.31731827587386,27.70676410919679],[85.31728494573444,27.706816541330852],[85.31729984941076,27.70683974793989],[85.31732680410555,27.706847571014805],[85.31771114238083,27.706791837055743],[85.31771404009264,27.70682309138333],[85.31768136046782,27.706908905563473],[85.31768764957923,27.706980854145165],[85.31774014292075,27.707102151117205],[85.3178131776411,27.707570954352036],[85.31772116630528,27.707721084202337],[85.31775075513046,27.707751015332768],[85.31787466399449,27.707759175876756],[85.31779953130457,27.707912021732326],[85.31765935041769,27.707913617339138],[85.31762542817826,27.70789850171475],[85.31757328672039,27.70791459688743],[85.31701303707025,27.70792097215226],[85.3168666293972,27.70780209975071],[85.31648733121723,27.70639930296436],[85.31669768103998,27.706159063072263]],[[85.31715812862943,27.705965232443514],[85.31733781121658,27.70594882280019],[85.31734620929315,27.705973159685065],[85.31711392765057,27.705996959670014],[85.31715812862943,27.705965232443514]],[[85.31753747917304,27.70648502300582],[85.31752789587573,27.706554312576483],[85.31745308721973,27.706493206615455],[85.31753747917304,27.70648502300582]],[[85.31776236085967,27.70798464765665],[85.31773497711139,27.707995433046797],[85.31772539650339,27.707985068405375],[85.31776236085967,27.70798464765665]],[[85.31752702596017,27.707998968078847],[85.31714045423759,27.708008610447788],[85.31711591333712,27.707992004454297],[85.31753337790303,27.707987253908122],[85.31752702596017,27.707998968078847]]]}}]}