{"type":"FeatureCollection","features":[{"type":"Feature","properties":{"derived":true},"geometry":{"type":"Polygon","coordinates":[[[85.32706031760064,27.705171726591324],[85.32213257210918,27.699377966026884],[85.32210521941676,27.699349079362808],[85.32207462478657,27.699322895242506],[85.32204112329215,27.699299700433404],[85.3220050818422,27.699279748963896],[85.32196689516216,27.6992632593413],[85.32192698147126,27.699250412158875],[85.32184795165735,27.699229064765767],[85.32180443291374,27.699219610710877],[85.32176000823704,27.699214486203445],[85.32171521960153,27.699213753761455],[85.31878280652003,27.699310035830237],[85.31874322554435,27.69931306803717],[85.31870416776071,27.69931953251653],[85.31866600793347,27.699329367240654],[85.31862911221124,27.699342477843977],[85.31859383461364,27.699358738528403],[85.3169890483913,27.700189565805022],[85.3169561251304,27.70020856482469],[85.3169254186253,27.70023030666255],[85.31689721628433,27.70025458781905],[85.31687178207785,27.700281181026924],[85.31684935406751,27.70030983737845],[85.31683014217793,27.700340288654992],[85.31681432623195,27.7003722498376],[85.31680205426726,27.700405421774533],[85.31679344115085,27.70043949398141],[85.31669099728612,27.700961523887546],[85.31668978592276,27.700968048751534],[85.31606558344092,27.704532819248012],[85.31606189684273,27.704561228389853],[85.31595853476746,27.705779535461595],[85.31595827311106,27.70583061423635],[85.31595851527139,27.705833862735517],[85.31596531381992,27.70587991815041],[85.31596578139917,27.705882024964488],[85.31596749915849,27.70588936322013],[85.316653692303,27.708675512347003],[85.31666038112236,27.70869890206735],[85.31673627410674,27.7089314641646],[85.31675053318384,27.708967801671594],[85.31676905837551,27.70900258142065],[85.3167916390759,27.709035408006446],[85.31681801857212,27.7090659082285],[85.31684789696256,27.70909373533409],[85.31807055011157,27.710117160079225],[85.31809865105684,27.710138616963405],[85.31812883345147,27.710157703820336],[85.31816084578439,27.71017426159775],[85.31819442129515,27.710188152318285],[85.3182292801968,27.71019926022933],[85.31826513200757,27.710207492767605],[85.31830167797132,27.710212781330515],[85.31899378746367,27.710284259753717],[85.31899786771892,27.710284662522504],[85.32234229320018,27.710599515192307],[85.32239640188676,27.710601373692107],[85.32239870379975,27.710601315851324],[85.32242622389431,27.71059978989318],[85.32452448360095,27.710419534703473],[85.32453271269449,27.710418752211854],[85.3257977858341,27.710286821709893],[85.32583476000164,27.7102814147405],[85.32585187485407,27.710278183053287],[85.32585813806566,27.710276954278058],[85.32767729670405,27.70990659525092],[85.3277141457853,27.709897445798287],[85.32774986240072,27.709885247267614],[85.32778412881292,27.70987010817786],[85.32781664018589,27.70985216320737],[85.327847107297,27.70983157199574],[85.32787525910993,27.70980851772366],[85.32790084518585,27.709783205483284],[85.32792363791135,27.709755860453626],[85.32794343452328,27.70972672589739],[85.32806653570107,27.709524606241597],[85.3280843159622,27.70949149915077],[85.32809822790321,27.709456956628703],[85.32810812777663,27.70942133560085],[85.32811391329177,27.709385004136394],[85.3281155246715,27.709348337645114],[85.32811294526975,27.709311714998186],[85.32810620174342,27.70927551461338],[85.32713318193403,27.70531254937475],[85.32712151261293,27.705274911406974],[85.3271053442774,27.70523861531783],[85.32708486608196,27.705204085727864],[85.32706031760064,27.705171726591324]]]}}]}