{"type":"FeatureCollection","features":[{"type":"Feature","properties":{"derived":true},"geometry":{"type":"Polygon","coordinates":[[[85.34334147072043,27.674276212541827],[85.34385155788492,27.674755546777686],[85.34481108745946,27.675489838119976],[85.34496895982937,27.675562586723455],[85.34546793788994,27.67587944276231],[85.3483829333918,27.67779886583981],[85.34918440467486,27.678306438838575],[85.34922566031067,27.67828907150659],[85.34923366478239,27.678255484314448],[85.34896897923825,27.67768917154933],[85.3488673802501,27.67743451559774],[85.3488707753178,27.677375788975564],[85.3487897230048,27.677322029441857],[85.34872296234576,27.67707866676538],[85.34869123111848,27.677046831561455],[85.34866136699867,27.677039450366177],[85.34819777439522,27.677136740715287],[85.34814489862863,27.67712744664222],[85.3475176831606,27.675782839623665],[85.34708400710602,27.674895713023567],[85.34714217297437,27.67482827112175],[85.34714467396908,27.67479804972541],[85.34649418352089,27.673605625708436],[85.34644121528048,27.673484753005116],[85.34643850340028,27.67344643480786],[85.34663048907173,27.673361964936646],[85.34689966169161,27.67313246219641],[85.34731818709041,27.672943907016073],[85.3474188901175,27.672818203989586],[85.34749940520129,27.67277551222986],[85.34775545593698,27.672727633942504],[85.34815875502755,27.672799438377112],[85.3484167056032,27.672811028996687],[85.34868515332431,27.67280133930698],[85.34893580481496,27.672815750441934],[85.34919377477259,27.672986074190884],[85.34972013259788,27.673177870402736],[85.34995793902905,27.673371679280397],[85.35020381513375,27.673686016562744],[85.35015503921424,27.673713470980704],[85.3501454181899,27.67374564550892],[85.35028166229556,27.674146071078265],[85.35037104940854,27.674360360171715],[85.35061661974672,27.674730764491347],[85.35078532328141,27.674933380707767],[85.350918133172,27.675254281399283],[85.3510306228869,27.67543986963351],[85.35105535044259,27.67545656501206],[85.35108710586917,27.67545226033165],[85.35137755173747,27.675280553396586],[85.35182724244505,27.675165859892253],[85.35214523202018,27.675115874789828],[85.35286088777285,27.675053636638346],[85.35441895903492,27.67497080938743],[85.3544567672131,27.67493722506955],[85.3542067668378,27.674257697697314],[85.35441371716342,27.674236946081127],[85.35446260650686,27.6742136617183],[85.35446490156133,27.674173602561492],[85.35443529313565,27.674153964169253],[85.35432231980032,27.674002732070964],[85.35432208822733,27.673963189413296],[85.35430140885317,27.673942449312896],[85.35424108202088,27.673947583427932],[85.35417535200352,27.673978581305587],[85.35396726673201,27.673997776789125],[85.35397962889205,27.6738504088595],[85.35396428625415,27.67382272670042],[85.35370683214339,27.673818335354046],[85.35369242190285,27.673749819415374],[85.35371673567624,27.673699684746474],[85.35371073625807,27.673645163961112],[85.3537606699893,27.673580772022945],[85.35388179073803,27.673568922578617],[85.35392671890855,27.67355124697364],[85.3539402485014,27.67352181868752],[85.35391803485426,27.673477280098943],[85.35388889016971,27.673463266495734],[85.35377099601834,27.673498004440717],[85.35373178349938,27.673485117336163],[85.35367037208464,27.673505274890825],[85.35366211098899,27.673425831704073],[85.35372020918489,27.673344732244434],[85.35387633974412,27.673279472542443],[85.35388440068171,27.67323439111367],[85.35384789783532,27.673216458880674],[85.35379219406241,27.673233670258718],[85.3536623172215,27.673237624719306],[85.353558590501,27.673332396791416],[85.35345536777615,27.673395017123596],[85.35340290994785,27.67338508623764],[85.3531557095306,27.673412652300815],[85.35315629238245,27.67330087662658],[85.35311457876051,27.673141117147413],[85.35306639165127,27.672833957580682],[85.35314418316747,27.672763897847442],[85.35332002907654,27.672739919613257],[85.35334082480753,27.672886256828928],[85.35338007413603,27.672919632288103],[85.35342351629706,27.67304807223633],[85.35346548258904,27.673101025325483],[85.35349823066672,27.67311116649409],[85.35376163593939,27.672967443178383],[85.35427495489472,27.672774939406636],[85.35430989040887,27.67274482116933],[85.35429363402494,27.672705652195578],[85.35352510749124,27.672557104047282],[85.35348452933712,27.67256570674075],[85.353414177848,27.67262114005526],[85.35337872883626,27.67261960371596],[85.35335096382312,27.672638951254555],[85.35299574205612,27.672698740203018],[85.35296903913913,27.672723580107554],[85.35294977967946,27.672836601907477],[85.35298382686383,27.67303322708632],[85.35294908279164,27.673052760757432],[85.35293902007301,27.67307889706843],[85.35300730720951,27.673171029501475],[85.35305321156616,27.673318831946936],[85.35305639719627,27.67341331029825],[85.35220814471738,27.673380660098616],[85.35196938059475,27.67338940645538],[85.35193151370711,27.67341056698641],[85.35185339426202,27.673414433354203],[85.35196666823359,27.673230245428265],[85.35195876907048,27.673140366349944],[85.35201796960288,27.673131769191876],[85.35207403462611,27.673098852735983],[85.3521015899248,27.673052601992246],[85.3521858885176,27.67302662103211],[85.35228680360437,27.673092146185027],[85.35244059249285,27.673066312650814],[85.35246426846724,27.67305125092165],[85.35246694186056,27.673015672268356],[85.35242786708572,27.67298186447403],[85.35229977146844,27.67300671807619],[85.35223790251946,27.672960525279073],[85.3522383736149,27.67293309046844],[85.35231800835801,27.672812005779278],[85.35242307726054,27.67286342519333],[85.35249796794248,27.672862990625454],[85.35252615998665,27.6728440669565],[85.35252267324566,27.672801360896948],[85.35247043371486,27.672782502810982],[85.352417069438,27.672719655541925],[85.35245025957555,27.672599205701122],[85.3525894341045,27.672612994892045],[85.35281985860279,27.672588678289234],[85.35284959564927,27.67256729138229],[85.35284720985085,27.672534923713165],[85.35281814897066,27.672517503546306],[85.35264264316015,27.6724945330036],[85.35257522673653,27.67251695147024],[85.35246899731669,27.672510866500826],[85.35249762007071,27.67233765210435],[85.35263758946319,27.672325488499716],[85.35266801352465,27.672274962334996],[85.3526348126002,27.672241637521307],[85.35255126067362,27.672254799743957],[85.35248623851139,27.672207056694123],[85.35245751803303,27.672127472440213],[85.35246651176838,27.672065709646745],[85.3524297137936,27.671993503144737],[85.35243049577345,27.671868737359812],[85.35239987459009,27.671783533261266],[85.3524287324668,27.671744079550617],[85.3523960366774,27.67169446188024],[85.35240483882036,27.671628989978366],[85.35246349929274,27.671638997620057],[85.35267465866933,27.671598964752096],[85.35269965680183,27.671579011282077],[85.35270805237631,27.671535928624444],[85.35269373534551,27.671514339852028],[85.35266399891277,27.67150643631194],[85.35233614746011,27.671566016316792],[85.3523121470341,27.67158637966572],[85.3522840442636,27.67168741145697],[85.35223859375587,27.671732474356556],[85.35219681515312,27.67172457908824],[85.35189238342562,27.671828366056822],[85.35170046046447,27.671855666473334],[85.35171233527511,27.67178115181482],[85.35174965617655,27.671702106717817],[85.35182248162397,27.671625857924695],[85.3519063414207,27.671570464640354],[85.35207224557925,27.671375289569053],[85.35213722275591,27.671420830106772],[85.35230896839717,27.671421703490815],[85.35239021903554,27.671361805515183],[85.35236679821416,27.671274055088357],[85.35247275439691,27.671245364695217],[85.35257954155801,27.671190784331852],[85.35260441444758,27.67114604001709],[85.35258752836606,27.671122229936532],[85.35255657047544,27.671116462194373],[85.35239583703405,27.67117889518234],[85.35229238585711,27.67119806118654],[85.35224773916735,27.671245308473445],[85.35222615023744,27.671309013476435],[85.35216104970382,27.67132901398212],[85.35209997542917,27.671276745363542],[85.352050489898,27.671266012466603],[85.35206975314779,27.67092738070417],[85.35204184318134,27.670851751854105],[85.35208659476287,27.670816660171496],[85.35206835864251,27.67070667474644],[85.35208827931567,27.670600411203772],[85.35213285267163,27.67049806024808],[85.35228215127098,27.670362658377712],[85.35233925609099,27.670209434326704],[85.35231978784138,27.67017619762101],[85.35226957202312,27.670173965024222],[85.3521804921227,27.669525077635555],[85.35213608995706,27.669447355345195],[85.35190972681525,27.669399508217637],[85.35176885379057,27.6693300287243],[85.35161829836544,27.669307790253892],[85.35156176748461,27.66928550585496],[85.35153017871428,27.669298986697008],[85.35151903363779,27.669329044586593],[85.35103428190243,27.669211263584998],[85.3510045569122,27.669048830979264],[85.35102759923996,27.66894872089997],[85.35102802744078,27.66870396620613],[85.35099786646524,27.668667184528186],[85.3510007577093,27.66830182811555],[85.35096392357231,27.668268491641395],[85.35050390091541,27.66849557037276],[85.3505061547658,27.668835961762447],[85.35035481250814,27.668983947510966],[85.35027504210005,27.66896656007531],[85.35017333220348,27.668900809749278],[85.35008289712503,27.66890680325202],[85.35004507069773,27.668725988950296],[85.34999955923361,27.668702612953247],[85.34971665300648,27.6688748501185],[85.34953927485057,27.66887871901308],[85.34934159145112,27.668914464577913],[85.34914626587343,27.66893121609051],[85.34912156339638,27.668947939133734],[85.34910562248363,27.668993904530986],[85.3488083379387,27.66912092286473],[85.3487009955834,27.669102938456323],[85.34866554664261,27.66918979189187],[85.34860538486016,27.669207839535513],[85.34857484710261,27.66931278253924],[85.348537298975,27.669311597390966],[85.34851225913089,27.669327917957165],[85.34852021348797,27.66938822023164],[85.34840060273017,27.66950438325455],[85.34820237198988,27.66959782874699],[85.34805074479932,27.669608518576094],[85.34797017241341,27.669648809224668],[85.34792590156103,27.66976323135974],[85.34785045794688,27.669768966316937],[85.3477986587093,27.669668177935527],[85.34797021652442,27.669509007824566],[85.34796931251513,27.669465337354247],[85.34791478249291,27.669438232467876],[85.34780699930033,27.669507247667394],[85.34779157591781,27.669556379102445],[85.34770185722907,27.669603348959928],[85.34766315285016,27.669662626178347],[85.34752522852297,27.669544919762448],[85.3474558742017,27.669455372370418],[85.34742654969138,27.669444971229506],[85.34739283387765,27.66946217829435],[85.34728359043672,27.66966282675508],[85.34720147257687,27.669726994355397],[85.34672638389662,27.669694963259136],[85.34669700249228,27.66970349946846],[85.34668291336573,27.669727990403292],[85.34669230260997,27.66975420630834],[85.34721789083939,27.670279237434507],[85.34696951387308,27.670476314065336],[85.34683925880675,27.670518757774612],[85.34679305026782,27.67055160729188],[85.34666603561888,27.67055323211739],[85.34665595757741,27.67052180553844],[85.34679024067482,27.6704165886317],[85.3467905592832,27.670380665474365],[85.34675732716353,27.670362329035253],[85.34670293163101,27.6703840480525],[85.34651319794713,27.670510480377516],[85.3463625893447,27.67053078751727],[85.3463457901431,27.670554018187357],[85.34635236161739,27.670581020640334],[85.34654215717839,27.670770621854864],[85.34640212671012,27.670770609293243],[85.34637415658143,27.670782577837667],[85.34636627852288,27.670819026361137],[85.34642522177046,27.670892451671087],[85.34633947653592,27.67088882914899],[85.34631951600367,27.67091768871319],[85.34633524941277,27.670948577839674],[85.34593096154424,27.671187749407363],[85.34579940583109,27.671241619344137],[85.34578425707718,27.671272866881917],[85.3458024750837,27.671300430929588],[85.34569539945454,27.671395873255527],[85.34507072083602,27.67170274400263],[85.34472154758478,27.671910841913327],[85.34447554483405,27.67208825013235],[85.34434258397258,27.67220355478904],[85.34425848688952,27.672329296896446],[85.34417829288753,27.672409451471726],[85.34410976245711,27.67244906474945],[85.3440273804472,27.6725584399988],[85.34392183646207,27.672643261818656],[85.34385669596642,27.67271751067567],[85.34342232104316,27.673019074492412],[85.34339219566203,27.673026437216294],[85.34337651699298,27.673053761457364],[85.34299526995999,27.673320923869316],[85.34285079715609,27.673401832555193],[85.34281492976473,27.673407124283226],[85.34273990733922,27.673461086504936],[85.34260928105762,27.673410042598114],[85.34256668639232,27.673425211116854],[85.34256290950074,27.673459013208817],[85.34261020885609,27.67352299100517],[85.34334147072043,27.674276212541827]],[[85.34287617828845,27.67350596891389],[85.34307932557216,27.67361635611018],[85.34327882477396,27.673787244607347],[85.34327969514698,27.673905964672635],[85.34312903308755,27.673939284741795],[85.34291861360293,27.673732803511527],[85.34283712723278,27.67352689478456],[85.34287617828845,27.67350596891389]],[[85.3432785237819,27.674025380129187],[85.34327634373105,27.67408383765569],[85.34322717154394,27.674035586054742],[85.3432785237819,27.674025380129187]],[[85.34346001802064,27.674264072739216],[85.34367066638181,27.674175640033944],[85.3437812544528,27.67417861320766],[85.34388096106818,27.67435811324976],[85.34393030280351,27.67450242295602],[85.34393298329547,27.67451984066198],[85.34384914433076,27.674613694723675],[85.34376657759567,27.67456489033867],[85.34346001802064,27.674264072739216]],[[85.3440956808441,27.674802652794146],[85.34395138973441,27.6747133570078],[85.34401312269851,27.674652485923378],[85.3440829378023,27.674622630464683],[85.34424534409803,27.6745044401877],[85.34424532430687,27.674314109358175],[85.34429777102058,27.674307255971915],[85.34438721784122,27.674255430293268],[85.34448550543084,27.67424680679041],[85.34455006613605,27.674202447092913],[85.34458049966369,27.674161449290196],[85.34471429380623,27.674161779198656],[85.34475201000552,27.67421721120904],[85.34476883716955,27.674413766818425],[85.34473633273069,27.67445147158298],[85.3447058279548,27.674531039523806],[85.3447081381239,27.674584822429008],[85.3447588782508,27.674651372998383],[85.34478409664848,27.674744616945556],[85.34483685071756,27.675193617009974],[85.34491665563979,27.675343593535327],[85.34490833467007,27.675413521719378],[85.34487296259312,27.67540792356972],[85.34463845230925,27.67522098160705],[85.34453372740357,27.675180345580525],[85.34426529406686,27.67497888359868],[85.3440956808441,27.674802652794146]],[[85.34486955763096,27.67476875146928],[85.34493599495323,27.674639579363905],[85.34491040993781,27.674603895842065],[85.34483012185497,27.67459664056022],[85.3448109834991,27.674552438159896],[85.3448720716231,27.67447351404282],[85.34484644377353,27.674145264930196],[85.34501155503018,27.67413892906441],[85.34503433400815,27.674289016469366],[85.34507305556807,27.674348692979514],[85.34504487877687,27.674441918596784],[85.34505499424633,27.674638316830038],[85.34508310741452,27.67474637116098],[85.34508712607077,27.674875805051038],[85.3451151466884,27.67490289195792],[85.34513515144958,27.675003630716787],[85.34511755854369,27.675035225458668],[85.34514592840564,27.675151623640776],[85.34507155218978,27.67524131695208],[85.34504205759609,27.675238787178934],[85.34492144964486,27.675117892275775],[85.34491764536858,27.674991776439633],[85.34488717519625,27.67491831304641],[85.34486955763096,27.67476875146928]],[[85.3448159681735,27.67405032534773],[85.34477796707826,27.67403118943531],[85.34463422939253,27.67406259543971],[85.34460278669661,27.673906286404232],[85.3448693976774,27.67385383072044],[85.34498039248493,27.673850898124694],[85.34499947165989,27.673818034270102],[85.34496238363421,27.673528335007646],[85.3450256981463,27.673530130877033],[85.34507010486682,27.67355351108093],[85.34519998380635,27.67354626553982],[85.34524373921347,27.673582926950207],[85.34529243570759,27.673765370045825],[85.345284030499,27.67392821718766],[85.3452599077115,27.674004243324866],[85.3451555393734,27.674030371919795],[85.3448159681735,27.67405032534773]],[[85.34516561324716,27.674739459089455],[85.34516358277509,27.674342013644146],[85.34513836987111,27.674180689092573],[85.3451843674987,27.674130269077033],[85.3452683812615,27.674104062019556],[85.3452900380729,27.674185253533143],[85.34535925256314,27.67423660120513],[85.34533926358573,27.674274199245573],[85.34535789759039,27.67432919978606],[85.34531345388149,27.674392900046808],[85.34525345900296,27.67441477831624],[85.34524712768507,27.674449717964343],[85.34527157257826,27.67447126360063],[85.34535069815351,27.67448131648329],[85.34544777217717,27.67446819255466],[85.34547228064167,27.674436854134825],[85.34554855993264,27.674429864525994],[85.34553243927466,27.67453580428492],[85.34553808395773,27.674655782739304],[85.34554639060599,27.674746858629312],[85.3455815792978,27.67483283199599],[85.34556908431585,27.67484941716331],[85.34535264352748,27.674879493330554],[85.3453284124591,27.674908662747573],[85.34521143480606,27.67497306208281],[85.34516561324716,27.674739459089455]],[[85.34546747283773,27.67434322330354],[85.34550012467456,27.674291782310522],[85.34554209094884,27.674314283469666],[85.34554454982452,27.674357652520065],[85.34547006593782,27.674364477617797],[85.34546747283773,27.67434322330354]],[[85.34527173336714,27.67534961221231],[85.34538282776577,27.67531789060127],[85.34539856293523,27.67534764123454],[85.3454358786663,27.67535458196831],[85.34553290983214,27.67532779358868],[85.34556817266501,27.675269457911842],[85.3456401077076,27.675265129542442],[85.34568563137536,27.675340552243593],[85.34572390991057,27.675359019196428],[85.34575710795765,27.675553189035558],[85.34579481052131,27.675578808764666],[85.34582410971775,27.675571670474447],[85.3458396537964,27.675548203869994],[85.34583267290179,27.675369593247932],[85.34603311824038,27.67538232295165],[85.34606836651555,27.67539528129735],[85.34611106118844,27.67550052980073],[85.34614244521376,27.67551996288912],[85.34629737937634,27.67550546317897],[85.34652526633418,27.675446270994414],[85.34659674181391,27.675658909562625],[85.34663369427983,27.675666125970633],[85.34684673018178,27.67560557362764],[85.34684590503342,27.67569271168592],[85.34678497781842,27.675772768844354],[85.34670571126081,27.675782360836074],[85.34661635189654,27.675815202111874],[85.34647987209567,27.675728567320245],[85.34633733929138,27.675733509526523],[85.34631530185186,27.675770023021705],[85.34636206514202,27.675921511523537],[85.3462988285228,27.675941099435104],[85.34626355720252,27.675939956168385],[85.34603849987778,27.675764226271546],[85.3455817561559,27.67580675517612],[85.34561821494674,27.67573044310858],[85.34560504520894,27.675705230168738],[85.3455756507848,27.67569583112953],[85.3455146856333,27.67574054448495],[85.34547916087647,27.675797887449754],[85.34528630602821,27.675675423061183],[85.34527173336714,27.67534961221231]],[[85.34525526902821,27.67523637787655],[85.34527852286865,27.675106486102056],[85.34535640144182,27.675070809063335],[85.34538237048089,27.675146948362226],[85.34541132497628,27.67516709756067],[85.34543607125156,27.675226263026993],[85.34526251804196,27.675276422969617],[85.34525526902821,27.67523637787655]],[[85.34659218475139,27.675391390398275],[85.34656594538721,27.675369033127684],[85.34645777523329,27.675356541056583],[85.34635585440294,27.675402646873973],[85.34618852171047,27.675433013874738],[85.34616695205607,27.675339672257888],[85.34607957204507,27.675309480183383],[85.34609596228697,27.675244714383233],[85.34634100954489,27.675174198331188],[85.3463809918471,27.67518338625337],[85.34649421332257,27.67514365113525],[85.3465236575998,27.67516584100387],[85.34655150416475,27.67526968256539],[85.3466286214927,27.67528821882581],[85.3466506610368,27.675270660428684],[85.34665683865194,27.675239948326247],[85.34658597213081,27.67510049262398],[85.34681748207304,27.674996970564404],[85.34686381655935,27.675072925931207],[85.34681500586723,27.675231268008023],[85.34682436297462,27.67526195686527],[85.34687647358683,27.67527454955363],[85.34696388915827,27.675239622223703],[85.34717965622082,27.67536915675585],[85.34711630206125,27.675449943407784],[85.34688096394208,27.67539752730521],[85.34684551535474,27.675426395492238],[85.34662674608926,27.675501641354302],[85.34659218475139,27.675391390398275]],[[85.34611912007524,27.675136249030203],[85.34605701773854,27.67510033074362],[85.34597518327921,27.675114306916218],[85.3459523478675,27.675130452249473],[85.34591897328497,27.674876013529584],[85.34599433659616,27.67487441046027],[85.34602743606966,27.674890071736208],[85.34606413720967,27.674875046855767],[85.34621331242127,27.6749046274551],[85.34622477707379,27.67498826685418],[85.34611912007524,27.675136249030203]],[[85.3458276806744,27.674806726300897],[85.34569498570141,27.67481993477765],[85.34566954686846,27.674810593526544],[85.34564022483028,27.67445118954344],[85.34566035890425,27.674318344159076],[85.34578311265689,27.67434443752437],[85.34575777443895,27.67442135571171],[85.34577191226154,27.674471900356288],[85.34580345902161,27.674491343547377],[85.34580716418071,27.67456004559396],[85.34577365553062,27.67459249383748],[85.34578392276855,27.674711683411065],[85.34582208151464,27.674744835412085],[85.3458276806744,27.674806726300897]],[[85.34583963751155,27.674282225337627],[85.34564083413103,27.674233390337793],[85.34564720144232,27.67407449629918],[85.34580677530333,27.674043020438674],[85.34586558268994,27.674063325884635],[85.3458669102049,27.674174794763207],[85.34590697565586,27.67420298139501],[85.34592652027746,27.674282779219524],[85.34583963751155,27.674282225337627]],[[85.34605245262277,27.674354255864873],[85.34608247286326,27.674318187583896],[85.34618958212783,27.674306155949377],[85.34623731218848,27.674242008241755],[85.34631678279982,27.674189473600066],[85.34638804557194,27.67420940404625],[85.34639239596345,27.674298193534394],[85.34642763675608,27.6743398572976],[85.34643315401448,27.674422093867484],[85.34641801545567,27.674481831670338],[85.3463487776386,27.674539783316504],[85.34634763295114,27.67461987043665],[85.34628032575017,27.67461231890294],[85.34621845893275,27.674626243843317],[85.34615536034417,27.674558280283318],[85.3460275747539,27.674560171745746],[85.34605245262277,27.674354255864873]],[[85.3461400749058,27.674665719103217],[85.34601617798758,27.674796636545086],[85.34590879367042,27.674804011396578],[85.34589400615228,27.674640557278508],[85.34610701360461,27.674627762102524],[85.3461400749058,27.674665719103217]],[[85.34629990310073,27.675109874790078],[85.34621822066497,27.6751320364085],[85.34626813894657,27.675062121279055],[85.34629990310073,27.675109874790078]],[[85.34653936974726,27.675040574472668],[85.34647937290019,27.67500442865951],[85.34640047601054,27.675031519642047],[85.34634816140073,27.674950174978243],[85.34638010879223,27.674905296836407],[85.34650446742776,27.67480406336147],[85.34650649416588,27.67477649333541],[85.34647557398691,27.67471612156652],[85.34651676049256,27.674703882432855],[85.34667101828163,27.67470138200566],[85.34672360409515,27.674683525061358],[85.3470023148015,27.674719169372676],[85.34701083445023,27.674737207001197],[85.34699171737203,27.67481328204007],[85.34695122358366,27.67480707744909],[85.34683355942218,27.674853596349838],[85.34671855648106,27.674915280771895],[85.34671391098453,27.674961895151807],[85.34653936974726,27.675040574472668]],[[85.34689134938904,27.674964573571803],[85.34694797900069,27.67494283176325],[85.34701795547802,27.674955938597694],[85.34710979730231,27.67516076219537],[85.34701032785422,27.67515550633932],[85.34695938230573,27.67503330046623],[85.3469199471819,27.675013660349645],[85.34689134938904,27.674964573571803]],[[85.34560534363234,27.6758771978835],[85.34579928072084,27.675860125448725],[85.34574867042066,27.675964908039536],[85.34560534363234,27.6758771978835]],[[85.34619991852199,27.6760544094385],[85.34620578111762,27.6761501071109],[85.34619564052228,27.676275394413878],[85.34599191004756,27.676139259405353],[85.34619991852199,27.6760544094385]],[[85.34627179893275,27.676315803342607],[85.34631900108755,27.676264903366697],[85.34630894040521,27.676164696175007],[85.34648715735996,27.6759761195687],[85.3467163021207,27.67600052484618],[85.34674808097832,27.675968132024913],[85.34672574509476,27.675868917251446],[85.34717371135648,27.675830922259237],[85.34719670454876,27.67593304430101],[85.34717317003707,27.67595370414436],[85.34698248495046,27.67599743714377],[85.34694475573548,27.6760306762322],[85.34700233476126,27.676220165931984],[85.3469024991746,27.67625778460742],[85.34684244512638,27.676238775970027],[85.34673952179777,27.676301867967045],[85.3465247185476,27.676372690166072],[85.34648654765353,27.676286684176908],[85.34643645543277,27.676276266487793],[85.34641417178399,27.676303920540107],[85.34642252214026,27.676383103032997],[85.34646862944132,27.676455677045755],[85.34627179893275,27.676315803342607]],[[85.3474405280469,27.675835933289427],[85.34727112979398,27.675896248299413],[85.34725623809075,27.675830108448327],[85.3474405280469,27.675835933289427]],[[85.34704975313626,27.676074291175485],[85.34718896294616,27.676042124796485],[85.3472281762986,27.67606694536472],[85.34717239730185,27.676202024636368],[85.3470818277575,27.676205841333775],[85.34704975313626,27.676074291175485]],[[85.34659238494189,27.676536188629004],[85.34658509461491,27.676507432759685],[85.3467001292619,27.67641047452829],[85.34688978418258,27.676351324594968],[85.34699934902116,27.67639671861295],[85.34711275174406,27.67640728722849],[85.34719225774465,27.676398898678585],[85.34724079291387,27.676502104328197],[85.34724274379002,27.676598222322117],[85.34687817003109,27.67663712138902],[85.3468683619083,27.67657631323381],[85.34684502645094,27.676554599764273],[85.34681676086998,27.676554043784705],[85.34669456326087,27.676603370951597],[85.34659238494189,27.676536188629004]],[[85.34689421760507,27.676708910927438],[85.34716043315986,27.676696168830926],[85.3470795147145,27.676839235476493],[85.34689421760507,27.676708910927438]],[[85.34823490774687,27.677609106044212],[85.34781527239495,27.6773317082796],[85.34783421836892,27.677289857727224],[85.34795235027316,27.6772711375559],[85.34804014421363,27.677223880158476],[85.34819878613071,27.677236641810435],[85.34829219695233,27.677320271281364],[85.34829959485143,27.677489141113877],[85.34823490774687,27.677609106044212]],[[85.34906785512788,27.678151185692524],[85.3483867552495,27.677693239762988],[85.34836809467319,27.6776352665671],[85.34849733417241,27.677568382365163],[85.34873491060782,27.677505074702992],[85.34885562440547,27.67764886758538],[85.34907143810435,27.67810859377884],[85.34906785512788,27.678151185692524]],[[85.34863945962461,27.677117997908603],[85.34870192740118,27.677341059371322],[85.34850315887937,27.677441887027328],[85.34839145992056,27.677456730681644],[85.34836907274632,27.67717472532129],[85.34863945962461,27.677117997908603]],[[85.34780155162106,27.676594667641723],[85.34796417472735,27.67694096903958],[85.34787859147235,27.67707742757085],[85.34789043523101,27.677190086939344],[85.34776814175093,27.67722502430136],[85.34772926708845,27.677057222467162],[85.34773826662246,27.677026209169554],[85.34765433668606,27.676675815328885],[85.34780155162106,27.676594667641723]],[[85.34764407760285,27.677210752069982],[85.34754835144184,27.67714297346267],[85.3476409222308,27.677033307925765],[85.34768465346728,27.677222073763637],[85.34764407760285,27.677210752069982]],[[85.34776629513232,27.676519701382347],[85.34762388523296,27.67656148475568],[85.34745857313666,27.67656461609796],[85.34738979780934,27.67659881542854],[85.34734095047732,27.676594371748063],[85.3473528443479,27.676419221853585],[85.34766445487493,27.67633068448211],[85.3476847099526,27.67634271104785],[85.34776629513232,27.676519701382347]],[[85.34727174098727,27.67571360205433],[85.34725315537214,27.675658074002424],[85.34721498580679,27.67564223037513],[85.34718826620784,27.67565501422617],[85.34712578720644,27.675736715001374],[85.34707857623727,27.675734796201734],[85.34705889047677,27.675561415408747],[85.34714365988205,27.675533655832012],[85.3473027809499,27.67554997688126],[85.34737273071602,27.675671424645547],[85.34727174098727,27.67571360205433]],[[85.34669940117132,27.67415313717136],[85.34682117208199,27.674387224368033],[85.34667286963206,27.674605011561894],[85.34661025382567,27.674598916884534],[85.34651422385646,27.67462305414726],[85.34649232616934,27.674597063181864],[85.34653037452611,27.67443167744494],[85.34652880909022,27.674320131454838],[85.34644574375965,27.674119885264716],[85.3464923475366,27.674074242458513],[85.34653856155288,27.674163033690416],[85.34661907432266,27.67423025962905],[85.34665518449744,27.67421908841676],[85.34669940117132,27.67415313717136]],[[85.34636068520446,27.674037886869797],[85.3463290017061,27.67395322866298],[85.34650303619868,27.6739390140055],[85.34639481807831,27.674062426699162],[85.34636068520446,27.674037886869797]],[[85.34661058598482,27.674081492474464],[85.3465727666181,27.673994701386665],[85.34659355114847,27.673960930876945],[85.346651946734,27.67406696777894],[85.34661058598482,27.674081492474464]],[[85.34640669083099,27.673344457861763],[85.34636141844375,27.673094403673627],[85.34647148317879,27.67305786682943],[85.3464908412261,27.6730227196569],[85.34644390242092,27.672832429253557],[85.34636504777696,27.672745182713765],[85.3463081926801,27.672523245652968],[85.34621512622209,27.672267037653388],[85.34626325749795,27.67222455400316],[85.3463532054286,27.672226736366074],[85.34641498948614,27.67212690045892],[85.34647695250604,27.67210776383399],[85.34649940212859,27.672169679765997],[85.34653349689349,27.67220404731566],[85.34657437000591,27.67220351322711],[85.34662276177922,27.672260611806305],[85.34662292323476,27.672308401523477],[85.34678308185545,27.672496619582766],[85.34672401501749,27.672576073838727],[85.34661225028015,27.67253078153502],[85.34657650957237,27.672537335131622],[85.34656010470458,27.672564351963068],[85.3466210908361,27.67270587818528],[85.34669977799707,27.672719485750925],[85.34673786070607,27.67275469643352],[85.34676699717073,27.672821441938304],[85.34675143019793,27.672850202574214],[85.3467638432396,27.672876811417055],[85.3468037578111,27.672887530620713],[85.34685710315628,27.672853502585994],[85.34686076553463,27.67281219145768],[85.3468129013251,27.672704851967435],[85.3468909915983,27.6726265539073],[85.34701425016247,27.672691429057615],[85.34704373939607,27.672762215887484],[85.34719564950069,27.67286796589829],[85.34678141197617,27.67307330239981],[85.34656322053472,27.673276259821858],[85.34640669083099,27.673344457861763]],[[85.34628891214666,27.672772227847464],[85.34635970904773,27.67289004118637],[85.34634175421226,27.672989554113876],[85.3462461806175,27.67304230374316],[85.34623048825269,27.67306751058582],[85.34628226438466,27.673168990030884],[85.34626578870802,27.67320548976599],[85.3462953207344,27.673362578741628],[85.34632962312052,27.673442112018943],[85.34632518612214,27.67351710142379],[85.34634843798108,27.673547971209146],[85.34628837919271,27.673559120248605],[85.3462173246987,27.673524641205432],[85.3461691160473,27.673522020160306],[85.34613128474916,27.673432975851284],[85.34607166003516,27.673423165673054],[85.34601700910882,27.673367391333304],[85.34601844189402,27.673321602958303],[85.34592170212278,27.673122380709028],[85.34584884162403,27.673033115714226],[85.34574415670069,27.672784298025388],[85.34580824285761,27.672756534354814],[85.34582641914166,27.672734140244433],[85.34577840588018,27.672649066606517],[85.34582395599442,27.672561299284542],[85.3458568366941,27.67242584708886],[85.34589505049681,27.672396926040726],[85.34605431056553,27.672493485152494],[85.34608023052738,27.67252737894589],[85.34623555018074,27.6725637931053],[85.34628891214666,27.672772227847464]],[[85.3464101433953,27.673629243910764],[85.34643254738492,27.673682355611717],[85.34627478781094,27.67373533540859],[85.34626792645538,27.673679721667625],[85.34628172139136,27.67364265906986],[85.3464101433953,27.673629243910764]],[[85.3456773479287,27.672843566400115],[85.34583166142349,27.67319376099903],[85.34563080899946,27.673286398442176],[85.34553933630322,27.673377678560772],[85.34547445214537,27.673348616866267],[85.34545707020104,27.67328731078572],[85.34542838840845,27.673269290437883],[85.34539839663023,27.67321333844718],[85.34539891258851,27.673162709910518],[85.34527809158871,27.672963674527892],[85.34530259569608,27.672893487861494],[85.34538777413454,27.672871740067954],[85.3455458615215,27.672748443045027],[85.34560660513824,27.672724640219442],[85.3456773479287,27.672843566400115]],[[85.34585957718683,27.673262298072583],[85.34589390258363,27.673341016115753],[85.3456978041269,27.673406837672477],[85.34567499532486,27.673361395002406],[85.34569482305896,27.673340001074664],[85.34585957718683,27.673262298072583]],[[85.34536102848057,27.673311766852333],[85.34537746713478,27.673373795110212],[85.34533332680128,27.673408773957878],[85.34522398054136,27.673447099879446],[85.34517092051044,27.67338900012896],[85.34511935286635,27.673292530115425],[85.34503732255098,27.673212750765696],[85.34500263074132,27.67320660984057],[85.34490621509566,27.673247602476106],[85.34484053978434,27.673213610253423],[85.34481523674928,27.673158914408756],[85.34494515588915,27.67304825281327],[85.34506299780405,27.673123986044946],[85.34515045474947,27.67306420840901],[85.3452226247161,27.6730530545958],[85.34536102848057,27.673311766852333]],[[85.34501672241004,27.673002783930915],[85.34501838340015,27.673006888125567],[85.34501423921594,27.67300412309736],[85.34501672241004,27.673002783930915]],[[85.34613444789476,27.672463482865936],[85.34606295593244,27.67232481089368],[85.34604966851542,27.67228284289981],[85.3461100107109,27.672274081910167],[85.34613600595367,27.67228385570477],[85.34620784387322,27.672481622951718],[85.34613444789476,27.672463482865936]],[[85.34661003039935,27.672066720026095],[85.34664000516972,27.672065155967854],[85.34663329186256,27.67215316929365],[85.34660110675559,27.67211519331813],[85.34661003039935,27.672066720026095]],[[85.34750405621362,27.67263223576512],[85.34757818550426,27.672431830139566],[85.34775245120936,27.67246574859406],[85.34774060514705,27.67263265676755],[85.34751274589385,27.672665247202445],[85.34750405621362,27.67263223576512]],[[85.34744409286729,27.672563526743183],[85.3473353902007,27.672508608950857],[85.34729924813948,27.67251312552534],[85.34727302594104,27.672546745125512],[85.34727579048896,27.672574264303346],[85.34729722579729,27.672599736015812],[85.34735928374687,27.672627213262846],[85.34738896004642,27.67266351935442],[85.34734356007311,27.67273618792621],[85.34718324480086,27.67271504172876],[85.34719868091803,27.67266093665273],[85.34718886502826,27.672634915707377],[85.34716133170062,27.672622563315677],[85.34708433357096,27.672626569436765],[85.34702256879348,27.67255060090091],[85.34721846013225,27.672434147906394],[85.34723160083843,27.672384355836527],[85.34721340661356,27.672365668359383],[85.34716693501393,27.67235745003072],[85.34700155113187,27.672278788587167],[85.34694375380629,27.672216897211815],[85.3469614744641,27.672138475626074],[85.34701291204023,27.6721396265831],[85.34707153983283,27.67220437792659],[85.34717580413043,27.67220976218428],[85.34721940640142,27.672244185633577],[85.34725653986648,27.672312474579044],[85.34734125014919,27.672371010464104],[85.34737215635451,27.67237350964287],[85.34739828934875,27.672353261168517],[85.34744148900477,27.67237645965517],[85.34743990027555,27.67242444759289],[85.34749110545005,27.672436430283575],[85.34744409286729,27.672563526743183]],[[85.3469943435458,27.672447385683903],[85.34694759220841,27.672490742244715],[85.34692070594087,27.672474551493533],[85.3467426157751,27.672277062788353],[85.34683506905135,27.672213445009096],[85.34696177886796,27.672349130391762],[85.3469943435458,27.672447385683903]],[[85.34757077991995,27.672284202422336],[85.34758936796409,27.672226547823584],[85.34754650809322,27.67218196232819],[85.3474989553934,27.672190442216323],[85.34748323188444,27.67224650586005],[85.34740454078006,27.67225654129157],[85.34725673511785,27.67214726773885],[85.34727955131697,27.67212145067961],[85.3474757948524,27.672129898158556],[85.34750127583358,27.672093256051454],[85.34747445247855,27.672057982422608],[85.34743827686016,27.67204472614298],[85.3472275241725,27.67203351373616],[85.34711696153953,27.672086355853494],[85.34697006432427,27.672032672693025],[85.34692782764677,27.67199172993091],[85.34691392404956,27.67192588320566],[85.34701349548,27.671911976280757],[85.34707848099279,27.67187656944248],[85.34714652030173,27.67191190647368],[85.3472066175977,27.67188167729297],[85.34728462551507,27.671910932555075],[85.34732858865361,27.67189318228758],[85.34741591664736,27.671904756072436],[85.34744687297122,27.671923073413833],[85.34753956027593,27.67192590659708],[85.34757048451391,27.671956314989316],[85.3476157254983,27.671947738154543],[85.3476361741952,27.672008980539136],[85.34761464782846,27.672118477528247],[85.3476518145931,27.672153799283574],[85.34768199331296,27.672147359836828],[85.34770296408097,27.67212078066393],[85.34772222558698,27.672037221691088],[85.34783582455456,27.672005234250868],[85.34789310068632,27.67202674028676],[85.34791135492304,27.67206288159927],[85.34796939852812,27.672080701634172],[85.34799008062652,27.67212090317559],[85.34793029205471,27.672260702185877],[85.34792623530645,27.672376773161723],[85.34791049253256,27.672396598807676],[85.34780206481214,27.672401501849297],[85.3475861679285,27.672359480477517],[85.34757077991995,27.672284202422336]],[[85.34734091282004,27.671819008656172],[85.34732654926763,27.67172594914964],[85.34739162715863,27.67150469362037],[85.3474839510387,27.671337870136625],[85.34751650733625,27.671316450246895],[85.34759571665434,27.6713206527868],[85.34778333724167,27.671604563358148],[85.34777253358195,27.671875550357846],[85.3477202571833,27.67187938105187],[85.3476732908751,27.671837370985745],[85.34762137739376,27.671823192532912],[85.34757469611125,27.671845799815816],[85.3474447216393,27.67180535217411],[85.34740318405963,27.671824900349854],[85.34734091282004,27.671819008656172]],[[85.34797577428368,27.672577698493328],[85.34804259567723,27.672636489110435],[85.34808297736035,27.672686645540185],[85.3479047563005,27.672652303829317],[85.34797577428368,27.672577698493328]],[[85.34821881128731,27.672709200717883],[85.34803594687189,27.672500559089553],[85.34806652244473,27.672403870238405],[85.34806545961123,27.672221011658372],[85.3481411397542,27.67221471886127],[85.34815878751314,27.672193842567527],[85.34816367967782,27.67214718967136],[85.34824642059397,27.672118161629022],[85.34832448899215,27.672391206343246],[85.34834431485415,27.67271086482739],[85.34821881128731,27.672709200717883]],[[85.34844781024864,27.672155353250247],[85.34834873389288,27.672183330983223],[85.34832174469348,27.672088936165153],[85.34840143977743,27.672056735248493],[85.34842889509295,27.672063096244454],[85.34844781024864,27.672155353250247]],[[85.34844008573938,27.672648318937522],[85.34847132117592,27.672600608152507],[85.34865607840725,27.672553802241588],[85.34869423525294,27.67269917620141],[85.3484478955109,27.672709378688157],[85.34844008573938,27.672648318937522]],[[85.3489809575415,27.672731571310898],[85.34879454441281,27.67270434806352],[85.34877964601397,27.672558156953443],[85.34868855249185,27.67243269789649],[85.34844385171088,27.672485767427162],[85.34843340157346,27.672359104042062],[85.34852429031855,27.672322287056375],[85.34856429871071,27.67232697926674],[85.34858895214508,27.672300565573185],[85.34854779423895,27.672169283991508],[85.34855438316814,27.672092169922507],[85.34876075277909,27.6720789258739],[85.34883187437559,27.672053541416172],[85.3489985885389,27.67247038117621],[85.34922847664717,27.672503465795742],[85.3492853728705,27.672633810634803],[85.34932016395376,27.672779308297727],[85.34922090317855,27.672887264555897],[85.3489809575415,27.672731571310898]],[[85.3487031517587,27.671999482576933],[85.34858309226694,27.672001609109618],[85.34856292083131,27.671912249679334],[85.34849106911167,27.671757239127334],[85.34837289958111,27.671718468794392],[85.34835308243608,27.671686357483644],[85.34827377878138,27.67165946871324],[85.34823251184943,27.67161109450464],[85.3482734184462,27.67158415201011],[85.34829040424503,27.67155346373776],[85.34838602545922,27.671522932292582],[85.3486589388743,27.671842033834],[85.3487031517587,27.671999482576933]],[[85.34846520847944,27.67191240171308],[85.34812529443647,27.672073211457477],[85.34806458444993,27.672021063367385],[85.34826312038636,27.671765945335668],[85.34836677099905,27.67185096045758],[85.34844021859469,27.671844028159885],[85.34846520847944,27.67191240171308]],[[85.34897079875893,27.672001592563124],[85.34905492086469,27.672154629440932],[85.34910373087234,27.672159274550854],[85.34912187958713,27.672137862628162],[85.34919016360011,27.671900618137055],[85.34930607601731,27.671839248667755],[85.34933847043335,27.671841674914738],[85.34944524345323,27.67179827431999],[85.34957773592565,27.671781907575795],[85.34970204685551,27.671896574922833],[85.34970534276053,27.67200989339398],[85.34975917964967,27.67212300594519],[85.34980520259727,27.672179393189605],[85.3493246491949,27.672342846499916],[85.34926047990518,27.67233217862905],[85.34922145287649,27.672363199366757],[85.34905946911505,27.672394851222723],[85.34890676175046,27.67202553834127],[85.34897079875893,27.672001592563124]],[[85.34916858557864,27.671814447227128],[85.34911195562698,27.671800261650347],[85.34903017505755,27.671865900355606],[85.34884058107328,27.671626297266112],[85.34878959369661,27.671612219760853],[85.34876448575066,27.671629265329866],[85.34876109603567,27.67165826332772],[85.34886512952107,27.671814142855354],[85.34878124012165,27.671888717574245],[85.34874644682984,27.671784644615403],[85.34854284829972,27.671567210060818],[85.34854080378999,27.671532216490927],[85.34846035450597,27.671446040105774],[85.34841357093865,27.671426281332142],[85.34821664145112,27.671426527568453],[85.34810212913176,27.67136638489114],[85.34800081277217,27.671248684396396],[85.34797058510584,27.671195346929803],[85.34788577392693,27.67111205351556],[85.3479772802853,27.671072667404992],[85.34795666534805,27.670976624855953],[85.34797463731738,27.670949059190683],[85.348068349463,27.671042416794254],[85.34810690041496,27.671118116054494],[85.34825269290401,27.671267399424384],[85.34828806881664,27.6713252454783],[85.34831804225314,27.67133405260921],[85.3484399719534,27.67130850760492],[85.3485611839828,27.67144450288664],[85.348599011127,27.671441902601558],[85.34861755505652,27.671415993267242],[85.34858277056885,27.67132171772667],[85.34874348913945,27.671216863940455],[85.34896393379071,27.671397839245543],[85.3492489906894,27.671774873434106],[85.34916858557864,27.671814447227128]],[[85.34780542374733,27.671136992213892],[85.34802740081247,27.671417952115707],[85.34815349984265,27.67148432592022],[85.34813939213053,27.671559103483713],[85.34810979593641,27.67159884358868],[85.34804913080013,27.671637034852502],[85.34778088723073,27.67124662068433],[85.34776162185094,27.671150587208846],[85.34780542374733,27.671136992213892]],[[85.34903076409961,27.67134803747712],[85.34869209828108,27.671075712804623],[85.34874693424516,27.67104061024074],[85.34900935230311,27.671244213589446],[85.34909524037371,27.671330376892396],[85.34933939754063,27.671637513730595],[85.34925098816146,27.671637113807023],[85.34912630419656,27.671456362525056],[85.34903076409961,27.67134803747712]],[[85.34866321888013,27.671151089126024],[85.34856559637,27.67122565279166],[85.34849952631855,27.671220226232474],[85.34835237943236,27.671067072463675],[85.34831225223321,27.671053136413025],[85.3481945482573,27.671048245913806],[85.34809503708195,27.67095281821695],[85.34810819691054,27.670897608488794],[85.34816516465847,27.670853722959432],[85.34831331688494,27.67086617194638],[85.34866321888013,27.671151089126024]],[[85.34979529527168,27.672286509701674],[85.3497710652074,27.672268292448393],[85.34980721579835,27.672255996279223],[85.34979529527168,27.672286509701674]],[[85.34940934545605,27.672811918161216],[85.34937573029525,27.67259300416499],[85.34933683845053,27.672497067662334],[85.34937317178073,27.672422862349404],[85.34958172950057,27.67234188260074],[85.34961932348207,27.67237628581367],[85.34956445002751,27.67240078486797],[85.34950879723367,27.672517958372097],[85.3494781187519,27.672550546808875],[85.34954713780567,27.67279074926515],[85.34958840092425,27.672796053227874],[85.34961598074156,27.672765816676918],[85.34959806006785,27.67257034468575],[85.34971042992446,27.672515009291807],[85.34972352241917,27.672418462399516],[85.34979830969739,27.6723878533815],[85.34990257379482,27.672439218777747],[85.35000765789565,27.672634783958024],[85.35008025884389,27.672730489701213],[85.34993278931995,27.672814812415854],[85.34990433015967,27.67284827758987],[85.34981742236705,27.672869611296935],[85.34978792403683,27.672904435963307],[85.34952263841774,27.672988805498576],[85.34932834637051,27.67294006999981],[85.34940934545605,27.672811918161216]],[[85.34986081519332,27.672957630873874],[85.35013580653434,27.67282257194984],[85.35019617716779,27.672950043721684],[85.35040264738755,27.673092330181913],[85.35058987082553,27.67340528579297],[85.35063546899444,27.67355516142361],[85.35058679328836,27.673593011090578],[85.35037614306943,27.673599393481673],[85.35032184696486,27.673621714124486],[85.35012669159485,27.673407905571576],[85.3498141519669,27.67311875858999],[85.34986081519332,27.672957630873874]],[[85.35049146873047,27.673084720512],[85.3505148354176,27.673062557480517],[85.35051228939162,27.673034539339127],[85.3504341949938,27.67298680539759],[85.35050863048012,27.672902432152704],[85.35060590954747,27.672845250975268],[85.3506089616185,27.672802051369402],[85.3505373351301,27.672779716215285],[85.35034724130237,27.672888601930264],[85.35032918741314,27.672840506139426],[85.35030042389741,27.67282469111824],[85.35038742921908,27.672743530260536],[85.35045154837036,27.67272582328369],[85.35057923049052,27.67265357449248],[85.35058546161788,27.67260542304111],[85.35051352409357,27.672461904485264],[85.35063551516143,27.672418560537395],[85.35067064227232,27.672485554783353],[85.35076092870236,27.67256228731658],[85.350926105789,27.672499098500165],[85.35092457072598,27.672565639240595],[85.35095019368357,27.672654592030746],[85.35097795405292,27.672674304488254],[85.35101645956092,27.672667570081643],[85.35106046061532,27.672735992704624],[85.3510609154036,27.672819034857756],[85.3511799824231,27.672930768355442],[85.35120228305631,27.673004526325425],[85.35123873634356,27.67302895936708],[85.35124690633562,27.67308591444591],[85.35113468483063,27.673143211650338],[85.35097566650157,27.673168899568534],[85.35090690116175,27.672918659261544],[85.35086284072374,27.67282624395425],[85.35082197843919,27.672807725080897],[85.35077625015128,27.672836496356258],[85.35080422236372,27.67297595010036],[85.35084352477675,27.673037401406],[85.35084115398888,27.673095807124078],[85.35088285032346,27.673156855954744],[85.3508850935324,27.673250892391717],[85.35093404949889,27.67333632793998],[85.35092996047426,27.67338535224955],[85.35098078069274,27.673461958899747],[85.3508682965879,27.673548213620307],[85.35080245460767,27.67358011800877],[85.35069227878519,27.673454532608748],[85.35070220567843,27.67338520853804],[85.35066933698086,27.67330907662032],[85.35064613732996,27.6732913451243],[85.35061524829851,27.673293024342836],[85.35049146873047,27.673084720512]],[[85.35111695415601,27.673220079353456],[85.35138856233029,27.67325013723509],[85.35141938666266,27.67329282315672],[85.35141349589192,27.673457099557],[85.35136266551324,27.673421540245336],[85.35136199232575,27.67338627437977],[85.35133701881567,27.673364860804398],[85.3510355715714,27.673354656825683],[85.35099439756979,27.673239267526952],[85.35111695415601,27.673220079353456]],[[85.3503183215943,27.673757239810776],[85.35051709591973,27.67371562250946],[85.35070306483847,27.673698257088617],[85.350762086075,27.673724666425137],[85.3507816619642,27.673756611587464],[85.35076711290698,27.67384585526681],[85.35078408334132,27.67386784815969],[85.35081419468492,27.673874534762824],[85.35088526866657,27.673847453738134],[85.35087792881231,27.67375389873788],[85.35091594340051,27.673680718121044],[85.3510823680023,27.67364553785293],[85.35114019704345,27.673667659724735],[85.35117835352142,27.67362524750341],[85.35121683040424,27.673617113865898],[85.35120859045699,27.67371325051572],[85.35123144780852,27.67373596147837],[85.3512638634209,27.673736099803268],[85.3512818516959,27.673806744299668],[85.3512582900822,27.67383490604655],[85.35128788511169,27.673942135913492],[85.35125650460427,27.67404591395205],[85.35093789951141,27.674113907955405],[85.35063897322655,27.674198034632813],[85.35066539177673,27.674039541447918],[85.35062904167629,27.673990350836682],[85.35059170609046,27.673986031965995],[85.35039177415321,27.674062483101494],[85.35035586480669,27.67403122030416],[85.35030687596847,27.673953638980453],[85.35025819890119,27.673821018452962],[85.3503183215943,27.673757239810776]],[[85.35045850279994,27.674272443272177],[85.35043009792223,27.674289355431945],[85.35038835396098,27.674175624831296],[85.35041113586014,27.67416739782078],[85.35045850279994,27.674272443272177]],[[85.35167115005693,27.675127451548473],[85.35133786870446,27.67521110034869],[85.35123660358418,27.6752713068131],[85.3509585253337,27.675101873511778],[85.35087770281743,27.674935259624135],[85.35108211729495,27.6748409438162],[85.35109398084295,27.6747963761655],[85.3510707223122,27.6747780840295],[85.35069474074677,27.67467037990659],[85.35057751017236,27.67449942626278],[85.35057984927664,27.674460868825523],[85.35054711611718,27.674442461296263],[85.35054046153698,27.67433783311647],[85.3506095943541,27.674292253860713],[85.35068460838949,27.674301988348713],[85.35077206036436,27.67426863736923],[85.35104535237873,27.67420395198104],[85.35111985373351,27.674194724178317],[85.3512682071926,27.674220445703206],[85.35135938939983,27.674529916733416],[85.35123738434987,27.674586030422585],[85.35122700423717,27.674633729857923],[85.35124030855378,27.67465883189363],[85.35128095887215,27.674666115241234],[85.35142776842387,27.674605458775577],[85.35153214515157,27.67460982644495],[85.35162554962531,27.67455399432857],[85.3517260602165,27.67457235084041],[85.35178513810428,27.67488387947615],[85.35167115005693,27.675127451548473]],[[85.35190378693255,27.6748662493218],[85.3518489131727,27.674670067657797],[85.35189942468735,27.674649824998575],[85.35190851796258,27.67461532891662],[85.35184066559547,27.67450054211162],[85.35177461429498,27.674462133577023],[85.35176826776457,27.674341050230836],[85.3517032841197,27.674299278845353],[85.3516720354056,27.67422261799586],[85.35170463428068,27.674196969242633],[85.35171061104057,27.674169470614665],[85.35164928144519,27.67412184420382],[85.35162717938476,27.673997846887133],[85.35185308087539,27.673941880687394],[85.35193526766258,27.673945381454168],[85.3520365967636,27.673914531312],[85.3521086503409,27.673861614864727],[85.35243854461378,27.673824606765752],[85.35252663860065,27.674290225118856],[85.3524897384865,27.67431665315537],[85.35248423044423,27.67434384358296],[85.3525434639632,27.674401250564788],[85.35253179050582,27.674500307159114],[85.35258690839183,27.674577190195123],[85.35257951312384,27.674692076154994],[85.3526506557267,27.67480242454046],[85.35272712841412,27.674875510174903],[85.35274407400023,27.674930595741607],[85.35272897470564,27.674992567037233],[85.35215216131151,27.675042730323902],[85.35190378693255,27.6748662493218]],[[85.35156527829142,27.67411674160556],[85.35155459194748,27.674142559301178],[85.3515673547783,27.674221493152263],[85.35163095883355,27.674370502053286],[85.35157679492615,27.674474537045878],[85.35151411107076,27.67450375372719],[85.35144930177243,27.674461462085947],[85.35147386340451,27.674409729123756],[85.35140219095565,27.674343072919104],[85.35136067666508,27.6741862530489],[85.351433884535,27.67404134488668],[85.35138890827889,27.673863407668264],[85.35149687417903,27.673817330568944],[85.35152916099271,27.674009352344246],[85.3515517234559,27.674035179674515],[85.35156527829142,27.67411674160556]],[[85.35159925779715,27.673852419706943],[85.35163529936234,27.673788154264862],[85.35164203390043,27.673737723547212],[85.3516259790392,27.67359104170508],[85.35170617915071,27.673539527428385],[85.35181072174446,27.673535333202118],[85.3519247026743,27.67357571772738],[85.3519515499981,27.673638372750712],[85.35196340941184,27.67382863815213],[85.35161351847651,27.673926289773245],[85.35159925779715,27.673852419706943]],[[85.35273211105986,27.673771131134334],[85.35278636523226,27.67378657681194],[85.35290110132512,27.67374220776416],[85.35302227376603,27.67371657516551],[85.35311879680367,27.673661305575454],[85.35324882895101,27.67361688655902],[85.35333628319594,27.67376724107026],[85.35338117476903,27.673801354174415],[85.35341624795933,27.67380076265181],[85.35343688803506,27.673758237895967],[85.35331645693154,27.673530584732713],[85.35335065311038,27.673475471778538],[85.35339353167085,27.673473443797256],[85.35348857743298,27.673593748235547],[85.35357737608211,27.67365770251124],[85.35365754672856,27.674057416206708],[85.35358168541943,27.674175858561735],[85.35347624735503,27.674215767895557],[85.3533192730856,27.67421676005936],[85.35326947893508,27.674167091765973],[85.35327908483687,27.67406861563282],[85.35326402094007,27.674025754168994],[85.35324185622267,27.674007337897198],[85.3532115418947,27.674007754172504],[85.35300544408807,27.674157522448663],[85.35300604962082,27.674196420560733],[85.3530440405822,27.674236395202897],[85.35307733156893,27.674240577143536],[85.35311246379325,27.674216961753263],[85.35316286245309,27.674247784381457],[85.35287108443036,27.674318387079374],[85.35283269937821,27.674363387668965],[85.35278827185843,27.674369292791237],[85.35276939793914,27.67431605971494],[85.35273981892627,27.674310973975402],[85.35269759469563,27.674326655140064],[85.3526047959889,27.674268656152712],[85.3525187057053,27.67381363005364],[85.35273211105986,27.673771131134334]],[[85.3528542528049,27.674896261627335],[85.35289063754371,27.67481307568252],[85.35288286928215,27.674757803201622],[85.35285665455741,27.674741562910675],[85.35278571405931,27.67473915399313],[85.35271488412621,27.674700386365952],[85.35269078926403,27.67466053044148],[85.35271109027235,27.674569033578074],[85.35265985526907,27.674485585517626],[85.35269877673703,27.67443190743683],[85.35273673355532,27.674457554676096],[85.3528679618597,27.67444488013193],[85.35328488741409,27.674505825541363],[85.35325323865992,27.67458691207259],[85.3531941459604,27.67486278487426],[85.35319439027037,27.67496545857604],[85.35300182751358,27.674974625785712],[85.3528542528049,27.674896261627335]],[[85.35329377772425,27.674887518319302],[85.35333096728058,27.674821711554806],[85.35330920913898,27.67478964943416],[85.35339989975927,27.67456171249747],[85.35355182165247,27.67458704624333],[85.35356951568878,27.674946880202143],[85.35328216397883,27.6749611747022],[85.35329377772425,27.674887518319302]],[[85.35355849310491,27.674397512582498],[85.35354839480178,27.67451302095876],[85.35339780718844,27.67448790969511],[85.35343015737921,27.67439683638992],[85.35355849310491,27.674397512582498]],[[85.35363245480917,27.674481923012582],[85.35365203948862,27.67425790334803],[85.35371082107268,27.674269150839724],[85.3536979519898,27.674433770985363],[85.35363245480917,27.674481923012582]],[[85.35379452678708,27.67423706263796],[85.35376101704055,27.674104316077727],[85.35390070897179,27.674099644086755],[85.3539292167395,27.6741570515394],[85.3539891258035,27.674219705750197],[85.35378420100753,27.67437036256737],[85.35379452678708,27.67423706263796]],[[85.35408070724273,27.674161158441716],[85.35405848865459,27.67408788829264],[85.35419267030682,27.674068538184166],[85.35425045799433,27.67407056313017],[85.35432548597429,27.67416925397388],[85.35415855391929,27.674191014344892],[85.35408070724273,27.674161158441716]],[[85.35378687161607,27.673902799453703],[85.35374313004372,27.673903296056245],[85.35373440407724,27.67389013623196],[85.35380658158306,27.673889069838406],[85.35378687161607,27.673902799453703]],[[85.35262927448188,27.6734787950047],[85.35266098346251,27.67351486284131],[85.35290285573339,27.673519097782545],[85.35304169321682,27.67354744701395],[85.35304851696048,27.673560398710954],[85.35298133841712,27.67364180154501],[85.35295897328604,27.67364725445294],[85.3528495713207,27.673654872584585],[85.35272078956562,27.673683846417536],[85.35248830715035,27.673672795773225],[85.35244668147418,27.67347034399659],[85.35262927448188,27.6734787950047]],[[85.35240783684067,27.673682389369887],[85.35211557096675,27.67377517199667],[85.35202466450156,27.67353484061052],[85.35202274259363,27.67347917852075],[85.35208497224305,27.673473122445372],[85.3521394769213,27.673509016942784],[85.35221290055722,27.673468130207766],[85.35230336670557,27.6734968840157],[85.35236643712712,27.673481035863944],[85.35240783684067,27.673682389369887]],[[85.35194413840385,27.671903198207726],[85.35209244840722,27.671857968426746],[85.35214137131197,27.671997498552923],[85.35170622167462,27.672059884762195],[85.35166923689725,27.671967386663674],[85.35170426978564,27.671928238571674],[85.35194413840385,27.671903198207726]],[[85.35193528376595,27.67138319334984],[85.3518738929612,27.671376293823712],[85.35172813392653,27.671089642698565],[85.35173797625482,27.671072866695813],[85.3518365610258,27.671040658288405],[85.35192990643908,27.671034610588226],[85.35198094521216,27.671050267291424],[85.35196801655005,27.67128984743295],[85.35193528376595,27.67138319334984]],[[85.35171347802984,27.67125121993382],[85.35171846550769,27.67131673558452],[85.35175476255885,27.671383439519225],[85.35176706051293,27.671475175599547],[85.35170127162982,27.671543084510308],[85.35163536986198,27.67157254952896],[85.3515701696693,27.671489090457506],[85.35151118338898,27.671497748554916],[85.35148777021531,27.671527953673554],[85.35149990798564,27.671580591990363],[85.35163995955824,27.671710958843395],[85.35162116824448,27.67172824554262],[85.35152159626459,27.671722963923916],[85.35149383783053,27.671750657618084],[85.3515678381707,27.67188049439325],[85.35153587021868,27.671949209776766],[85.35155674814622,27.672045273131754],[85.35140863015852,27.672057620817963],[85.35137400908195,27.672072678842138],[85.35136154137552,27.67209759573132],[85.35139501935404,27.672136647099087],[85.35156266311695,27.672151273589055],[85.35155981168653,27.672347508424213],[85.35158100799693,27.672421434986717],[85.35157857809193,27.672565466829344],[85.35164403899687,27.67264466597068],[85.35159058258445,27.6727369361653],[85.35158095339371,27.6728019858323],[85.35161097846809,27.67292171732107],[85.35161054194256,27.673003909536742],[85.35157212991191,27.67312385647539],[85.35157727693067,27.67314897823268],[85.35162347106615,27.67317607228257],[85.35166294423394,27.673164925908424],[85.35172597287962,27.67297899311621],[85.35178377986368,27.672944704555427],[85.35181613135391,27.672953398133526],[85.35186140838886,27.673000295339843],[85.35181513199021,27.67318888539363],[85.35183156758245,27.67322434131704],[85.35180792500911,27.673292878817087],[85.35175783648295,27.67331831491507],[85.35172682164863,27.673383830904207],[85.3515938354953,27.67346529685569],[85.35152591278882,27.673306692298876],[85.35119824954447,27.672799911022796],[85.35119587364792,27.67275935212841],[85.35116126253301,27.67271804605158],[85.35119894982789,27.672637330235375],[85.35143140771626,27.67260649905729],[85.35146593940048,27.67257425822851],[85.35146877901748,27.672545307290072],[85.3514347800858,27.67252102185349],[85.35135896015953,27.67253924025465],[85.35120284094681,27.67251997599249],[85.35106245881192,27.672574741370717],[85.35101168619747,27.67241932574123],[85.35103778653045,27.672172893791917],[85.35113859056247,27.672160771528524],[85.35118358477318,27.67217221648733],[85.3512069428998,27.672153344446336],[85.3512150118237,27.672115652948595],[85.35117430016679,27.672078243543478],[85.35103204898644,27.672093423236692],[85.3509295386271,27.671672620804923],[85.3509507096726,27.671498427595658],[85.350980315279,27.671463182782013],[85.35110246363666,27.671454109465135],[85.35121140433336,27.67140791836079],[85.35127996061269,27.67135082806016],[85.35144590759018,27.671359062278256],[85.35146365664825,27.671317326377412],[85.35140598704885,27.671236495358254],[85.35153005889244,27.67116593379973],[85.35165262426392,27.671116009701255],[85.35171347802984,27.67125121993382]],[[85.35164381249673,27.672148137364406],[85.35178541826242,27.672144914551428],[85.35196751278917,27.672111695368685],[85.35215954300375,27.67216085998138],[85.3521742341815,27.672267636162676],[85.35200136645906,27.6722881908342],[85.35191948692264,27.67233870840926],[85.35180784202979,27.672382528171976],[85.35178857861257,27.6724078415216],[85.3516850808722,27.67246070623153],[85.35165263995624,27.672342812845766],[85.35166289355745,27.6722868545812],[85.35164208534577,27.67226165128056],[85.35164381249673,27.672148137364406]],[[85.3520631519516,27.672358779519],[85.35221093924028,27.672344723026036],[85.35222685797709,27.672433835209695],[85.35220699569415,27.672465995907356],[85.3522309688706,27.672560200187416],[85.35230666687053,27.672692260759895],[85.3520486324272,27.672967057215587],[85.35189306832606,27.67288616913395],[85.35183391837617,27.67283695122953],[85.35175397254427,27.672719870540906],[85.35181084592881,27.67264631435247],[85.35197997196582,27.672562322007867],[85.35198510357615,27.67239393473625],[85.3520631519516,27.672358779519]],[[85.3523126266887,27.672454295953404],[85.35226173240618,27.672133473576707],[85.35228444879371,27.67207093338086],[85.35235959617333,27.672101648332806],[85.35238056083065,27.672308112350386],[85.3523787267621,27.672417936469582],[85.3523126266887,27.672454295953404]],[[85.35185679923511,27.672534149980066],[85.35177830357783,27.672564462089042],[85.351720803958,27.672525696141864],[85.3518220043804,27.67247400486025],[85.35185679923511,27.672534149980066]],[[85.35075317144359,27.67241622083103],[85.35068926884324,27.672316383194254],[85.35043422724333,27.672263112001115],[85.35040959579013,27.67220353777916],[85.35036402453396,27.672187762246548],[85.35033905991496,27.67220252474004],[85.35033249166042,27.67222952787155],[85.35040500798608,27.67243179666662],[85.35023398602227,27.672468129195906],[85.35011942079137,27.672541714009885],[85.35008412197095,27.67255529982977],[85.35006721069064,27.672548192619946],[85.34994882640028,27.67229658758932],[85.34995037332337,27.672176540002816],[85.34989771819897,27.672064498570403],[85.3498532985651,27.6720499421766],[85.34980567696532,27.67193206613359],[85.3498289164328,27.67185498624273],[85.34975323446965,27.671798716132248],[85.34989031282902,27.671765762595257],[85.34993521979372,27.67173325280068],[85.35001255489931,27.671714967596504],[85.35005149877074,27.67175923931573],[85.35014999851319,27.6719944792434],[85.35018191330015,27.672031549411447],[85.35021627932336,27.67203579522077],[85.35025865585388,27.671998332103104],[85.3502639683995,27.671969112048647],[85.35016946914642,27.671740248593235],[85.35012697607921,27.671687913625295],[85.35020295862749,27.671669948100174],[85.35026989733734,27.67167679568617],[85.3503425197273,27.671868514268002],[85.3503671157527,27.67188536200583],[85.35040437748344,27.671884045151458],[85.3504338208881,27.671847716976135],[85.35038695174767,27.671697687203864],[85.35049156414762,27.671637215530605],[85.3506680216313,27.671604963137302],[85.35068976847639,27.671585491921373],[85.35069021615597,27.67155473842893],[85.35079670574095,27.67152955922092],[85.35083343489526,27.671665858107936],[85.35079902333028,27.67170519280572],[85.35081934028206,27.671792553059383],[85.35088086341845,27.671847873354032],[85.35089551538313,27.67190982289467],[85.35087167444951,27.6720784356754],[85.3509102716359,27.672156262572948],[85.35091088549088,27.672240483584456],[85.35094673852056,27.672263477789844],[85.35093163675683,27.67240606322849],[85.35075317144359,27.67241622083103]],[[85.3506552600927,27.671475731320093],[85.35052945462164,27.67147887860308],[85.35041355377734,27.671543272916047],[85.3503704043843,27.67138703359237],[85.35039817370838,27.671371644529934],[85.35040468121962,27.67134505329383],[85.35030798009188,27.670999851480303],[85.35028992259161,27.670863581250313],[85.35019718651347,27.670680399149493],[85.35024075872342,27.670625128476605],[85.35033277187463,27.670603353908415],[85.35042198750921,27.67064250390133],[85.35053603550972,27.670861649069565],[85.35055423278233,27.670982339480183],[85.35060241182413,27.671003342797828],[85.35065716114072,27.67115429199941],[85.3506894151467,27.67116410162878],[85.35071811162966,27.671149261753705],[85.3507334022549,27.671119275472233],[85.35072440815243,27.67108220211333],[85.35076337447052,27.67102963022564],[85.35080898921842,27.671113840272103],[85.35086440161541,27.671333314478368],[85.35086054096094,27.671416957940405],[85.3506552600927,27.671475731320093]],[[85.35013336676923,27.671555013999097],[85.34987201930186,27.671621055917697],[85.34984186132074,27.671665268392882],[85.34971857336878,27.6716775085352],[85.34973741552385,27.671588669968013],[85.34970443502709,27.671490346974384],[85.34980114408097,27.6713599847234],[85.34977527787612,27.67132714302477],[85.34969925256962,27.671325916791],[85.34970317185714,27.671267762233665],[85.34987190132155,27.671281107644134],[85.34991056921346,27.671413615612458],[85.3499746028015,27.67142664056272],[85.35000604252917,27.671414467771175],[85.35001508437708,27.67138208693515],[85.34991047146286,27.671031027435006],[85.35000059733318,27.67101968321363],[85.35002836168337,27.670930258976565],[85.35005507272498,27.670899660721194],[85.35018754491364,27.671027663234486],[85.35033572878146,27.671563854495464],[85.3502992512574,27.6715724793963],[85.35013336676923,27.671555013999097]],[[85.34958211917278,27.67135376925504],[85.34951877847698,27.671350008772684],[85.34947282047636,27.671237475458554],[85.34929072577827,27.671096508002464],[85.34920967662201,27.67099302670864],[85.34928189732443,27.67094707271079],[85.34932892027781,27.670967882587373],[85.34954971080148,27.671153657846023],[85.34962403278296,27.67123659851781],[85.34961715207055,27.671338693724508],[85.34958211917278,27.67135376925504]],[[85.3492609109613,27.6713523361922],[85.3491303407257,27.671240204200753],[85.34923112271625,27.67114607403016],[85.34936522847936,27.6712492162212],[85.3492609109613,27.6713523361922]],[[85.34908766148948,27.671172510195895],[85.34879255091762,27.670950954835668],[85.34874833923779,27.670944820555277],[85.34868174215018,27.67089295459119],[85.34874055677243,27.67082955775001],[85.34874412349743,27.670781385213527],[85.348584267958,27.67067829055674],[85.3485267831659,27.67066532072216],[85.34848028815897,27.670581394015276],[85.34855386599179,27.670529335080325],[85.3487402873416,27.670523296494128],[85.34903342945117,27.670719512290642],[85.34918314192664,27.670847691684003],[85.34910444814159,27.670897655589286],[85.3489277797973,27.67074654445086],[85.34889171463509,27.67074576060074],[85.34884932929677,27.67078014735015],[85.34885742567461,27.6708135428857],[85.34913994517844,27.67106078236291],[85.34915695755008,27.671102137564105],[85.34908766148948,27.671172510195895]],[[85.34860064097698,27.670989455485],[85.34858700857197,27.670966806978956],[85.34862197790895,27.670942332965257],[85.34865669781263,27.670969372930774],[85.34860064097698,27.670989455485]],[[85.34938431217236,27.670877778193944],[85.3491054960819,27.670642045770425],[85.34889676078996,27.670487759933515],[85.3489339873397,27.670455125742777],[85.3489938955065,27.67045050391328],[85.34901415210894,27.67042120885008],[85.34900261117976,27.670389488130173],[85.3489001411435,27.670318681349233],[85.3489137772328,27.67024872829794],[85.34894872483096,27.670209742662824],[85.34908328699568,27.67028559040739],[85.34918683274029,27.670229650709803],[85.34922472256915,27.67025586073735],[85.3492564392695,27.670253939897528],[85.34927660512896,27.670232939452884],[85.34927733455051,27.670196635719247],[85.34934932204064,27.670167530716046],[85.34938575383832,27.670190579781853],[85.34935104524216,27.670283658498306],[85.34931353376838,27.67031143976614],[85.3493189723431,27.670345127560346],[85.34937444096471,27.670363733780274],[85.34944891933908,27.67031764022855],[85.34965888318023,27.67052613687177],[85.34953442485579,27.670541829000857],[85.34944160812799,27.6704798300895],[85.34938701727944,27.670511903122733],[85.3493375888614,27.670511615074794],[85.34930417211027,27.67046601992718],[85.34922102183495,27.670406677825067],[85.34912902695014,27.670447101563244],[85.34909899536802,27.670512402484384],[85.34911234032425,27.670544295268304],[85.34924764071395,27.67055237831682],[85.3493675952952,27.670625553337526],[85.34948391159715,27.67063386159526],[85.34965576145721,27.67079754003936],[85.34975194611826,27.670911561769586],[85.34980236383275,27.670937170971822],[85.34979238848406,27.67098879553344],[85.349723295584,27.67102740978111],[85.34969162470533,27.671068642701137],[85.34960122722691,27.671064030529912],[85.34948678966146,27.671001376294996],[85.34939577654757,27.670924796930297],[85.34938431217236,27.670877778193944]],[[85.35135812181068,27.67117804580942],[85.35126013894077,27.67105441988738],[85.35120009713891,27.67093260153736],[85.35123368853371,27.67084232913406],[85.35118527028733,27.670746712935884],[85.35120847795574,27.670709307800756],[85.35113967499409,27.67049974057539],[85.35111466374293,27.67045083595859],[85.35107501959487,27.67043082015256],[85.35103943583249,27.670307833799445],[85.35097299792999,27.670267915371983],[85.35093355323977,27.670206200722994],[85.35093902088374,27.670147154075792],[85.35101831591125,27.67012204367308],[85.35110505570299,27.670120630704485],[85.35115642365116,27.670152992864534],[85.35124144718067,27.670176870765275],[85.35131753553699,27.670172728237453],[85.3513529563576,27.670222776788407],[85.35142411819743,27.670381302288877],[85.35134132559521,27.67036904648678],[85.35131217167836,27.67037796502948],[85.35129711025918,27.67040903369748],[85.35130765019123,27.670472091875812],[85.35136070128358,27.670649238661202],[85.35139311748694,27.67066019065204],[85.35148216084166,27.670642665913125],[85.35150201359518,27.670779591882297],[85.35146281661895,27.670806276767912],[85.35147530530841,27.670856509921148],[85.35151218095957,27.670865494653302],[85.35161769001125,27.670825193416515],[85.35179227800045,27.670797849499518],[85.35180801369397,27.670854633004097],[85.35179118533974,27.670879692253813],[85.35178490370104,27.67095927190716],[85.35167561246423,27.670965693996862],[85.35160221384032,27.671005700506793],[85.35150525534262,27.671024435304265],[85.35143750197965,27.67090474930121],[85.35141083456259,27.670891952305325],[85.35138102041756,27.67089961970906],[85.35136340701725,27.67097998585447],[85.35145560975062,27.671122602955993],[85.35135812181068,27.67117804580942]],[[85.3521932969084,27.670213658451043],[85.35218907447677,27.670280525870744],[85.3520515582136,27.670455828167793],[85.35199400949736,27.670575933255908],[85.35195535276385,27.670800631140718],[85.35189235568554,27.670816466908363],[85.35182819931477,27.67058256686236],[85.3518334420913,27.670494750553516],[85.35196139215334,27.670355240167588],[85.35196626401651,27.670324337020087],[85.35183745980355,27.67017298468711],[85.35179887809672,27.6700872917075],[85.3517134878209,27.670058142435803],[85.35163926648767,27.670096217560182],[85.35161406776186,27.670083665007486],[85.35160207641383,27.670021227696328],[85.35168140869449,27.670004200596143],[85.35175501009975,27.6700072516671],[85.35177680490146,27.669983407162345],[85.35177181741635,27.669955554656646],[85.35172508621707,27.66992193925407],[85.35154111548373,27.669949795321582],[85.3514953723891,27.669982054673117],[85.35147683449644,27.670058856044108],[85.35143247287957,27.67004560614393],[85.35133453439053,27.67007062187129],[85.35121568510905,27.67003846990833],[85.35117181971627,27.66985822800965],[85.35129178946559,27.669814428589703],[85.3513007615182,27.669771854533355],[85.35127671606132,27.66969910295077],[85.35160342245712,27.669423022805102],[85.35173915074265,27.66944758102295],[85.35186175951549,27.66952254193876],[85.3521049361669,27.66956573517823],[85.3521932969084,27.670213658451043]],[[85.35162187899468,27.67074503915478],[85.35157891145688,27.670676406039927],[85.35159268232402,27.67060720671789],[85.35165153543802,27.670580873525935],[85.35175020913832,27.67060396606797],[85.35177277769085,27.670710540310857],[85.35162187899468,27.67074503915478]],[[85.35187247207331,27.670338266040208],[85.35174296786211,27.67047600714581],[85.35170569652568,27.670486650591165],[85.35165778499666,27.67033850434862],[85.35162323907686,27.670331344221793],[85.35153800946304,27.670361826391066],[85.35150617212895,27.67033558565282],[85.35145035623789,27.67020871774462],[85.35147884626197,27.670166788985963],[85.3515755194689,27.670192731019156],[85.3516971850286,27.670168418106943],[85.35174942083722,27.670241931813887],[85.35187247207331,27.670338266040208]],[[85.35118593715289,27.669582393376654],[85.35116983169624,27.669615842887936],[85.35110506744927,27.669653370846458],[85.35106962974045,27.66958657407999],[85.35109142152761,27.669508711924152],[85.35107072221862,27.669418762779163],[85.35104234882328,27.6693975700045],[85.35104001617623,27.669287495398844],[85.3514630879724,27.669390289944047],[85.35118593715289,27.669582393376654]],[[85.35096162781431,27.669415766135927],[85.35093946131451,27.669457452683737],[85.35099775909666,27.66966720626056],[85.35096461671712,27.66967653032532],[85.35071229080053,27.669625804583102],[85.35047221925477,27.669699067593147],[85.35041485752085,27.66960591132056],[85.35032302630519,27.669354341006724],[85.35027574301529,27.66926697731795],[85.35010186850934,27.669223103817593],[85.35007727960485,27.66923995910858],[85.35005213300099,27.669302732051364],[85.34988767323968,27.669368984997327],[85.34987893521433,27.66929858641528],[85.34968384006365,27.669004212467588],[85.3497241214161,27.668987873123594],[85.34999938225977,27.66899633574596],[85.35014081378452,27.669019704060773],[85.35024340790093,27.66905981698935],[85.35045311832344,27.669095450609607],[85.35044358727036,27.669153086486755],[85.35045453191884,27.669208346763252],[85.3504241896877,27.66927646924599],[85.35044195251307,27.66930699854386],[85.35048869949051,27.669317059811558],[85.35052976472436,27.66930366852574],[85.35055022223024,27.66920101717131],[85.35059199446351,27.669155818577018],[85.35064081145988,27.669171576010832],[85.35068395887862,27.669277726223243],[85.35071699629108,27.66931203961801],[85.35095976268637,27.669327750071815],[85.35096162781431,27.669415766135927]],[[85.35033339863956,27.669624485405834],[85.35032416148529,27.669651363125112],[85.35034806779272,27.669755701570814],[85.35018805265133,27.669756394740368],[85.35008738784629,27.66964794924746],[85.35004916747668,27.66963818667428],[85.34996363499775,27.669568885384287],[85.34991706425349,27.669466761281235],[85.35013520747054,27.669371650061862],[85.35021338164323,27.66936482017025],[85.35023426566008,27.669386299687538],[85.35023973223947,27.669460741696312],[85.3502763248657,27.66948189862039],[85.35033339863956,27.669624485405834]],[[85.35091751272044,27.668522217178342],[85.3509116877879,27.668899667465066],[85.35085834477654,27.669160182698388],[85.35079221995797,27.669141752266043],[85.35073032695244,27.66903350645595],[85.3506987979843,27.66902945065064],[85.35060404272639,27.669061120560816],[85.35057579110241,27.669005194466543],[85.35061429159968,27.668751637746176],[85.35059129702726,27.668710455077566],[85.350587098647,27.668589149334913],[85.35091751272044,27.668522217178342]],[[85.34917036969928,27.669053053866218],[85.34932821548207,27.66903710372656],[85.34936531790493,27.669048022997337],[85.34939513775302,27.66902673371706],[85.34954609115,27.668995228183544],[85.34956413860367,27.669013751393162],[85.34957367406307,27.669085695555715],[85.34973869570103,27.669256230308157],[85.34977387380279,27.669421528590657],[85.34969810636936,27.669455765232478],[85.34951272404268,27.669156366896487],[85.34948795949953,27.66913975035511],[85.34945354473236,27.669145764704663],[85.3493519020569,27.669245397823914],[85.34930738661875,27.66926373058876],[85.34929836663267,27.66930393654865],[85.34934239725047,27.669344948990563],[85.34939452160549,27.669317392869168],[85.34950006052779,27.669330225001787],[85.3495640075966,27.669408106916414],[85.3496189420316,27.669542300188606],[85.34967595488571,27.669593028173608],[85.34971377520007,27.669599550160875],[85.34974187594862,27.66957008044788],[85.34980296895294,27.669551998954287],[85.34990132782686,27.669660442083067],[85.35009472860087,27.669774687556956],[85.35020979668415,27.669948890198473],[85.35018288258455,27.66997250228445],[85.35018567053504,27.670002883855354],[85.35038472702487,27.670314529253638],[85.35044829133338,27.670372361921004],[85.35030938533508,27.670515135632854],[85.35020156227422,27.67052322199408],[85.35014576976616,27.67044388863165],[85.35013950046681,27.67040017664194],[85.35008969011288,27.67036414683433],[85.34991041850142,27.670134423120487],[85.34979993994462,27.67001923134698],[85.349606176157,27.669954236514243],[85.34947724146201,27.669863473748638],[85.34946262443955,27.66979578308903],[85.34951441862957,27.669752061658173],[85.34953204172898,27.66970563247093],[85.349518773861,27.66967132315013],[85.34949008562666,27.669660826428874],[85.34945451162329,27.669671066536992],[85.349366446473,27.66973095368424],[85.34933179652786,27.669647617014643],[85.34940234855237,27.66956242551339],[85.34939435727034,27.669517590858867],[85.34935051212025,27.66949787326127],[85.3492433304956,27.669535664996708],[85.3490783389705,27.66932265096698],[85.3491452069687,27.669235166009607],[85.34914499869022,27.66920441005755],[85.34901040170969,27.669111748124323],[85.34917036969928,27.669053053866218]],[[85.35061533900496,27.670364446114117],[85.35069686545728,27.670301881910905],[85.35073879452072,27.670204081495474],[85.35082469051385,27.670146401991335],[85.35084093730993,27.67023335361414],[85.35091599234379,27.670353144122828],[85.3509408381461,27.6703694427026],[85.35101193357187,27.670507036646235],[85.35103201912605,27.670591451004103],[85.35106443005259,27.67064862358981],[85.35109589369738,27.67080486009036],[85.35103133986814,27.670801467398334],[85.35100172931007,27.67082299240902],[85.35100279761882,27.67085294415138],[85.35105322515925,27.67091725938365],[85.35097360484075,27.67109548486701],[85.35094000064608,27.671110560932465],[85.35080671516019,27.670841122079878],[85.35076967780199,27.670821914338177],[85.3507435934938,27.67077088863329],[85.35076586612918,27.670748471799712],[85.3507634368682,27.670720927511972],[85.35068750397019,27.67059856990544],[85.35064800656642,27.670583902596327],[85.35055004696295,27.67039227446638],[85.35061533900496,27.670364446114117]],[[85.35058374721686,27.669936628458775],[85.35055226522533,27.66991509432352],[85.35051757084332,27.669914155209458],[85.35048041524368,27.669946355450588],[85.35061847109965,27.67017872957912],[85.35055442130452,27.67026051385838],[85.35048274631565,27.670243538205376],[85.35034269217262,27.670020233616082],[85.35032132191091,27.669956564012864],[85.35037724563199,27.66984254904841],[85.35043241790606,27.669837425990956],[85.35056120416593,27.66975937600919],[85.35060325473661,27.66976380838694],[85.35064132613361,27.669726553727383],[85.35071662125016,27.669728092007645],[85.35094921577571,27.669775564656895],[85.35105289829045,27.669856160286866],[85.35109631342519,27.670025001029238],[85.35098821370975,27.67002515125609],[85.35086819058311,27.67004618451981],[85.35081092248046,27.67002767665691],[85.35078603212273,27.67004892603722],[85.35078775106162,27.670080775606543],[85.35070689505997,27.670135070741832],[85.35058374721686,27.669936628458775]],[[85.3506557584783,27.670773357324048],[85.35071498092694,27.670896313682945],[85.35065412113696,27.6709080497007],[85.35061932198631,27.67080980627795],[85.3506557584783,27.670773357324048]],[[85.35055996914309,27.67067945709332],[85.350481353664,27.670510164242273],[85.35045109662563,27.670489737031197],[85.3504881644147,27.67044551071055],[85.35059954982952,27.67066340249342],[85.35055996914309,27.67067945709332]],[[85.35012712219974,27.67055341986618],[85.3500442223253,27.67060523520174],[85.3500145607603,27.670644984607613],[85.34998959366847,27.670653244377654],[85.34994538935172,27.67060759418891],[85.34994713429673,27.67058358731813],[85.35007973615578,27.67048603989046],[85.35012712219974,27.67055341986618]],[[85.34976122804852,27.670406919636697],[85.3496418398371,27.670274728192517],[85.34981821236647,27.67016462269576],[85.34993060640674,27.670281038100384],[85.34976122804852,27.670406919636697]],[[85.34954137177375,27.670177856305248],[85.3494304503222,27.670092492920993],[85.3493822169542,27.67008521750923],[85.34930515228598,27.670023539193554],[85.34929157652356,27.66999524017269],[85.34918894323627,27.669929088587928],[85.34917949538753,27.669902436076644],[85.34921338775031,27.669866985737034],[85.34931418180157,27.669843565012346],[85.34940629535016,27.66992973106927],[85.34956278838969,27.670022911849284],[85.34969459782077,27.670059497749474],[85.34954137177375,27.670177856305248]],[[85.3492219653652,27.66971784342855],[85.34915728301618,27.669790341727477],[85.34907846703767,27.669777723678074],[85.3489465520865,27.669684726974964],[85.34882202626878,27.66951985967484],[85.34871352133062,27.669462940863838],[85.3486676118283,27.669401441928862],[85.34866298924577,27.669367764126235],[85.34871231383428,27.66927500444431],[85.34881733748126,27.669211695270185],[85.34892945257431,27.669291908146004],[85.34887018333522,27.66935039298843],[85.34887078087853,27.6693872827588],[85.34891200239618,27.66940399750196],[85.34900846069253,27.669370958723306],[85.34923825910515,27.669652312494463],[85.3492219653652,27.66971784342855]],[[85.34757899322739,27.669723448495375],[85.34756737818884,27.669680900529354],[85.34760412054916,27.669712256917826],[85.34757899322739,27.669723448495375]],[[85.3469857017192,27.669857147715902],[85.34692757724287,27.66988260204079],[85.34689325376402,27.66984903017357],[85.3469857017192,27.669857147715902]],[[85.34701712731633,27.66996965126206],[85.34731058495213,27.66975970343208],[85.34747158017728,27.669816490242876],[85.34740567147607,27.669879723162556],[85.34735553707192,27.66995929492522],[85.34728721318395,27.669984500928706],[85.34724091941762,27.670028193586226],[85.34723707994075,27.670059087610046],[85.3471609389784,27.67010769968993],[85.34701712731633,27.66996965126206]],[[85.34734775226862,27.67007805789642],[85.34763074971576,27.669820193291972],[85.34775433094852,27.66985445324732],[85.34763116822792,27.670021630753165],[85.3474076195966,27.670230786982156],[85.34726370428986,27.67019251897584],[85.34722049019882,27.670158522208727],[85.34734775226862,27.67007805789642]],[[85.34728319679321,27.67032412912421],[85.3473777043393,27.670353619948358],[85.34738565747249,27.6704397962852],[85.34749344131083,27.670501864036282],[85.34760610169774,27.670548238404784],[85.34776556689641,27.670582816442334],[85.34778504334876,27.67060560602597],[85.34785640872536,27.670630233308973],[85.34779283881383,27.670733003393018],[85.34790941517713,27.670878568762813],[85.34776621567298,27.670978164671457],[85.3477035911034,27.670923172795415],[85.34768629043468,27.67082152003204],[85.34765737423585,27.67079314623827],[85.34746469845601,27.670811215157393],[85.34705286425628,27.6705068884144],[85.34728319679321,27.67032412912421]],[[85.34766357149356,27.670485939262097],[85.34764455030155,27.670463489922188],[85.34746784889664,27.670388024149545],[85.3474883593141,27.670326158635785],[85.34780919353521,27.670013857970456],[85.3478492977245,27.67000620218647],[85.34792597875327,27.669954368727858],[85.3482744106376,27.670174961909737],[85.34822849666305,27.67023849467709],[85.3481760334247,27.670222973994523],[85.34814640088979,27.670231179860647],[85.34813531816607,27.670273638581897],[85.34826199461037,27.670341648784593],[85.34832648604969,27.67040456547738],[85.34844627707298,27.670486639255632],[85.34820446667659,27.67068338368135],[85.3481109756476,27.670669062809985],[85.34802743009247,27.670616082412444],[85.34800675876608,27.67057664749752],[85.34787050652275,27.670514175678676],[85.34779438511545,27.67051474753946],[85.34766357149356,27.670485939262097]],[[85.34814842069365,27.670000825104403],[85.34814354703137,27.669970533058414],[85.34801316890822,27.66980313464629],[85.34804225742143,27.66975847637269],[85.34815090198643,27.669697646047418],[85.34824555890481,27.669705485341677],[85.3484735691948,27.66988932935057],[85.34853749570824,27.669911171496572],[85.34858995572326,27.66989456872572],[85.34860684190367,27.669871388122807],[85.34859991986072,27.66984379350141],[85.3485589964004,27.66981398519157],[85.34876444478913,27.66961814211347],[85.34881901224672,27.669696046058373],[85.34906159475267,27.669915348069726],[85.34906011456425,27.669944487815577],[85.3490207356912,27.669952490069416],[85.34888125862977,27.669835844767466],[85.34884824749749,27.669833944035858],[85.34882170462343,27.66985671652584],[85.34883636516807,27.66992629079065],[85.34888912427162,27.66994929703538],[85.3489408788138,27.67001903439447],[85.34899555797364,27.67004839079242],[85.34894596782517,27.67009985374917],[85.3487718377122,27.669932476392304],[85.34873837484704,27.669927724497736],[85.34868557398708,27.669955982998903],[85.3486865330212,27.669998982931986],[85.34883699620386,27.670115470482198],[85.34882961130099,27.670206380635985],[85.34879630613051,27.670256115054435],[85.3486259369009,27.670149637221435],[85.34860851367553,27.670121926108155],[85.3485617104199,27.67010949667182],[85.34846849407887,27.67005123780863],[85.34845060306786,27.670022959644612],[85.34832604751384,27.669956651254395],[85.34827661334238,27.669969330188128],[85.34827511548905,27.670008110172382],[85.34824277189789,27.67006117693236],[85.34814842069365,27.670000825104403]],[[85.34905995634266,27.670103872676865],[85.3490475774206,27.670105288110534],[85.34905502309692,27.670097561234734],[85.34905995634266,27.670103872676865]],[[85.34875206742491,27.670316677733023],[85.34869315729532,27.670382466991672],[85.3485212964942,27.670248454316162],[85.34857688807203,27.670207193621476],[85.34875206742491,27.670316677733023]],[[85.34848270773828,27.67014833233929],[85.34843293923676,27.670169487986644],[85.34840125296205,27.670135195424574],[85.34842420961277,27.670111771834215],[85.34848270773828,27.67014833233929]],[[85.34798261603933,27.67069231136326],[85.34806834965069,27.67078225604975],[85.34797212423564,27.670832490246884],[85.34790305945178,27.67074585006106],[85.34798261603933,27.67069231136326]],[[85.34730892792639,27.670789934881014],[85.34749179381778,27.670923084982277],[85.3474744396314,27.670961215440506],[85.34728829028515,27.67082127374787],[85.34730892792639,27.670789934881014]],[[85.34744165466287,27.671034069797418],[85.34755183647123,27.671138418612994],[85.34746078210232,27.67119723328694],[85.34739783417767,27.67126265995142],[85.34736653826161,27.6712572387537],[85.34725663289252,27.671113194513087],[85.3472406189819,27.671037725221105],[85.34719594681809,27.670978490748723],[85.34712889982613,27.670932957280552],[85.34722326908438,27.670866886657166],[85.34744165466287,27.671034069797418]],[[85.34757417467196,27.670972735290274],[85.34762389875638,27.670991701959945],[85.34765497057502,27.671032238122486],[85.34764925085354,27.671074562071528],[85.34761214664991,27.67109005662478],[85.34755173744539,27.671024981981112],[85.34757417467196,27.670972735290274]],[[85.34728511991642,27.67128783654125],[85.34731927764885,27.67138810603465],[85.34723188773054,27.671559483742865],[85.34723106663661,27.671605034388172],[85.34718641770966,27.671684139285862],[85.34718484123927,27.671751002903576],[85.34714658552438,27.67179316626147],[85.34708120210341,27.67176690885344],[85.34701057181204,27.671792061928684],[85.34684898855687,27.671613942811963],[85.3468547444015,27.671521669821253],[85.34681027535217,27.6714180937464],[85.34675228393922,27.671351005203903],[85.34676449293534,27.671302244280803],[85.34672248459509,27.671202686075723],[85.34667960210669,27.67118277380066],[85.34665517543085,27.671124663972698],[85.34666688229716,27.67108056266024],[85.34657353492393,27.670956102881902],[85.34657700677171,27.67087758678138],[85.34675121130589,27.67071974353149],[85.34690870582294,27.670615427810073],[85.34703817975458,27.67060604470765],[85.34718207644723,27.670720323181712],[85.34716733232487,27.670769604899878],[85.3469830868508,27.670777743874257],[85.34695376590433,27.670794218556438],[85.34695268603171,27.67083899793527],[85.34698192806191,27.67088257941546],[85.34695402590823,27.6710209758236],[85.34698497956155,27.67104594450295],[85.34702956524544,27.67102901508851],[85.34710742297982,27.671046122181288],[85.34712997936612,27.671075685175765],[85.3470865764992,27.67112294564675],[85.34708998765156,27.67115776083525],[85.34712591362205,27.67117364983637],[85.3471901166486,27.67115450259116],[85.34728511991642,27.67128783654125]],[[85.34653629577973,27.670660092499794],[85.3465870102041,27.67061292557445],[85.34660506709677,27.670724767547885],[85.34653629577973,27.670660092499794]],[[85.34646379489469,27.67101352277831],[85.346558869771,27.671119651499907],[85.34659663790552,27.671240975981497],[85.34664601137366,27.67132339176053],[85.34685663053905,27.671850420011477],[85.34683726169182,27.671878597399985],[85.34671698981813,27.67193959357545],[85.3464580859962,27.671312845328224],[85.34639562415184,27.671227143664673],[85.34633913375923,27.671233135542664],[85.3463220330425,27.671288166669562],[85.34640773279695,27.67149589288445],[85.34625989225918,27.67148359781593],[85.3460746389175,27.67162993272474],[85.34607935892376,27.671660514018317],[85.34616827456124,27.671750041569993],[85.34619164756187,27.671793292101132],[85.34616587246867,27.671831041024426],[85.34592400762911,27.67162754902356],[85.34597386600898,27.67150491230697],[85.3460724787082,27.67138211648609],[85.3461378757792,27.67115202545275],[85.34640771561115,27.67099239124996],[85.34646379489469,27.67101352277831]],[[85.34593153103748,27.67140837886776],[85.34577077085034,27.671557421779866],[85.34569359515154,27.671512341557815],[85.34575696111702,27.671466800103534],[85.34576723367776,27.671434007118915],[85.34586278248615,27.67134883922069],[85.34593153103748,27.67140837886776]],[[85.34573682023125,27.6716819324485],[85.3459069776026,27.671758313122993],[85.346187258735,27.672038139224593],[85.34610062148957,27.67210264990413],[85.34604973083418,27.672020015438108],[85.34602338785561,27.672005410317087],[85.34588621205242,27.67207055813313],[85.34587407185566,27.672105310423166],[85.34593475821072,27.67224597365502],[85.3458740025572,27.6722781654418],[85.3458237231963,27.67227907380887],[85.34561291746049,27.672484780778333],[85.34553503943329,27.672410907415436],[85.3455464003005,27.672360581369027],[85.34553540589268,27.67233650741599],[85.34543276880973,27.672312316931535],[85.34555630590069,27.672161412376582],[85.34559400747439,27.672093664391202],[85.34559791593401,27.6720594899688],[85.34557379721493,27.67203554968022],[85.34555330343933,27.67196499908628],[85.34558128816843,27.671904229886543],[85.3456804620382,27.671797959069206],[85.3456797493932,27.67176144061719],[85.34573682023125,27.6716819324485]],[[85.3462385966894,27.671923029119508],[85.3463615340089,27.67185346594722],[85.34637278563042,27.67182368024394],[85.34627582365842,27.67174375961631],[85.34651060228677,27.67167526364469],[85.34652397887373,27.671783273184708],[85.34658371027956,27.67191926986178],[85.34654148005293,27.671970162045113],[85.34629126353202,27.672000952464682],[85.3462385966894,27.671923029119508]],[[85.3456815985134,27.67162475475622],[85.34554788373951,27.671811105724807],[85.34545950782514,27.671644562065858],[85.3455159431787,27.67159029855217],[85.34558887199486,27.671574512713182],[85.3456815985134,27.67162475475622]],[[85.34522422497776,27.671749078024217],[85.3452345210503,27.67183670197129],[85.34509648407519,27.67200733275753],[85.34505358463097,27.672021130814645],[85.34492770543277,27.671944005702578],[85.34493489386134,27.671891149552167],[85.34522422497776,27.671749078024217]],[[85.34499918818307,27.672075445122093],[85.34490418881892,27.672182170650622],[85.34490792730227,27.67222337150853],[85.34499784561002,27.672287103587507],[85.34504515273095,27.67228383054995],[85.3451651441513,27.67236231984424],[85.34496158177434,27.67259583115277],[85.34492159767181,27.67261384627556],[85.34491558885584,27.672648590550978],[85.34485379202458,27.67271947882556],[85.3447699161969,27.672656949558892],[85.34473215158471,27.67265622085019],[85.34467542973326,27.672604392570506],[85.34470338604645,27.672547112306678],[85.34476834510582,27.67250236410076],[85.34485936626085,27.672401876952396],[85.34486135336853,27.672371613013542],[85.34482808475789,27.672332333231232],[85.34480195765136,27.672323192339558],[85.34477362718421,27.672332740307223],[85.34459131953176,27.67252874670332],[85.34455465762038,27.67249668730331],[85.3445459594374,27.672455795868682],[85.34447991980687,27.672399193944525],[85.3443854338486,27.67234870741008],[85.3444207510476,27.672301044211714],[85.3447293724936,27.67206510310894],[85.34478953372607,27.671995834525994],[85.3448594492763,27.671989828229055],[85.34499918818307,27.672075445122093]],[[85.34507880168582,27.672141335297585],[85.34524419320486,27.672269872543996],[85.34521559030831,27.67230572771129],[85.34507902111015,27.672216394508983],[85.34507880168582,27.672141335297585]],[[85.34522402159122,27.67215325249232],[85.34526665335939,27.672070948854845],[85.34532939960066,27.672122495643393],[85.34528759612603,27.67220700247187],[85.34522402159122,27.67215325249232]],[[85.3453570531201,27.67204697516788],[85.34528121700045,27.67197754944733],[85.3452969078993,27.671908445037896],[85.34543217571051,27.6719635391353],[85.3453570531201,27.67204697516788]],[[85.34528346471589,27.672400521459796],[85.34522412127805,27.67241242073321],[85.34523997095309,27.672394239123633],[85.34528346471589,27.672400521459796]],[[85.34498601788296,27.672686778230684],[85.34509681647097,27.67260254528933],[85.34521815360473,27.672844770874107],[85.34511982144203,27.6729446832229],[85.34502950950964,27.672853902785803],[85.34490696491879,27.6727762380233],[85.34498601788296,27.672686778230684]],[[85.34462426573769,27.672661098370895],[85.34476498777278,27.67278681196328],[85.34470972106658,27.672998983393523],[85.34473773729547,27.67304220689635],[85.34477815612503,27.673069039331335],[85.34471405666726,27.673141687609547],[85.34460349156734,27.673102300966782],[85.34448354268604,27.673178782784326],[85.34439722807927,27.673177942148616],[85.34431364901032,27.673133267749574],[85.34430389641611,27.67310755652483],[85.34441310729571,27.67292423385986],[85.34448582326847,27.672989455524228],[85.34459522309102,27.673029535849093],[85.34463846973594,27.67301826706335],[85.34464727648205,27.672981791670537],[85.34444541419337,27.672817922952866],[85.34438167801343,27.672799750213343],[85.34420295048783,27.672652053559666],[85.34420779658689,27.672615740708405],[85.34415964533954,27.672566893527854],[85.34425202273903,27.67250914491296],[85.34441473107837,27.67248965314583],[85.34458587528759,27.672652167442845],[85.34462426573769,27.672661098370895]],[[85.34413759448374,27.67269655117438],[85.34429457458326,27.672834446122838],[85.34410739465451,27.672965750219156],[85.34406386512443,27.672929833475695],[85.34405528313825,27.67289403395331],[85.34395092059532,27.672760639100776],[85.34400930245211,27.672706447133635],[85.34413759448374,27.67269655117438]],[[85.34345118297622,27.67313045160544],[85.34348971933969,27.673125857881264],[85.3438087464387,27.672891536920915],[85.34389909162338,27.67290637437923],[85.34418827130868,27.673131155181817],[85.34416076693805,27.67321166602348],[85.34402675032565,27.673298285825222],[85.34400988030137,27.673324291276234],[85.34411106325621,27.673528570871923],[85.34405511143467,27.67362803469876],[85.34379677441024,27.673747073195763],[85.34374337222468,27.67374489396058],[85.34369551001959,27.673788185368448],[85.34337884567516,27.673916746742844],[85.34340763434056,27.673814377611446],[85.34340074421381,27.673788197613092],[85.34329024032152,27.673657510432463],[85.34303834508324,27.67348205631125],[85.34308720440913,27.67339210447677],[85.34345118297622,27.67313045160544]],[[85.34369842156768,27.673869644425206],[85.34373952751251,27.673877922802685],[85.34394870159885,27.67379928865124],[85.3439993772958,27.673859573025656],[85.34405368679529,27.674006148685606],[85.34407713652834,27.67402196407204],[85.34411034697243,27.67402134106644],[85.34413647330386,27.67398311478085],[85.34408887143347,27.67383749008878],[85.34412848903807,27.673706595289882],[85.34421500186384,27.67365366514617],[85.34432697454642,27.67376117228033],[85.34436419956747,27.673767184984413],[85.34439242061049,27.67373549463258],[85.34437406797522,27.673639008399505],[85.34441304400804,27.673629697146865],[85.34447817286886,27.67372276318991],[85.34450161069675,27.6738316951946],[85.34446185054769,27.67384489710694],[85.34444716487144,27.673872860136],[85.34445916772356,27.67389833896834],[85.34449294164271,27.67391486842387],[85.34453401883916,27.673993863577987],[85.3445107234087,27.67409133001138],[85.34438491474731,27.67415770480979],[85.34422999170823,27.674216473253527],[85.3441631778588,27.67422223298538],[85.34409686725449,27.674256837812862],[85.34395844707954,27.67429351956464],[85.3439344816015,27.674284307747904],[85.34386047701612,27.674092201213725],[85.34377194636338,27.6740326752582],[85.34359507338812,27.67408381429196],[85.34349344114187,27.674137020246228],[85.34341751558702,27.6741197490303],[85.3434157885382,27.67398109901793],[85.34369842156768,27.673869644425206]],[[85.34457944200048,27.67380967285098],[85.34450957170887,27.67359015363857],[85.34474600360896,27.67356552268255],[85.3448646017683,27.67371902409816],[85.34477191761592,27.673791351239153],[85.34457944200048,27.67380967285098]],[[85.34411119733076,27.6743458634149],[85.34416071810608,27.67446445883974],[85.34409404763613,27.674507611333286],[85.3440426245322,27.674491858802426],[85.34398925548939,27.674379953435427],[85.34411119733076,27.6743458634149]]]}}]}