{"type":"FeatureCollection","features":[{"type":"Feature","properties":{"derived":true},"geometry":{"type":"Polygon","coordinates":[[[85.34783979786727,27.699403939384272],[85.3479475872524,27.69950356149954],[85.34804777360189,27.699668722629593],[85.34840148214913,27.700029896143526],[85.3492144767394,27.70100596506204],[85.34964001005919,27.70148030586587],[85.34977874095398,27.701729730795567],[85.34980226709408,27.701950664592164],[85.34983093634813,27.701972530557665],[85.34987761681403,27.70196577998937],[85.35008902423132,27.70247340393924],[85.3502157725615,27.7026684227273],[85.35017174817126,27.703556048677527],[85.35001151369234,27.704088111035933],[85.34987756598157,27.70498067931568],[85.34982770832976,27.705118724177645],[85.34959356527881,27.70556227258233],[85.34956320739175,27.70583577843492],[85.34959354669155,27.70601975788827],[85.34967751539165,27.706094842020963],[85.3503260384922,27.706184968035853],[85.350717158096,27.706176121299933],[85.3510111265385,27.706084416750127],[85.35124323285956,27.705983045877662],[85.35148821858684,27.705793619924467],[85.35169976241325,27.705549424746227],[85.35179644420539,27.705381329471262],[85.35187514095342,27.70515714384301],[85.35192316479898,27.70495145927694],[85.35202236939188,27.703279359952344],[85.35222108181927,27.703074665313142],[85.35237195354588,27.702694078126076],[85.35251448375571,27.70246918146734],[85.35343210160781,27.701263668326774],[85.35383383267114,27.701314734398252],[85.35387345105737,27.701296791048463],[85.35386433277596,27.70125120203923],[85.35357621033381,27.701075681529474],[85.35327507762912,27.7009873055207],[85.35362578327766,27.700546963548053],[85.35373543402565,27.700463868261394],[85.35382210689554,27.7004261706263],[85.35442595422732,27.699641717129936],[85.35465617588295,27.699389970491136],[85.35494193498562,27.698890524537244],[85.35506693146411,27.698585107196628],[85.35519616207058,27.698027722552446],[85.35522154244954,27.69776054916215],[85.35517364512279,27.697041137150254],[85.35509423146955,27.69653225984774],[85.35509614138192,27.696252590476345],[85.35503317225363,27.695601740697363],[85.35494804920785,27.69537237894342],[85.35484646256835,27.695341109576237],[85.3546687348667,27.69533092675759],[85.35439435783583,27.695356483587236],[85.35414311263614,27.695406680242996],[85.35365129557435,27.695551882578314],[85.35320075452401,27.69563090736235],[85.35301287897316,27.69568339906431],[85.35230253169846,27.696021701921325],[85.35195460792234,27.696227765838433],[85.35183222614396,27.696319040662683],[85.34885066116912,27.6982143266201],[85.3482616878695,27.698550301662973],[85.3481620826886,27.698551557165267],[85.34813719281135,27.698510590716257],[85.34809600855365,27.698505513008467],[85.34807200112915,27.69853191174065],[85.34807700451337,27.698589962940627],[85.34789002309529,27.69867854135509],[85.3473399507523,27.698853327456145],[85.34716316223712,27.699035287425083],[85.34716390610787,27.69907829053888],[85.34735224815789,27.699206217227673],[85.34783979786727,27.699403939384272]],[[85.34840604937152,27.698995969355998],[85.34809103932992,27.69903396362799],[85.34808526235003,27.699076663366693],[85.34826921062809,27.699173899063634],[85.34828937642982,27.69928857889155],[85.34831470322658,27.699312043049144],[85.34836215084678,27.699300875459272],[85.3484090897423,27.699230752472626],[85.34843243156327,27.699179220383446],[85.34842276398248,27.699099449027088],[85.3484516107629,27.69908251884033],[85.3485309397798,27.699147711310776],[85.34852545005639,27.699268483210645],[85.34834209279731,27.69961988527716],[85.34826656958123,27.699677277813493],[85.34814061559621,27.699577079349115],[85.34812236447348,27.69945044462698],[85.3481699302738,27.69937442726039],[85.34815524901008,27.699336504530816],[85.34809842481688,27.699338164158394],[85.34805537039159,27.699392399229133],[85.34748692612561,27.69916777836802],[85.34816978286281,27.698751925783263],[85.34820233749174,27.69870396079506],[85.34832453792848,27.698625267893608],[85.34843470083878,27.698661940097402],[85.3484715814205,27.698710460254926],[85.34860526544324,27.698798823655043],[85.34861764283255,27.698896346423947],[85.34860728757191,27.698908325534315],[85.34848421410574,27.698936450808255],[85.34840604937152,27.698995969355998]],[[85.34848456641332,27.69953206303337],[85.34847542061868,27.69953677956315],[85.34848241553235,27.699523620657256],[85.34848456641332,27.69953206303337]],[[85.34848797603922,27.699970961090386],[85.34841468660422,27.699855213054988],[85.34844744122714,27.699790673660242],[85.34852155944628,27.69982120222392],[85.34858293851813,27.699820560437942],[85.34865751389474,27.699877168598647],[85.34867733157483,27.700057819932347],[85.34870207391461,27.700080353290147],[85.3487372731264,27.70007700900654],[85.34878830872363,27.700017172678933],[85.34875918496252,27.699865150235475],[85.34877880980352,27.699759435657207],[85.34881368464136,27.699736659835512],[85.34888156706546,27.699728055959465],[85.3490037615707,27.699737499856727],[85.34906279728456,27.699662799907465],[85.34916827617337,27.699697384645074],[85.34925367579338,27.69983685877992],[85.34913267483468,27.699837890218785],[85.34905995041609,27.699874987730702],[85.34905825514872,27.699917906356976],[85.34913208885715,27.69997139864953],[85.3490724758688,27.700041372768883],[85.34902230519789,27.70022615464263],[85.34895178954665,27.700253338811685],[85.3488124020164,27.700375142657556],[85.34848797603922,27.699970961090386]],[[85.34919240455727,27.700741678545814],[85.34926791955834,27.70085168918411],[85.34925231749936,27.700874602644245],[85.34911108898035,27.70071649184943],[85.34919240455727,27.700741678545814]],[[85.34958827740425,27.70117567855551],[85.34967888485801,27.701281858996087],[85.34965103022566,27.70131295977034],[85.34951117159954,27.701187336233208],[85.34958827740425,27.70117567855551]],[[85.34966243162324,27.701143211205654],[85.34976506841859,27.701037798338383],[85.34975595836077,27.70096385196412],[85.34981674731699,27.700891402292484],[85.34992805022016,27.700894503062425],[85.3499382141738,27.701320280862138],[85.34983168711094,27.701326741205378],[85.34966243162324,27.701143211205654]],[[85.35000813452007,27.700858956804428],[85.34999207558683,27.70080125818871],[85.34996728734187,27.700782263376556],[85.34986433062362,27.700779994328727],[85.34978284950009,27.700797288606438],[85.34964344557727,27.700854992491735],[85.34964586337117,27.70097673593303],[85.34957816785818,27.701051225157826],[85.3493808855642,27.70102319356076],[85.34936597880514,27.700835923278817],[85.34932071085831,27.70069792746368],[85.34949423928337,27.700601088767034],[85.34965032169342,27.700588742587975],[85.34970662005789,27.70056545510225],[85.34976684147423,27.700496644081134],[85.34997134700751,27.700551296846754],[85.35019702210627,27.70050190135682],[85.35021365809564,27.700639988674354],[85.35028115819377,27.700932373156622],[85.35025554925448,27.701100513355303],[85.35030798482771,27.701238943014904],[85.35018686796126,27.70133230114087],[85.35003535861095,27.70120418878152],[85.35001697112571,27.701157178465657],[85.35004368647718,27.701037214107142],[85.35001243385766,27.701003934437264],[85.35000813452007,27.700858956804428]],[[85.34927615747684,27.700632315130814],[85.34904910540443,27.700607454864475],[85.34900052478854,27.70055438347521],[85.34896858873766,27.70041920833453],[85.34903409375765,27.70032220768971],[85.34907768845194,27.700294621137978],[85.34933224616522,27.700295891301828],[85.34968710394136,27.700231061814673],[85.3497104496391,27.700208154195664],[85.34974523748997,27.70004291618783],[85.34976532724444,27.700035282263343],[85.3500201709234,27.70006713161033],[85.35015799053274,27.70015944982179],[85.35015945377118,27.70023390376857],[85.35005649964017,27.700439212517935],[85.34999467207616,27.700462078956953],[85.34990868316967,27.700428930508256],[85.34985172044146,27.70027142858869],[85.34980499774223,27.70025223536206],[85.34964028544523,27.700427233672315],[85.34951447928452,27.700473882111808],[85.34943202217931,27.700525057336034],[85.34942126269789,27.70055659869047],[85.34927615747684,27.700632315130814]],[[85.35037767854145,27.701292400867754],[85.35053951638032,27.70126284687835],[85.35059469996423,27.70126655792284],[85.350622899063,27.70124843836225],[85.35074724399023,27.70123059264901],[85.35074680585039,27.701461898314435],[85.35072045372655,27.701598949048815],[85.35058629465635,27.701547176795582],[85.35059152000588,27.701513451647312],[85.35057146371375,27.701488268287868],[85.3504913391558,27.701500953773355],[85.35025462958997,27.701375578422958],[85.35037767854145,27.701292400867754]],[[85.35089858339539,27.70113646470398],[85.3504180217792,27.701202480646675],[85.35039333868164,27.70108537735193],[85.35039013635985,27.700921121474778],[85.35031949530361,27.700633089117805],[85.35051653939968,27.700311927836218],[85.35075794064255,27.70036235926985],[85.35084052725917,27.700430907677784],[85.35080782692869,27.700488728997108],[85.35081077298345,27.70052138240391],[85.35083904790666,27.700539257352762],[85.3508721944259,27.700531380540337],[85.35099130643017,27.70037419842349],[85.35095411259191,27.70031925860327],[85.35084492957962,27.700282356670293],[85.35088281904235,27.700174382670795],[85.35104133245665,27.700136667176803],[85.35108988514565,27.70008127377527],[85.35113515112094,27.699974392343226],[85.35117892752515,27.699918875880734],[85.35128050664407,27.699937315545284],[85.35151776886805,27.70010263469959],[85.35152266076993,27.700167986398093],[85.35149138588065,27.700226366614107],[85.35130774107289,27.70016695868405],[85.35127348016702,27.700172959239538],[85.351196675206,27.700331956217493],[85.35112945428976,27.70042352378546],[85.35113927703325,27.70046434290161],[85.35124465053944,27.700519630056704],[85.35126826855382,27.700634640430973],[85.35120695851872,27.70076248000184],[85.35118851634488,27.700791940883242],[85.35112291927858,27.700837357848226],[85.35104640433855,27.70094467367499],[85.35091806283278,27.700948281857006],[85.35088870905382,27.700963926867427],[85.35089858339539,27.70113646470398]],[[85.350967216951,27.70102148543427],[85.35107114444384,27.70102921623352],[85.3510997801319,27.701301391009864],[85.3511371060069,27.701352880196687],[85.35117282913878,27.701354087195853],[85.35130220500297,27.701286478718117],[85.35131433020945,27.701121158346496],[85.35137628849161,27.701076696664007],[85.35141902630322,27.701079379782996],[85.35155673877566,27.70113652612612],[85.35155817138441,27.701382103906816],[85.35151871547619,27.701436733352907],[85.35153682402263,27.701467438731157],[85.35165911190775,27.701476519809948],[85.35169285474915,27.701454709369763],[85.35167698799663,27.701151680766085],[85.35195965325028,27.70126110111354],[85.35215224271872,27.701448333739222],[85.35220767503627,27.70152402488966],[85.35231388209193,27.701606871592944],[85.35239608652913,27.70170179277576],[85.352392993545,27.701847015468164],[85.35214738151195,27.702192644599183],[85.35199221985788,27.702179716314465],[85.35191735983591,27.70212847857897],[85.35190738267094,27.702056967774194],[85.35195182457844,27.70203987760526],[85.35202288421658,27.702044179998506],[85.35204826648229,27.70202602429577],[85.3520396618741,27.70196774127055],[85.35201747414435,27.701945957542215],[85.3518401135572,27.70197318064592],[85.35172143671342,27.702023115255077],[85.35157703670768,27.70198756261562],[85.35109704647567,27.70176628336431],[85.35106057675075,27.70151174117653],[85.35103925859238,27.701491658083988],[85.35097722555945,27.701478120656528],[85.35085748485874,27.701327431578196],[85.35084489642767,27.701218155701135],[85.3509753442382,27.701192760220838],[85.350967216951,27.70102148543427]],[[85.35115843889578,27.701024229307954],[85.35122203491669,27.70103624290278],[85.35122444106429,27.70109157516859],[85.35116628053215,27.701148259670543],[85.35115843889578,27.701024229307954]],[[85.35156359738305,27.700817217063513],[85.35163096966052,27.700715539019825],[85.35179866400314,27.700727634994735],[85.35187802832735,27.700688912059544],[85.35189211056895,27.700613928403094],[85.3518585024328,27.70052537084009],[85.35185660570214,27.70047082686107],[85.35200142213723,27.700497266326092],[85.35202804835805,27.7005575086624],[85.35205867255387,27.70057416603463],[85.3521678664727,27.700538461031673],[85.35221840068513,27.700493392433124],[85.35221675009714,27.7004658025485],[85.35219654034198,27.700448347834655],[85.3520658700366,27.700433028723648],[85.35203035295808,27.70036079251182],[85.35201648518265,27.70024929787423],[85.35190772358527,27.700174120325027],[85.35193636706268,27.699950013773698],[85.352079094449,27.69996037466084],[85.35208821534452,27.70012084903989],[85.35211054381034,27.70014749819818],[85.35217402888658,27.700149588388825],[85.3523274957609,27.700110638451743],[85.3525892075896,27.700469765379992],[85.35262601653339,27.700481589731876],[85.35270321938508,27.700456625801724],[85.35274258268628,27.700526195105635],[85.35266793360375,27.70059609928656],[85.35258089192935,27.700635738514002],[85.35224114124483,27.700854822120323],[85.35207883420347,27.70089578159045],[85.35195010735629,27.70107982469464],[85.35192403948308,27.7011670755186],[85.35166807695059,27.70106978852631],[85.35156359738305,27.700817217063513]],[[85.35183038375634,27.70011081728353],[85.35179538752918,27.700181138918236],[85.35180279663999,27.700300161695605],[85.35177847922684,27.700345029315766],[85.35175101791059,27.700580808694887],[85.35159956297312,27.700626266795997],[85.35141749265989,27.700603014923605],[85.35151023646512,27.700410543641386],[85.35155808218441,27.70037810304614],[85.35162721402871,27.70007340535757],[85.35167722374196,27.699928628675085],[85.3517736696098,27.699874091218884],[85.35185801206825,27.699926028842352],[85.35183038375634,27.70011081728353]],[[85.35137419480756,27.70047748356018],[85.3513861407774,27.70047011820069],[85.35138080364304,27.700479630085244],[85.35137419480756,27.70047748356018]],[[85.35216142613686,27.699928835950608],[85.35213384037895,27.69988099086686],[85.3520244435132,27.69986765594488],[85.35196956339556,27.699777889896332],[85.35207128473905,27.699586776718746],[85.35207320243568,27.699545774371188],[85.3521710205285,27.699581191915243],[85.35221691286891,27.699613892148648],[85.35224751753763,27.699609006859085],[85.35226580362531,27.699583406665106],[85.35217594347498,27.699388187066518],[85.35202707246356,27.699357579939196],[85.35207109458109,27.69921339069552],[85.35218097753766,27.699167746894588],[85.35243761741349,27.69917920533875],[85.35259611179121,27.69913522226625],[85.35263553193883,27.699138658988506],[85.35265917830432,27.6991117994628],[85.35264559915791,27.69907623981017],[85.3526577712587,27.69899129079593],[85.35272639241256,27.69896772672367],[85.35278572322078,27.69905084503748],[85.3528573309879,27.69923740464043],[85.35280210577065,27.699325349197522],[85.35266801534384,27.699349694985894],[85.3525982755743,27.69950292984732],[85.35245761694088,27.69957593199474],[85.3524467727191,27.699698275644717],[85.35254944109441,27.699765165406834],[85.35254333394828,27.69986551268088],[85.35248797431714,27.699884475041817],[85.35235417210994,27.69987530093204],[85.35228048852107,27.699768289695324],[85.35220854826782,27.69974852676357],[85.35218242561186,27.69976345149047],[85.35217644812471,27.699793045580044],[85.3522904394761,27.699972270851358],[85.35229589096008,27.700043594410445],[85.35219671332959,27.70006887677873],[85.35216142613686,27.699928835950608]],[[85.35203399179474,27.70122645438109],[85.35210184193916,27.701035207749246],[85.35215588170848,27.700958678141227],[85.3522355836459,27.700954390202796],[85.35234503264905,27.701066818048623],[85.35238817514767,27.70108224021722],[85.35243580128214,27.70116304614964],[85.35242475837863,27.701227484539285],[85.35238815890256,27.701260691537872],[85.35226927372916,27.701224924427375],[85.35222905124296,27.701241883503247],[85.35223564292788,27.701286764009332],[85.35232322178256,27.70132833457351],[85.35227594193778,27.701395863796645],[85.35222646971431,27.701378447290548],[85.35219592935132,27.70138388758636],[85.35203399179474,27.70122645438109]],[[85.35145164702391,27.70209394856603],[85.35142246546133,27.702189799483815],[85.35142945063076,27.702284494811497],[85.35137547685986,27.70263762741164],[85.35148554935162,27.703008652645405],[85.35142820664687,27.703114005989633],[85.3512438422593,27.70323011064689],[85.3511918958493,27.70328076667009],[85.35110893771183,27.703226276933627],[85.35113733299275,27.703171586863988],[85.35111690739974,27.70313707333143],[85.35123032222667,27.702608834077626],[85.35125900887509,27.70253621448361],[85.35126746178506,27.702463490066833],[85.3512506034941,27.702392329622135],[85.35130984709,27.702216320042314],[85.35132237523601,27.702130741071116],[85.35131142768356,27.702023970320543],[85.35145164702391,27.70209394856603]],[[85.35097906186154,27.703205397843366],[85.35096097284207,27.70327689230464],[85.3510036072084,27.70330454935955],[85.35097789690063,27.70341476749154],[85.35088442442205,27.703396735037046],[85.35079966224292,27.703329146420522],[85.35080061049858,27.703272276075705],[85.35083461304912,27.703211361434203],[85.35087064108981,27.703014728068762],[85.3508824467179,27.7027777295219],[85.35091058365032,27.702712407201552],[85.35096827998295,27.702698366903142],[85.35111258306968,27.702717395829616],[85.35110180524143,27.702775466265166],[85.35102083610926,27.702863496352045],[85.3510028965772,27.7029204495235],[85.35100307997021,27.702981407202188],[85.35105995256684,27.703000965837994],[85.3510320550506,27.703151275292907],[85.35097906186154,27.703205397843366]],[[85.35107611462607,27.703395410118116],[85.35106734904524,27.703404089545852],[85.35107070860356,27.703385988578514],[85.35107611462607,27.703395410118116]],[[85.3511815243796,27.70198898298586],[85.35113645106671,27.702105121706705],[85.35110649836959,27.70236742297143],[85.35108498089434,27.70241718043027],[85.35113559349425,27.702515954818786],[85.35108595297346,27.702543081858664],[85.35099476128917,27.702563484002155],[85.35095560962804,27.702486766299682],[85.35103143374782,27.70189404148593],[85.35120423948912,27.701973978692646],[85.3511815243796,27.70198898298586]],[[85.35087656320195,27.701556182201287],[85.3508440640741,27.701650582127357],[85.35079680229502,27.70162987654698],[85.35081866782409,27.701516159104262],[85.35087656320195,27.701556182201287]],[[85.35064256772536,27.701708446593823],[85.35060001538179,27.70186520193263],[85.35058982796795,27.70202333937137],[85.35052027857841,27.702432130934763],[85.35048274210342,27.70250651664522],[85.35041793209751,27.702501466047007],[85.35034691493797,27.702540223669615],[85.35031252278435,27.702528529091374],[85.35037741065015,27.7024194096072],[85.35045931426323,27.701916569188175],[85.35050910918869,27.70172568633325],[85.35054102619281,27.701658196795076],[85.35064256772536,27.701708446593823]],[[85.35024547245456,27.701526328811727],[85.35038190363557,27.70158180966983],[85.35037282762434,27.70163104032801],[85.35024547245456,27.701526328811727]],[[85.35017704509676,27.701418499438365],[85.35018213542541,27.701421195586775],[85.35017585933824,27.70141864335432],[85.35017704509676,27.701418499438365]],[[85.35030293510009,27.701877930020444],[85.35024362778506,27.702375324031195],[85.35016659961991,27.702401736859624],[85.34998008087912,27.701942837032014],[85.35030293510009,27.701877930020444]],[[85.3504056036794,27.703097214427675],[85.3503908059537,27.703241768499023],[85.35029503590381,27.703211111044407],[85.3502991832429,27.70311701733321],[85.3504056036794,27.703097214427675]],[[85.35036323544986,27.703491734183608],[85.35037126771894,27.703530529716875],[85.35028109429895,27.70352741248568],[85.35028536030296,27.703430627443705],[85.35036323544986,27.703491734183608]],[[85.35070113474445,27.703991344294273],[85.35070015668603,27.70404776443336],[85.35056937074786,27.704502343187425],[85.35037456156529,27.70479650390551],[85.35032360428181,27.70495123897487],[85.34998415601778,27.704914792525763],[85.35003345357781,27.70463142777977],[85.35002403492567,27.704605306139133],[85.35008842753624,27.704123428168504],[85.35070113474445,27.703991344294273]],[[85.35053719431524,27.704689676179246],[85.35067097954949,27.704510221822716],[85.35070170536612,27.704343663227828],[85.3507369933262,27.704251417623006],[85.35108685439226,27.704081808584103],[85.35114794979708,27.704105772128905],[85.35124788145404,27.70411661911993],[85.35125624263408,27.704166375057152],[85.35121552869752,27.704273091587037],[85.35131134215983,27.704366489631425],[85.35128741245173,27.70448246032423],[85.35131621959272,27.70453924414391],[85.35133494178098,27.704667555896116],[85.35133006609682,27.704770357712245],[85.35097698249184,27.7048265385705],[85.35088035004225,27.70471268650441],[85.35072863177,27.70468223197384],[85.35061312636996,27.70470185547088],[85.35053719431524,27.704689676179246]],[[85.3503171804828,27.705151283320507],[85.35032123983838,27.70529429060628],[85.35029491339566,27.70530486894949],[85.35028197619327,27.705329948754304],[85.35029017291778,27.70535312153581],[85.35031613636325,27.705366949890628],[85.35028175233785,27.70555007209064],[85.35022226965098,27.70573288059709],[85.34968853440182,27.705550158003117],[85.34989171738296,27.705167163179183],[85.3503171804828,27.705151283320507]],[[85.35035477630059,27.70564387968439],[85.3504341550584,27.705155461661242],[85.3509574155949,27.705119684928924],[85.35107980556296,27.70505485053402],[85.35114340153477,27.70495944538228],[85.35115968754866,27.704879523403424],[85.35135182698461,27.704860550038806],[85.35147980995039,27.70494779896107],[85.35156514435643,27.704968048864583],[85.35161174416753,27.70502171808435],[85.3515802646799,27.70517537218802],[85.35169413590934,27.705355743277334],[85.35148131587785,27.705476441711543],[85.351388884143,27.705687732138372],[85.35129885674351,27.705659861144635],[85.35126420992547,27.705670184790282],[85.35116330335636,27.70586479514486],[85.35111099603718,27.705887271497737],[85.35107095247696,27.70593602959008],[85.35073104498963,27.705989512491232],[85.35060613713101,27.705967062444298],[85.3504650724024,27.706030838045695],[85.35044617375478,27.706027487536574],[85.35042534805615,27.705894245534324],[85.35043955681313,27.7057770855059],[85.35033062533276,27.70570579967673],[85.35035477630059,27.70564387968439]],[[85.35016696726606,27.70596672860473],[85.35017678365097,27.706095829531314],[85.34986435787748,27.706049520751098],[85.35016696726606,27.70596672860473]],[[85.3503218896949,27.70603736294465],[85.35025651795212,27.70607517494283],[85.35024729577157,27.70595388990456],[85.3503046427378,27.705952487631343],[85.3503218896949,27.70603736294465]],[[85.35170110291779,27.705060228934023],[85.35173776532618,27.70496856252577],[85.35182566908234,27.704974640789988],[85.35180321480549,27.70506342328342],[85.35170110291779,27.705060228934023]],[[85.35178708305024,27.704815787821005],[85.35179062714613,27.704801382078728],[85.35184051672272,27.704773340699358],[85.35183782982946,27.704854718016325],[85.35178708305024,27.704815787821005]],[[85.35186889090478,27.704197863683024],[85.35184393576722,27.704226932533466],[85.35184893308723,27.70432050726565],[85.35176055363598,27.70438241858375],[85.35169371785453,27.70438538030223],[85.35167181848986,27.704335435393343],[85.35169754351571,27.7042111462288],[85.35167742523166,27.704085507133662],[85.35168529988447,27.70397678879074],[85.35178423798808,27.703957860346204],[85.35187858178153,27.704070536482877],[85.35186889090478,27.704197863683024]],[[85.35179790604407,27.70383472022428],[85.3517098582384,27.703752330414492],[85.35167323971115,27.703595633936676],[85.35150077631866,27.70353876032188],[85.35133111819904,27.70351157743382],[85.35129333786318,27.70346407085777],[85.3513022554569,27.70337367949285],[85.35137978679897,27.70325215213957],[85.35146289124849,27.703192865487686],[85.35191826903161,27.703436067444375],[85.35189189229628,27.703858887739347],[85.35179790604407,27.70383472022428]],[[85.3520632628172,27.70301161280866],[85.35213765954671,27.70278215890007],[85.35226807074962,27.702739453323783],[85.35215790357726,27.703018604055504],[85.3520632628172,27.70301161280866]],[[85.35196967681793,27.703005595498677],[85.35178786366959,27.702997367021826],[85.35183707125616,27.70277604758891],[85.35182903120551,27.7027467612558],[85.351538896635,27.70259676663202],[85.35157802763293,27.702409871742944],[85.35173676162752,27.70253479548638],[85.35178771398273,27.702528378661913],[85.35183475693854,27.70229824762542],[85.35187347747487,27.70229240453221],[85.35218631577077,27.702471978934444],[85.35206089406576,27.702740381758286],[85.35196967681793,27.703005595498677]],[[85.35231633051474,27.70241202928876],[85.3527541475235,27.70178986423318],[85.35288433666604,27.70163203300675],[85.35290404996695,27.701473225057597],[85.35317245502524,27.701121753530728],[85.3533565522998,27.701234201318048],[85.35245866585437,27.702413791637028],[85.35231633051474,27.70241202928876]],[[85.35222967255784,27.702242251195315],[85.3525510825353,27.7017730450214],[85.35264872003856,27.70179154737136],[85.35227832126758,27.702312916785313],[85.35222967255784,27.702242251195315]],[[85.35315298509227,27.700925185259216],[85.35310499336113,27.70093008472582],[85.35305443751707,27.701005957607684],[85.35299356010957,27.701049919208483],[85.3528291319631,27.70128276335839],[85.35274460886697,27.7014147617458],[85.3527551745934,27.70151514948902],[85.3526691362773,27.701542107586135],[85.35257198652515,27.70164988871597],[85.35247563864279,27.701647664146915],[85.35246786053568,27.701619145366607],[85.35249918621308,27.701524477125652],[85.35248208988237,27.701372408032267],[85.35251512971246,27.701256827418547],[85.35253916601381,27.70105781793814],[85.35239492448088,27.700922224232677],[85.35246309761105,27.700811226793263],[85.35278322751776,27.70062661051584],[85.35315642881686,27.700625612022893],[85.35326657607395,27.700639033206997],[85.3533846026561,27.700717563542725],[85.35320108319397,27.70095568273838],[85.35315298509227,27.700925185259216]],[[85.35356189259875,27.7003450899884],[85.35352739820401,27.70035341303743],[85.35350332593111,27.700392188563406],[85.35316612207178,27.7005435069582],[85.35294476155002,27.70052573434502],[85.35291214205253,27.700474069044947],[85.3529479336739,27.700357137173576],[85.35291079278636,27.70025215011695],[85.35305904320604,27.70020709719578],[85.3534312369214,27.700029042486406],[85.35355411053158,27.700048713844225],[85.35369715325471,27.70019588706825],[85.35369931510763,27.700368809258368],[85.35356189259875,27.7003450899884]],[[85.35377818706044,27.70018898934888],[85.35385675732711,27.70009898363718],[85.35397309616205,27.7001087256981],[85.35378024595519,27.700353666338454],[85.35377818706044,27.70018898934888]],[[85.35387015996395,27.700014508478464],[85.35377010336795,27.699952721910545],[85.35371757346444,27.699972539164854],[85.35362248649135,27.699945282326457],[85.35359245376988,27.6999194975532],[85.35338602371051,27.69990126037024],[85.35332640092037,27.6998167952716],[85.3532663973017,27.699687950169558],[85.35326120902202,27.69965774409392],[85.35330862216736,27.69958599558061],[85.35335338432137,27.69956884919483],[85.35343258681053,27.699594031929905],[85.35352858427161,27.69964239011529],[85.35364444110128,27.69974207844029],[85.3537812284064,27.699817158388793],[85.35403804122664,27.69982746386629],[85.35415580767815,27.69986937504475],[85.35402740842446,27.70003900384726],[85.35387015996395,27.700014508478464]],[[85.35441731326272,27.69946686300496],[85.35432133288549,27.699114765424895],[85.35482111094508,27.698942718863393],[85.35459032800243,27.699346484885073],[85.35441731326272,27.69946686300496]],[[85.35434516570493,27.699508391156463],[85.35381687256219,27.69968997727337],[85.35383100397236,27.69958887988398],[85.35395528023294,27.699424814924615],[85.35399872064318,27.699335464522157],[85.35404969150613,27.69915369828678],[85.35424264922803,27.69913231540939],[85.35434516570493,27.699508391156463]],[[85.35420582092789,27.69867154919093],[85.35419557562687,27.698215480384544],[85.35425400675838,27.697906629449403],[85.35510825024879,27.69804983003301],[85.35499459252705,27.698541691524525],[85.35420582092789,27.69867154919093]],[[85.3540302762976,27.69897006106573],[85.35367259146233,27.6989381608664],[85.35357846970415,27.698856853705507],[85.35344736565624,27.698841071656286],[85.35336313235702,27.698879088457634],[85.35324581956098,27.698995190684904],[85.35292539943947,27.69910407175013],[85.35284462533345,27.698888182752228],[85.35277693809454,27.698759197125806],[85.35274692400229,27.698546254972573],[85.35271256800199,27.69843280996978],[85.35255749570673,27.698257269918837],[85.35241278423588,27.69827634365778],[85.35239803574021,27.698310629710992],[85.35243635590312,27.69842576873606],[85.3523318789633,27.698464657974387],[85.35229555372936,27.698450304165355],[85.3522637315858,27.698469101221303],[85.35224511071121,27.698536083934744],[85.35235673579162,27.69865500264234],[85.35236420661263,27.698681932986993],[85.35227135221963,27.69872613188703],[85.35214690626883,27.698661108877474],[85.3521216784018,27.698556095365657],[85.35207442180564,27.69853203758883],[85.35179970651208,27.698670872054166],[85.35170811546479,27.69869848673369],[85.35163123659814,27.698765309702484],[85.35162939272892,27.69842003039245],[85.35178799060157,27.6983269463418],[85.35190553835182,27.69813614942144],[85.35201422434503,27.69828469775384],[85.35204544719898,27.698298907083164],[85.35222743161798,27.698187942471844],[85.35237101538573,27.69815739684085],[85.35239284986456,27.69814149309625],[85.35238477910002,27.698096258023146],[85.35227089586333,27.698067583202327],[85.35212057368855,27.697923101791385],[85.35206650619338,27.69783868973346],[85.35206025477883,27.69778593172688],[85.35250586273764,27.697757449645984],[85.35258274539507,27.69786927126545],[85.35264709837715,27.697909804725114],[85.35270091975704,27.6978613809515],[85.35269418063139,27.697834410970685],[85.35266462184694,27.697818279155214],[85.35268043204388,27.697718078779456],[85.35272294688647,27.69770624718896],[85.35273810946056,27.697656382798073],[85.35278353678112,27.69760991945985],[85.3528746328022,27.697705999861686],[85.35291498399253,27.69777657827008],[85.35299325738046,27.697827012113805],[85.35302629860853,27.69781957440057],[85.3530572886842,27.697766063509782],[85.35315978174529,27.697700070396703],[85.35327009850867,27.69767869722857],[85.3533649009983,27.69771817188135],[85.35340239763488,27.69771150920319],[85.35341693201863,27.697687792226006],[85.35343108814325,27.69751063364611],[85.35333173886846,27.69728383763887],[85.35348399350517,27.69708234190829],[85.35367607837792,27.69735240298936],[85.35372030420567,27.69751973072423],[85.35416129142567,27.69793570708607],[85.35410715840383,27.69821345139424],[85.35412554123184,27.698709407124657],[85.3540302762976,27.69897006106573]],[[85.35377670853042,27.699094732508147],[85.35376423036706,27.699253281766726],[85.35378985337664,27.6992706012549],[85.353909840518,27.699284620723095],[85.35390954287344,27.69931287468551],[85.35381934547117,27.699456907098842],[85.35371880788487,27.699401005241718],[85.35367348891998,27.69941612338688],[85.35366668768796,27.699448816271257],[85.35372338975296,27.699594343247487],[85.35371594902365,27.699604960173023],[85.35359647129025,27.699584346047295],[85.35347871774054,27.69952262636939],[85.35341913152789,27.69947161742271],[85.35346002783828,27.699398627545808],[85.35361793885403,27.699223268055533],[85.3536802588898,27.69901133304406],[85.35383071699775,27.69902406255704],[85.35377670853042,27.699094732508147]],[[85.35320285314774,27.69908726499922],[85.3532834706313,27.69907271829425],[85.35336452348157,27.69903258336696],[85.35356611940469,27.69899413814589],[85.35354159573428,27.699133161410348],[85.35349279801953,27.69916801237175],[85.35345734545963,27.699234324275952],[85.35337190922789,27.69932287266882],[85.35337287056247,27.699371175509917],[85.35334296130713,27.699427768063572],[85.35322372786646,27.69937321911431],[85.35303276753083,27.699406267184205],[85.35298849754143,27.69931239331761],[85.35294329122951,27.699175272523192],[85.35320285314774,27.69908726499922]],[[85.35248435188784,27.698486744174712],[85.35261239226226,27.698494915036104],[85.35262300286608,27.698537412329685],[85.35243365320314,27.69858059690734],[85.35237268435544,27.69852772606448],[85.35248435188784,27.698486744174712]],[[85.3526406565686,27.698608118378072],[85.35263546866723,27.698654830263877],[85.35268407822745,27.698827717330627],[85.35263363571825,27.698912976625007],[85.35239650142577,27.698999049934066],[85.35234133223696,27.698991282762343],[85.35227526896544,27.699037614405388],[85.35206167845246,27.699134001380614],[85.35184621714204,27.69918852176479],[85.35177784896912,27.699140859346254],[85.35174622134882,27.69914709653719],[85.35172994795057,27.699171022405988],[85.35159174822141,27.699143995943576],[85.35159289448595,27.69898826844881],[85.3516185620355,27.698913114004387],[85.35174160083234,27.69894312840788],[85.35174748858883,27.698970300323385],[85.35177389382741,27.698986011414856],[85.35190336504013,27.698963554949987],[85.35195731883886,27.69892498485624],[85.35243633816667,27.69874599402949],[85.35246807179718,27.6986554537882],[85.3526406565686,27.698608118378072]],[[85.35172481517645,27.69927681593778],[85.35175547998149,27.699306318020312],[85.35185838253625,27.69930581858127],[85.35194020356131,27.699388049671573],[85.35194258041187,27.699480159647642],[85.35188383109211,27.699583836048298],[85.35183614856165,27.699620757806265],[85.35184247318702,27.699649086172204],[85.35187490715516,27.69967192350517],[85.35186525863361,27.6997522918516],[85.35178486573709,27.699775114017804],[85.35169088524574,27.69974878731494],[85.35165752851829,27.699755504715064],[85.35161126415625,27.69979739138657],[85.35160921948537,27.699855040184016],[85.35156297716664,27.699973496096447],[85.3514598788599,27.699941265920213],[85.35145155954278,27.699680020691837],[85.35159192656218,27.699217950889437],[85.35172235401053,27.69924345738801],[85.35172481517645,27.69927681593778]],[[85.35155028159427,27.698795239677416],[85.35150160755785,27.698798838229692],[85.3514854953683,27.698821856234662],[85.3514636293491,27.698960096350074],[85.35147635608065,27.69905934498478],[85.35141282955445,27.69909288694277],[85.35128191840863,27.699110953115774],[85.35120172814669,27.69899997270392],[85.35133658207955,27.69884264536066],[85.35129348291689,27.69848107905107],[85.3513512687155,27.69843829236545],[85.35151980845316,27.69846998550013],[85.35154850927611,27.69846331198211],[85.35155028159427,27.698795239677416]],[[85.3512309728359,27.69865610626824],[85.35121427989718,27.698686327155265],[85.35123126809653,27.69879733403177],[85.35111362977041,27.698945057469754],[85.3509985368682,27.698973021197524],[85.35090150201437,27.698939086928135],[85.35076986382087,27.698941256790466],[85.3506920499186,27.69892201727647],[85.35069067204732,27.698857799760077],[85.35066212081821,27.698821433738946],[85.35062634952598,27.69866276436825],[85.35066239351305,27.698382376120115],[85.35073194605194,27.698321570998186],[85.35081822416205,27.698365479222115],[85.3508645627245,27.698416940042684],[85.35091547334112,27.698414412135307],[85.3509313699947,27.698383458931378],[85.35091076052879,27.69832608240991],[85.35103559846627,27.69813503067042],[85.3511235026535,27.698054674689832],[85.35119230933184,27.698180722801165],[85.3512574932631,27.698200069842176],[85.35128753174212,27.698369285202823],[85.35114234368962,27.698448303971446],[85.35104485614627,27.698452101971235],[85.35097735928707,27.698497397752487],[85.35095083311735,27.698559834567387],[85.3509704726775,27.69863996745772],[85.35101132909087,27.6986859693238],[85.3510448075957,27.698694026198133],[85.35107622211127,27.698669616385484],[85.35107007897811,27.698615063879405],[85.35110298852598,27.698536148505088],[85.35121566113067,27.69851121943782],[85.3512309728359,27.69865610626824]],[[85.35283690966193,27.697554268188433],[85.352940540323,27.6974800576377],[85.35302586875666,27.697461953321934],[85.35324505372105,27.697339902431906],[85.35327662560839,27.69739888956818],[85.35320377872108,27.697565163487727],[85.35312439839647,27.697583925795115],[85.35307436387598,27.697633552002596],[85.35294232736615,27.697665453827877],[85.35283690966193,27.697554268188433]],[[85.35356721963814,27.697015729696712],[85.3537274417443,27.697034661206235],[85.35393849403057,27.69712020524291],[85.35399367506182,27.697163657131558],[85.3537476662377,27.697283571590578],[85.35363912095957,27.697165239563457],[85.35354517681006,27.697033408851695],[85.35356721963814,27.697015729696712]],[[85.35378201827004,27.696975853733502],[85.35376340773543,27.69694546341116],[85.35372414049763,27.69694293617565],[85.35366531975511,27.696872469061613],[85.35372101064455,27.696811239120386],[85.3539482933391,27.696748956152547],[85.35404102964947,27.6968166084544],[85.35406069055938,27.696906169886695],[85.35395448574727,27.697047355840294],[85.35378201827004,27.696975853733502]],[[85.35405200933633,27.697059196172205],[85.35423372912418,27.696844834971852],[85.35428848168578,27.69685852971102],[85.35433681094528,27.69692850155649],[85.35432520011238,27.697020240357404],[85.35434904807863,27.69703615833945],[85.35441455471485,27.697041264862694],[85.35443213797234,27.697063827260223],[85.35426352103218,27.697172378769704],[85.3541073145929,27.6971346680686],[85.35405200933633,27.697059196172205]],[[85.35434282338213,27.69764036916015],[85.3544079193564,27.697456780126984],[85.35472375403172,27.69689232435678],[85.35509425646859,27.697067935640206],[85.35513173958364,27.69763185779784],[85.35434282338213,27.69764036916015]],[[85.35418161015008,27.697318940533343],[85.35422994711737,27.697306119742763],[85.35434774054225,27.69721677122397],[85.3544038432283,27.6972669359603],[85.35434887554591,27.697340168082437],[85.35428714464629,27.697557514559605],[85.35418161015008,27.697318940533343]],[[85.35453975513467,27.69706269794126],[85.35435062440705,27.69679286272938],[85.35424542145779,27.696759888131528],[85.35420401383071,27.696653700135684],[85.3544652062322,27.696526224428382],[85.3545191518384,27.696518311913984],[85.35464741629654,27.696566180041422],[85.35472326510269,27.696624579301414],[85.35461368882576,27.696710083071647],[85.35461016738034,27.696754311259365],[85.35465907363988,27.69684572110991],[85.35453975513467,27.69706269794126]],[[85.35477288284628,27.696804737052016],[85.35483527828166,27.69669766551498],[85.35495645605674,27.69666459455365],[85.35502435847005,27.69660926829197],[85.35508135929588,27.696974508040196],[85.35477288284628,27.696804737052016]],[[85.35484406312185,27.696232115792156],[85.35472176389962,27.69650288646735],[85.35464889358556,27.696431367798443],[85.35448953473647,27.6964217027821],[85.35445387764594,27.696444347466578],[85.35429892387555,27.696489003377526],[85.35401877436469,27.696690740977708],[85.35380212937962,27.69657718217443],[85.353926269645,27.696508160259462],[85.35400127123357,27.69642606531068],[85.35405077962527,27.69641489397031],[85.35419409344544,27.69630520707784],[85.35433447847932,27.696234524406147],[85.35437763243131,27.696180115521308],[85.3545058491777,27.696180174137744],[85.35453817369394,27.69614357930668],[85.35484406312185,27.696232115792156]],[[85.35451745400488,27.69606167790913],[85.3543360223786,27.696089831420178],[85.3542828628957,27.69611196714046],[85.35414648776391,27.695996153240923],[85.35401303032805,27.69594681337535],[85.35397835083666,27.695951680672238],[85.35396093267119,27.695978813194333],[85.35396540012857,27.696100975516],[85.35406692679126,27.696266069364956],[85.35401684871131,27.69630601528175],[85.35390984430788,27.69632987732414],[85.35387657362438,27.696403404934614],[85.35371983205313,27.696515543194703],[85.35369119553366,27.696581040021645],[85.35351630629046,27.69651046183994],[85.353311804798,27.696485700394206],[85.35324200762376,27.696412143770935],[85.35324126311612,27.696030269437646],[85.35321977114982,27.69599910321268],[85.35319252303033,27.695995613973917],[85.35316695883499,27.69601095994865],[85.3531598900504,27.6961242108005],[85.3530121232659,27.696276186433167],[85.35289118481161,27.69625024017707],[85.35282644564671,27.696084497572308],[85.35256429674403,27.69601277286609],[85.35305173053291,27.69578450116857],[85.35323460889106,27.69572981787693],[85.3535592565913,27.69569747114564],[85.35388303043099,27.695604694331916],[85.35400287490735,27.695618766938246],[85.35410007731517,27.695601922900583],[85.35418846515594,27.695567427392973],[85.35420557337605,27.695508600230216],[85.35441487013156,27.69545221859834],[85.35465386386021,27.695433477900124],[85.35479722548827,27.695611109874758],[85.3547525671517,27.695656908544013],[85.35475255812823,27.69582578547396],[85.35484327931322,27.69587998080442],[85.35498205623861,27.69591484809659],[85.3550100527011,27.696204240172882],[85.35451745400488,27.69606167790913]],[[85.35365892005493,27.696647291164158],[85.35358339332744,27.696826384838836],[85.35347862589087,27.69678652957335],[85.3535256889471,27.69660372076158],[85.35365892005493,27.696647291164158]],[[85.35316066820667,27.696294617931105],[85.35315069043304,27.696490012758282],[85.35299737742675,27.696521139891605],[85.35297874553385,27.696503438705324],[85.35306854149417,27.69634679037815],[85.35316066820667,27.696294617931105]],[[85.35315486192144,27.696563218247636],[85.35314585298369,27.69681429346001],[85.35337718013156,27.697039412470197],[85.35325813231029,27.697126719765837],[85.35306267037951,27.697115539450348],[85.3530035931172,27.697004245774895],[85.35303490284448,27.696803217180882],[85.35302526742397,27.696589529807824],[85.35315486192144,27.696563218247636]],[[85.35231424116925,27.696102830311613],[85.35270613855509,27.69660655834766],[85.3527716567942,27.6966427714453],[85.35291115378624,27.69662191044408],[85.35294504419129,27.69680089415088],[85.35291667296022,27.696923188404174],[85.35291717642109,27.697024478866503],[85.35300903625355,27.697249800046652],[85.35305801804891,27.69731434384407],[85.35290922857845,27.69740203814561],[85.35282534923176,27.697386248208385],[85.3527883794393,27.69724001478607],[85.35268976345473,27.697015302689497],[85.35262757945715,27.696980707679455],[85.35257457077161,27.69698399260447],[85.35255977765908,27.697026161222183],[85.35261746091595,27.69707129151983],[85.35264288764144,27.697146567013633],[85.35261201365921,27.697265699784385],[85.35263465869866,27.697530505206505],[85.35260018287464,27.69763257007634],[85.35245581141218,27.697675497023333],[85.35219631456977,27.697660293057936],[85.35222246527718,27.69726726784588],[85.35219902288816,27.697233968018722],[85.35221390217015,27.69704875172828],[85.35224000470356,27.69700379035867],[85.35222339824537,27.696888926039655],[85.35210558969291,27.696592848168503],[85.35203286393018,27.69649246046669],[85.35202288316563,27.696339912676592],[85.35213133563846,27.69624827468764],[85.35213690753199,27.69621495797692],[85.35231424116925,27.696102830311613]],[[85.35278665744714,27.696205916668248],[85.35287360882833,27.696490341134066],[85.35274763814718,27.696534338519665],[85.35259387658502,27.69633574097329],[85.35278665744714,27.696205916668248]],[[85.35213263738297,27.697048067590483],[85.3520858298911,27.6976307158123],[85.3520166202578,27.697639931241767],[85.35194712938033,27.69763038511832],[85.35185446037178,27.697544066172863],[85.35184967960758,27.697496711094846],[85.35182721663028,27.697476007076105],[85.3518093457465,27.697337857053576],[85.35182926225797,27.697284507951107],[85.35181538806212,27.69722023883772],[85.35195567258799,27.69697922079402],[85.35211270457657,27.69694774425134],[85.35213263738297,27.697048067590483]],[[85.35191634541333,27.69651980976041],[85.35191887124594,27.696551237184664],[85.35199526832919,27.696643280073953],[85.35200526825516,27.69669204936785],[85.35207820977146,27.696828560514067],[85.3519622344453,27.696885631889742],[85.3519034234083,27.69685516425205],[85.35167471129597,27.696940491326878],[85.3515878154561,27.696946399079998],[85.3515076841747,27.696989432286987],[85.35149194930648,27.697013675866245],[85.35150669824708,27.697049172804252],[85.35159493363835,27.697095377282814],[85.35163774676322,27.69723879910461],[85.35171566993394,27.697350965857314],[85.35175495444695,27.697610113536246],[85.35167047231631,27.697652528876834],[85.35124017902716,27.697665392830274],[85.35110020793599,27.697440016371917],[85.35106263681841,27.697438259544583],[85.35094947133659,27.69749648053442],[85.350742893507,27.697233263608272],[85.3507142202493,27.697155584958267],[85.35147618097078,27.696682058965546],[85.35157997813553,27.696590560026237],[85.35158924061267,27.696560023277144],[85.3518432043856,27.69640050874997],[85.35191634541333,27.69651980976041]],[[85.35163156755148,27.697730773618435],[85.35167215379614,27.69775368760327],[85.35178224625606,27.69774650616045],[85.35181833051962,27.697721821248862],[85.3519204476087,27.697717149459333],[85.3519583776072,27.697771263971696],[85.35197805667082,27.697852305703574],[85.35187182593357,27.698023524237914],[85.35179990394847,27.698101284421313],[85.3517297139932,27.698233261181265],[85.35155332497416,27.69831499378572],[85.35145222557455,27.698261799413945],[85.351137379767,27.697928389724133],[85.35116225208355,27.697828351522237],[85.35125189289943,27.69778603822354],[85.3514008609179,27.697772996551333],[85.3514362427999,27.697739300836652],[85.35163156755148,27.697730773618435]],[[85.34910071220901,27.69816687335417],[85.34913064726786,27.698163556511783],[85.34928553568538,27.698068045871107],[85.34964405541831,27.69805553070179],[85.34972715634231,27.698156241970022],[85.34975735720074,27.698162625591394],[85.3497924337353,27.698148517147743],[85.34980935409016,27.69812535385876],[85.3498029171013,27.69809832549966],[85.34971394592235,27.697983393656365],[85.34960434605007,27.697880462487248],[85.34987497335933,27.697686022184396],[85.34999680847022,27.697733751457697],[85.35015554712871,27.69783996280612],[85.35021280092963,27.697857050721574],[85.35024256655059,27.697850226050956],[85.35036015703096,27.69775442124755],[85.35036474633054,27.697717529543382],[85.35029014699165,27.697681418871802],[85.35019736835866,27.697763884843454],[85.35016350805905,27.697751177851522],[85.35010716018782,27.697675232011903],[85.3500751025053,27.697662878854658],[85.35008278978272,27.697547174494503],[85.35040248405687,27.697334969204842],[85.350444239748,27.69732144594002],[85.35048179411287,27.697406384089174],[85.35042466993677,27.697542292471226],[85.35058023149791,27.69764318955003],[85.35054934721033,27.697732022661153],[85.35056790497181,27.697764944698914],[85.35061624214943,27.697774858643115],[85.3506454164792,27.697763244571153],[85.35067831646764,27.697653354417493],[85.35075853178554,27.6975919478815],[85.35076755557678,27.697558074502318],[85.35082578232473,27.697506718864993],[85.35090036551716,27.697585168077563],[85.35110568140615,27.697700843551605],[85.35102900498471,27.69783938999724],[85.35088866314463,27.69790713200684],[85.3507579364461,27.698000594439254],[85.35076654692496,27.698046076778148],[85.3508964455269,27.698104569471084],[85.35074934800254,27.698218545196617],[85.35071489567632,27.69823568139682],[85.35059650676342,27.698220090416907],[85.3505045140362,27.698143128474662],[85.35036047577474,27.698063689330656],[85.35032226736854,27.698089701194153],[85.35033284226431,27.69813880715648],[85.35021815584062,27.698256508680153],[85.35017794343341,27.69822197016406],[85.35013718090786,27.698231138206058],[85.35012604555783,27.69826237278728],[85.35015324298995,27.698325025563882],[85.35029836478802,27.6984318846222],[85.35026482135643,27.698563277459986],[85.35011528814195,27.69867135742629],[85.34994171513311,27.698756961954047],[85.3498796125751,27.698812574961636],[85.3497284152529,27.698841361131166],[85.34966435757076,27.698659811898672],[85.3497241674308,27.698572981091623],[85.3498630094413,27.698542895781635],[85.34997882776193,27.698542817381565],[85.35000748101292,27.698502375239798],[85.34999480677311,27.69846776363228],[85.34993701820235,27.698422224860508],[85.34990683266216,27.698415783820906],[85.34958740090664,27.69851959777896],[85.34955250906043,27.69849112906108],[85.34955125200938,27.698369124706648],[85.34952892985109,27.698342748162812],[85.34923833413364,27.69829232852934],[85.34920098711571,27.698306210175474],[85.34904911172283,27.69828790510454],[85.34896778114651,27.69825139943225],[85.34910071220901,27.69816687335417]],[[85.34927534476837,27.698398784560474],[85.34944120732739,27.69840801962696],[85.34945268368365,27.698522834305507],[85.34955341806936,27.69867305582266],[85.34964463759358,27.6989265325535],[85.34966827229984,27.69894865984778],[85.34970529263569,27.698952857049388],[85.34982646475495,27.698906388944284],[85.34987156791186,27.69891487890796],[85.34993300323185,27.69889729254056],[85.34999780547203,27.698829282327424],[85.35011199863573,27.698785701506527],[85.35024424878186,27.69870366131461],[85.35042918066439,27.698530312262008],[85.35050308295807,27.698627148956035],[85.35057915634107,27.698858088559938],[85.35043527055386,27.69895496640325],[85.35039336191065,27.69904390502344],[85.35031341485893,27.699074971983666],[85.35021017322819,27.699173293473756],[85.35008433346124,27.699258677492928],[85.34996838830621,27.699306123208608],[85.34980286939452,27.699321090725526],[85.34973580449379,27.69932194825166],[85.34947549375455,27.69927514829568],[85.34910628561914,27.699467207820632],[85.34903147273306,27.69954032190751],[85.34894223838982,27.699600621841718],[85.34889066164749,27.699619426918133],[85.34874244875937,27.69959772507756],[85.34863740564792,27.699710997750486],[85.34855500431253,27.69970971526564],[85.34851927790739,27.699653307820324],[85.34855210700574,27.69959111884749],[85.3486009837167,27.69955065512304],[85.34856394445454,27.699397036551485],[85.34861250606563,27.699320578019886],[85.34863753007039,27.699246279789175],[85.34864645867003,27.69907832355168],[85.34873543863587,27.699084382256377],[85.34884347113253,27.699198319634295],[85.34872654411039,27.699330266598327],[85.3487086672928,27.699431056782444],[85.34872507233564,27.699454512006742],[85.34875376488085,27.699460972574315],[85.34878165802226,27.699446170620337],[85.34881801793239,27.69937633065516],[85.34923724027442,27.699203152707994],[85.34931605288737,27.699067529667445],[85.349364825985,27.69904244048773],[85.34937650817926,27.699013375911775],[85.3492390459675,27.69889223996719],[85.34918827442044,27.698877321030807],[85.34883814256335,27.6989882076217],[85.34879093893703,27.69898947059946],[85.34876719122204,27.69890279592704],[85.3490859516859,27.698815382986147],[85.34910839161034,27.69879142930139],[85.34910194658566,27.698758661713626],[85.34905714351281,27.698740381719738],[85.34892409572711,27.698749059541136],[85.34880584156751,27.69879202054343],[85.34872779339555,27.69877597172226],[85.34847250311844,27.698555062113662],[85.34871395638872,27.698416539927262],[85.34903187997092,27.698358685028833],[85.34924041527087,27.698383819114913],[85.34927534476837,27.698398784560474]],[[85.34980421554422,27.69942588597549],[85.35001130183099,27.699402687085158],[85.3501644186532,27.699344421308687],[85.3502112378284,27.69927567370564],[85.35030174728536,27.699235594191652],[85.35036815040529,27.69914384070315],[85.35045361451846,27.699116640569045],[85.35051148918342,27.699144483750814],[85.35041674094579,27.699355122571927],[85.35037329568765,27.699378674534657],[85.3503547407473,27.69954927004431],[85.35031211868932,27.699598242763148],[85.35023765460997,27.69980844396158],[85.35016719091696,27.69987865972052],[85.35017658048858,27.69993951603443],[85.35011212784777,27.699993523413788],[85.3500436301573,27.69996546847466],[85.34968912692345,27.69993623880651],[85.3495640817215,27.69997868152537],[85.34927229702254,27.700200630198232],[85.34921050469929,27.700207573488242],[85.3491459290281,27.700149108261233],[85.34916677317248,27.70007686268724],[85.3492286120293,27.699993661808076],[85.3493171787448,27.69994100625546],[85.34944290355364,27.699948854261216],[85.34947710259165,27.699922732935413],[85.34947060159955,27.69987136831392],[85.34941322734676,27.699853925950592],[85.34946441842702,27.699608427919166],[85.34948756177197,27.699560885055583],[85.34947590915155,27.69943608773912],[85.34955359802437,27.6993631724428],[85.34975343697022,27.69939795611394],[85.34980421554422,27.69942588597549]],[[85.3505961287896,27.69921123597049],[85.35071340213877,27.699237667380093],[85.35074260854313,27.699228309546584],[85.35075730708958,27.699200882765123],[85.35085121432175,27.69921565565529],[85.350870965922,27.69934438195837],[85.35091031289504,27.699369345600235],[85.35094706894394,27.699351436314316],[85.35095987452827,27.6992924950724],[85.3510538310445,27.6992467544871],[85.35106849211445,27.69920658821821],[85.3511810569942,27.699194456542813],[85.35123555712796,27.69939255366101],[85.35121099642218,27.699459814206136],[85.35110995206128,27.699527037370245],[85.35106945696745,27.69953086383666],[85.35105267454628,27.699564842534173],[85.35107685361382,27.69959346314437],[85.35124714840607,27.699643531643517],[85.3511324412461,27.69982929637595],[85.35103403795442,27.69983495889189],[85.35095843789212,27.699755923870114],[85.3509613528158,27.699596755374824],[85.35093483347646,27.699576862846897],[85.35090073356187,27.699582489442875],[85.35086435882792,27.69961894311456],[85.35086982871437,27.699763294650715],[85.35083224782773,27.69987514098777],[85.35085475911559,27.699902651650376],[85.35097733907543,27.69993312459854],[85.35098299196687,27.699997809113366],[85.35084809983752,27.699994087081205],[85.35078708519283,27.700116418942873],[85.35065558849527,27.700146460850082],[85.3505748541726,27.70019276815758],[85.35044539194794,27.700200204256387],[85.35026610486128,27.70026216133216],[85.35027797339242,27.70018192902692],[85.35025901628214,27.700032298589132],[85.35044958432105,27.700064632466383],[85.35053861849183,27.699940089289612],[85.3506258671871,27.6998924700036],[85.35064145836301,27.699870251015444],[85.3506426838373,27.699840983584455],[85.35062086066779,27.699815793289645],[85.35039339728998,27.69970889841498],[85.35047451695617,27.699434715329904],[85.35057364190756,27.699431889333855],[85.35060280000283,27.69951014382115],[85.35060248979981,27.699562579069422],[85.35062271041718,27.699583616369747],[85.35072518047923,27.699586031293077],[85.3507561496303,27.699560137983518],[85.35070754605292,27.6994248528537],[85.35067122264539,27.69937028004802],[85.35060724806989,27.699340867782393],[85.35050749053661,27.69934761792585],[85.35057686674885,27.699193384479646],[85.3505961287896,27.69921123597049]],[[85.35069128228061,27.699038739654195],[85.35084494385282,27.699031175655847],[85.35090908369888,27.699054122116003],[85.35088353519971,27.699147423233963],[85.35065016695478,27.69911071113737],[85.35069128228061,27.699038739654195]],[[85.3510743688154,27.699102390766],[85.35111169373099,27.69912920687237],[85.35107201511842,27.69913348322752],[85.3510743688154,27.699102390766]],[[85.34920794983671,27.699029817104226],[85.34916617926093,27.69913219914674],[85.34904852798249,27.69917971900271],[85.34895651927356,27.699162099637206],[85.34894416953905,27.699136470319925],[85.34900769736358,27.699009988241333],[85.34915787185881,27.69896120855764],[85.34920794983671,27.699029817104226]],[[85.348069706768,27.698688839677985],[85.34797133719667,27.698751676837215],[85.34795999236572,27.698727181757985],[85.3480714881302,27.698674363047008],[85.348069706768,27.698688839677985]],[[85.34769755203666,27.698887945847797],[85.34757799270453,27.698958698478172],[85.34746955384135,27.69898442217303],[85.34742310643382,27.698901227070536],[85.34764282302301,27.698832466570668],[85.34769755203666,27.698887945847797]]]}}]}