{"type":"FeatureCollection","features":[{"type":"Feature","properties":{"kind":"valve"},"geometry":{"type":"Point","coordinates":[85.3495398962272,27.698551178761118]}},{"type":"Feature","properties":{"kind":"valve"},"geometry":{"type":"Point","coordinates":[85.3517991606506,27.7022670051046]}},{"type":"Feature","properties":{"kind":"valve"},"geometry":{"type":"Point","coordinates":[85.35155446010268,27.70215507729049]}},{"type":"Feature","properties":{"kind":"valve"},"geometry":{"type":"Point","coordinates":[85.3512721906782,27.702013406498523]}},{"type":"Feature","properties":{"kind":"valve"},"geometry":{"type":"Point","coordinates":[85.35099127882428,27.70188211897079]}},{"type":"Feature","properties":{"kind":"valve"},"geometry":{"type":"Point","coordinates":[85.3507171566745,27.70176903688939]}},{"type":"Feature","properties":{"kind":"valve"},"geometry":{"type":"Point","coordinates":[85.35041294381132,27.701636379434724]}},{"type":"Feature","properties":{"kind":"valve"},"geometry":{"type":"Point","coordinates":[85.35327687786912,27.699821590345756]}},{"type":"Feature","properties":{"kind":"valve"},"geometry":{"type":"Point","coordinates":[85.35058920463646,27.699137779313723]}},{"type":"Feature","properties":{"kind":"valve"},"geometry":{"type":"Point","coordinates":[85.3512621324204,27.699150305751928]}},{"type":"Feature","properties":{"kind":"valve"},"geometry":{"type":"Point","coordinates":[85.35274068560321,27.70039266665839]}},{"type":"Feature","properties":{"kind":"valve"},"geometry":{"type":"Point","coordinates":[85.349917087744,27.70498921124212]}},{"type":"Feature","properties":{"kind":"valve"},"geometry":{"type":"Point","coordinates":[85.34993093193293,27.701915731341728]}},{"type":"Feature","properties":{"kind":"valve"},"geometry":{"type":"Point","coordinates":[85.34739559325948,27.699185494977787]}},{"type":"Feature","properties":{"kind":"valve"},"geometry":{"type":"Point","coordinates":[85.35183553543857,27.705149361240018]}},{"type":"Feature","properties":{"kind":"valve"},"geometry":{"type":"Point","coordinates":[85.35224867618916,27.702447294039885]}},{"type":"Feature","properties":{"kind":"valve"},"geometry":{"type":"Point","coordinates":[85.35208205148689,27.702317878883008]}},{"type":"Feature","properties":{"kind":"valve"},"geometry":{"type":"Point","coordinates":[85.35404633953473,27.700078600526734]}},{"type":"Feature","properties":{"kind":"valve"},"geometry":{"type":"Point","coordinates":[85.34722738516119,27.699035022225384]}},{"type":"Feature","properties":{"kind":"valve"},"geometry":{"type":"Point","coordinates":[85.34761759601523,27.699022073894366]}},{"type":"Feature","properties":{"kind":"valve"},"geometry":{"type":"Point","coordinates":[85.35195156315845,27.701216789373564]}},{"type":"Feature","properties":{"kind":"valve"},"geometry":{"type":"Point","coordinates":[85.35190409131445,27.699871339091903]}},{"type":"Feature","properties":{"kind":"valve"},"geometry":{"type":"Point","coordinates":[85.35483994309263,27.695376739147832]}},{"type":"Feature","properties":{"kind":"valve"},"geometry":{"type":"Point","coordinates":[85.35290650655439,27.69919866930538]}},{"type":"Feature","properties":{"kind":"valve"},"geometry":{"type":"Point","coordinates":[85.34973260095754,27.701368892087284]}},{"type":"Feature","properties":{"kind":"valve"},"geometry":{"type":"Point","coordinates":[85.3483031721267,27.698568013124525]}},{"type":"Feature","properties":{"kind":"valve"},"geometry":{"type":"Point","coordinates":[85.34840457985638,27.698552021103563]}},{"type":"Feature","properties":{"kind":"valve"},"geometry":{"type":"Point","coordinates":[85.3499620929562,27.697553309032564]}},{"type":"Feature","properties":{"kind":"valve"},"geometry":{"type":"Point","coordinates":[85.34833953437337,27.69986764812656]}},{"type":"Feature","properties":{"kind":"valve"},"geometry":{"type":"Point","coordinates":[85.34926869896732,27.700920193461876]}},{"type":"Feature","properties":{"kind":"valve"},"geometry":{"type":"Point","coordinates":[85.35237505940749,27.70002691535602]}},{"type":"Feature","properties":{"kind":"valve"},"geometry":{"type":"Point","coordinates":[85.34887775198618,27.700497767696064]}},{"type":"Feature","properties":{"kind":"valve"},"geometry":{"type":"Point","coordinates":[85.35033193171213,27.706148411715827]}},{"type":"Feature","properties":{"kind":"valve"},"geometry":{"type":"Point","coordinates":[85.3484339617,27.69998182861822]}},{"type":"Feature","properties":{"kind":"valve"},"geometry":{"type":"Point","coordinates":[85.35226668540622,27.70236510871255]}},{"type":"Feature","properties":{"kind":"hydrant"},"geometry":{"type":"Point","coordinates":[85.35490530351333,27.69887503076437]}},{"type":"Feature","properties":{"kind":"hydrant"},"geometry":{"type":"Point","coordinates":[85.3525453841419,27.69842431378049]}},{"type":"Feature","properties":{"kind":"hydrant"},"geometry":{"type":"Point","coordinates":[85.3496880679359,27.706059986274035]}},{"type":"Feature","properties":{"kind":"hydrant"},"geometry":{"type":"Point","coordinates":[85.3512729921345,27.70197351859766]}},{"type":"Feature","properties":{"kind":"hydrant"},"geometry":{"type":"Point","coordinates":[85.34981608865343,27.701648039308825]}},{"type":"Feature","properties":{"kind":"hydrant"},"geometry":{"type":"Point","coordinates":[85.34740760700738,27.699179796149146]}},{"type":"Feature","properties":{"kind":"flowmeter"},"geometry":{"type":"Point","coordinates":[85.34818538972604,27.69865937609346]}},{"type":"Feature","properties":{"kind":"flowmeter"},"geometry":{"type":"Point","coordinates":[85.34986601598192,27.697608662120164]}},{"type":"Feature","properties":{"kind":"flowmeter"},"geometry":{"type":"Point","coordinates":[85.34976119387437,27.70152220061079]}},{"type":"Feature","properties":{"kind":"flowmeter"},"geometry":{"type":"Point","coordinates":[85.34828424327705,27.69858035537371]}},{"type":"Feature","properties":{"kind":"logger"},"geometry":{"type":"Point","coordinates":[85.34828424327705,27.69858035537371]}},{"type":"Feature","properties":{"kind":"logger"},"geometry":{"type":"Point","coordinates":[85.3496880679359,27.706059986274035]}},{"type":"Feature","properties":{"kind":"logger"},"geometry":{"type":"Point","coordinates":[85.3512729921345,27.70197351859766]}},{"type":"Feature","properties":{"kind":"logger"},"geometry":{"type":"Point","coordinates":[85.35483994309263,27.695376739147832]}}]}