{"type":"FeatureCollection","features":[{"type":"Feature","properties":{"derived":true},"geometry":{"type":"Polygon","coordinates":[[[85.3255903447005,27.700282028009994],[85.32592581182197,27.700354986261228],[85.32853365591322,27.699707115620598],[85.32896774257452,27.699906400202934],[85.32951952884953,27.69984126003376],[85.33012671414559,27.699944754408577],[85.33073892211976,27.69992687152719],[85.33085651584362,27.699816718623666],[85.33087154598364,27.6996743749362],[85.3305710158618,27.699206510878135],[85.33046901809077,27.698890188133685],[85.33120954841962,27.698139582011752],[85.33176885939544,27.697794814363938],[85.33188492468611,27.697595211260072],[85.33189963810467,27.697354430691618],[85.33181131357233,27.697188582328195],[85.33076263943998,27.695858282677953],[85.3305065959572,27.695719288001804],[85.3297757018153,27.69554473806403],[85.32961138952581,27.6954065363357],[85.32928152387103,27.69533381649264],[85.32917496508324,27.695222906694433],[85.3291829852395,27.695068806003302],[85.32935985082341,27.69484371686454],[85.3297410147785,27.69458250772897],[85.3298933665967,27.694288917441693],[85.3298573188883,27.694020431616433],[85.32917786662269,27.692667220819104],[85.32896340104199,27.69246057950775],[85.32842255259649,27.692480572790885],[85.32759243146361,27.69295470699409],[85.3273675073082,27.693206058865325],[85.32753872277715,27.694035555691766],[85.32741576462462,27.694238285713485],[85.32738504437637,27.694767265973173],[85.32866504485642,27.69916984662514],[85.32597274022363,27.699874882137806],[85.32558034182685,27.69985736757409],[85.32541750104107,27.700079354695934],[85.3255903447005,27.700282028009994]],[[85.32820708575821,27.695350850735178],[85.3280755149915,27.695306139345398],[85.32810521974834,27.69516426061466],[85.32853074879938,27.695088747053564],[85.32862481237618,27.695130596259837],[85.32861075298572,27.695354794802284],[85.32820708575821,27.695350850735178]]]}}]}