{"type":"FeatureCollection","features":[{"type":"Feature","properties":{},"geometry":{"type":"Point","coordinates":[85.32854105968927,27.69583804283198]}},{"type":"Feature","properties":{},"geometry":{"type":"Point","coordinates":[85.32848621541821,27.695759525880877]}},{"type":"Feature","properties":{},"geometry":{"type":"Point","coordinates":[85.3285334308587,27.695591329887765]}},{"type":"Feature","properties":{},"geometry":{"type":"Point","coordinates":[85.32840427176076,27.695689317335688]}},{"type":"Feature","properties":{},"geometry":{"type":"Point","coordinates":[85.32830644933507,27.695558290952338]}},{"type":"Feature","properties":{},"geometry":{"type":"Point","coordinates":[85.3281534410659,27.695636068228048]}},{"type":"Feature","properties":{},"geometry":{"type":"Point","coordinates":[85.32816843238018,27.695667628193796]}},{"type":"Feature","properties":{},"geometry":{"type":"Point","coordinates":[85.32815717127879,27.695679993434695]}},{"type":"Feature","properties":{},"geometry":{"type":"Point","coordinates":[85.32812238667454,27.695667755423813]}},{"type":"Feature","properties":{},"geometry":{"type":"Point","coordinates":[85.3279392564774,27.6955922208429]}},{"type":"Feature","properties":{},"geometry":{"type":"Point","coordinates":[85.32787799292939,27.694974832826432]}},{"type":"Feature","properties":{},"geometry":{"type":"Point","coordinates":[85.3278826074471,27.69497244264457]}},{"type":"Feature","properties":{},"geometry":{"type":"Point","coordinates":[85.32823521554181,27.69488892574296]}},{"type":"Feature","properties":{},"geometry":{"type":"Point","coordinates":[85.32826948594094,27.694883923320635]}},{"type":"Feature","properties":{},"geometry":{"type":"Point","coordinates":[85.32846478091787,27.69485284798532]}},{"type":"Feature","properties":{},"geometry":{"type":"Point","coordinates":[85.32863829379484,27.694824625942324]}},{"type":"Feature","properties":{},"geometry":{"type":"Point","coordinates":[85.32773570007454,27.694881249202496]}},{"type":"Feature","properties":{},"geometry":{"type":"Point","coordinates":[85.32804180700843,27.69469110259267]}},{"type":"Feature","properties":{},"geometry":{"type":"Point","coordinates":[85.32812179881954,27.694683202757496]}},{"type":"Feature","properties":{},"geometry":{"type":"Point","coordinates":[85.32825947497757,27.69467053712782]}},{"type":"Feature","properties":{},"geometry":{"type":"Point","coordinates":[85.32830740142444,27.694646971663065]}},{"type":"Feature","properties":{},"geometry":{"type":"Point","coordinates":[85.32765722733029,27.69462280667497]}},{"type":"Feature","properties":{},"geometry":{"type":"Point","coordinates":[85.32815801327156,27.694530272440474]}},{"type":"Feature","properties":{},"geometry":{"type":"Point","coordinates":[85.32817763253463,27.694547173111694]}},{"type":"Feature","properties":{},"geometry":{"type":"Point","coordinates":[85.3281769518382,27.69454639592016]}},{"type":"Feature","properties":{},"geometry":{"type":"Point","coordinates":[85.32800653739716,27.694542790288466]}},{"type":"Feature","properties":{},"geometry":{"type":"Point","coordinates":[85.32767460901202,27.69447020591039]}},{"type":"Feature","properties":{},"geometry":{"type":"Point","coordinates":[85.32777603012778,27.694272175817133]}},{"type":"Feature","properties":{},"geometry":{"type":"Point","coordinates":[85.32785587587244,27.69417252475315]}},{"type":"Feature","properties":{},"geometry":{"type":"Point","coordinates":[85.32774317005645,27.693703467675768]}},{"type":"Feature","properties":{},"geometry":{"type":"Point","coordinates":[85.32767789511202,27.693448254110518]}},{"type":"Feature","properties":{},"geometry":{"type":"Point","coordinates":[85.32767704259763,27.69344471394141]}},{"type":"Feature","properties":{},"geometry":{"type":"Point","coordinates":[85.32969306808921,27.695777939757644]}},{"type":"Feature","properties":{},"geometry":{"type":"Point","coordinates":[85.32978710070303,27.695808499058376]}},{"type":"Feature","properties":{},"geometry":{"type":"Point","coordinates":[85.32985392492748,27.695822893947966]}},{"type":"Feature","properties":{},"geometry":{"type":"Point","coordinates":[85.32991212849412,27.695843203928934]}},{"type":"Feature","properties":{},"geometry":{"type":"Point","coordinates":[85.33007378905063,27.695874740323706]}},{"type":"Feature","properties":{},"geometry":{"type":"Point","coordinates":[85.33022547875365,27.695894183954685]}},{"type":"Feature","properties":{},"geometry":{"type":"Point","coordinates":[85.3304177495283,27.695937915225514]}},{"type":"Feature","properties":{},"geometry":{"type":"Point","coordinates":[85.33043649294972,27.695953906993292]}},{"type":"Feature","properties":{},"geometry":{"type":"Point","coordinates":[85.32797920609119,27.693005620753336]}},{"type":"Feature","properties":{},"geometry":{"type":"Point","coordinates":[85.32775282226095,27.69314028117458]}},{"type":"Feature","properties":{},"geometry":{"type":"Point","coordinates":[85.32813440270891,27.693229531971188]}},{"type":"Feature","properties":{},"geometry":{"type":"Point","coordinates":[85.32813896948122,27.69328629342911]}},{"type":"Feature","properties":{},"geometry":{"type":"Point","coordinates":[85.3281744686823,27.69327487788881]}},{"type":"Feature","properties":{},"geometry":{"type":"Point","coordinates":[85.32815452828513,27.693380666900417]}},{"type":"Feature","properties":{},"geometry":{"type":"Point","coordinates":[85.32819011256517,27.693363936364623]}},{"type":"Feature","properties":{},"geometry":{"type":"Point","coordinates":[85.32830903605252,27.693418405132647]}},{"type":"Feature","properties":{},"geometry":{"type":"Point","coordinates":[85.32816863980608,27.69347087387243]}},{"type":"Feature","properties":{},"geometry":{"type":"Point","coordinates":[85.3282387736539,27.69358929134362]}},{"type":"Feature","properties":{},"geometry":{"type":"Point","coordinates":[85.32823034826406,27.69366683599715]}},{"type":"Feature","properties":{},"geometry":{"type":"Point","coordinates":[85.328454935449,27.693672624222053]}},{"type":"Feature","properties":{},"geometry":{"type":"Point","coordinates":[85.32847984619018,27.693646619220917]}},{"type":"Feature","properties":{},"geometry":{"type":"Point","coordinates":[85.3285863927833,27.693644512720233]}},{"type":"Feature","properties":{},"geometry":{"type":"Point","coordinates":[85.32811389558252,27.692921527422346]}},{"type":"Feature","properties":{},"geometry":{"type":"Point","coordinates":[85.32867754454212,27.692905533576067]}},{"type":"Feature","properties":{},"geometry":{"type":"Point","coordinates":[85.32873502513509,27.693018382779258]}},{"type":"Feature","properties":{},"geometry":{"type":"Point","coordinates":[85.32877325674248,27.69316266019229]}},{"type":"Feature","properties":{},"geometry":{"type":"Point","coordinates":[85.32881283046501,27.693162125168218]}},{"type":"Feature","properties":{},"geometry":{"type":"Point","coordinates":[85.32883381558534,27.693189797018615]}},{"type":"Feature","properties":{},"geometry":{"type":"Point","coordinates":[85.32882288409031,27.693246644884592]}},{"type":"Feature","properties":{},"geometry":{"type":"Point","coordinates":[85.3288737311748,27.693342486643257]}},{"type":"Feature","properties":{},"geometry":{"type":"Point","coordinates":[85.32889904005705,27.69339038176353]}},{"type":"Feature","properties":{},"geometry":{"type":"Point","coordinates":[85.32874319261583,27.693531360931757]}},{"type":"Feature","properties":{},"geometry":{"type":"Point","coordinates":[85.3289785863086,27.69348902298163]}},{"type":"Feature","properties":{},"geometry":{"type":"Point","coordinates":[85.32900311923282,27.69353867230313]}},{"type":"Feature","properties":{},"geometry":{"type":"Point","coordinates":[85.3290403567447,27.693682676815513]}},{"type":"Feature","properties":{},"geometry":{"type":"Point","coordinates":[85.32907250614198,27.693674571790307]}},{"type":"Feature","properties":{},"geometry":{"type":"Point","coordinates":[85.329052128138,27.693703492687074]}},{"type":"Feature","properties":{},"geometry":{"type":"Point","coordinates":[85.32908820889432,27.693768470369772]}},{"type":"Feature","properties":{},"geometry":{"type":"Point","coordinates":[85.32914196146338,27.693853924450423]}},{"type":"Feature","properties":{},"geometry":{"type":"Point","coordinates":[85.32919386046328,27.69395356770129]}},{"type":"Feature","properties":{},"geometry":{"type":"Point","coordinates":[85.3291385509348,27.69404995872254]}},{"type":"Feature","properties":{},"geometry":{"type":"Point","coordinates":[85.32908499416713,27.694085587723514]}},{"type":"Feature","properties":{},"geometry":{"type":"Point","coordinates":[85.32902601236891,27.694061921376516]}},{"type":"Feature","properties":{},"geometry":{"type":"Point","coordinates":[85.32899603183954,27.694072082396794]}},{"type":"Feature","properties":{},"geometry":{"type":"Point","coordinates":[85.32897227822113,27.694105931077765]}},{"type":"Feature","properties":{},"geometry":{"type":"Point","coordinates":[85.32895352029182,27.694109564902828]}},{"type":"Feature","properties":{},"geometry":{"type":"Point","coordinates":[85.32893682417351,27.69409173659719]}},{"type":"Feature","properties":{},"geometry":{"type":"Point","coordinates":[85.32880583177216,27.694143145236247]}},{"type":"Feature","properties":{},"geometry":{"type":"Point","coordinates":[85.32877748267077,27.694148913331116]}},{"type":"Feature","properties":{},"geometry":{"type":"Point","coordinates":[85.32929996319332,27.694194752167594]}},{"type":"Feature","properties":{},"geometry":{"type":"Point","coordinates":[85.32922838361566,27.694287807832186]}},{"type":"Feature","properties":{},"geometry":{"type":"Point","coordinates":[85.32919388016087,27.694274306310863]}},{"type":"Feature","properties":{},"geometry":{"type":"Point","coordinates":[85.32914670613899,27.69429402909077]}},{"type":"Feature","properties":{},"geometry":{"type":"Point","coordinates":[85.32911489002771,27.694338092137944]}},{"type":"Feature","properties":{},"geometry":{"type":"Point","coordinates":[85.32879442216681,27.693627059316125]}},{"type":"Feature","properties":{},"geometry":{"type":"Point","coordinates":[85.32887616722284,27.6937546917721]}},{"type":"Feature","properties":{},"geometry":{"type":"Point","coordinates":[85.32871809082995,27.69350415202709]}},{"type":"Feature","properties":{},"geometry":{"type":"Point","coordinates":[85.3286411952351,27.693419491574698]}},{"type":"Feature","properties":{},"geometry":{"type":"Point","coordinates":[85.32844554256764,27.69332853995924]}},{"type":"Feature","properties":{},"geometry":{"type":"Point","coordinates":[85.32840887675128,27.69325567760137]}},{"type":"Feature","properties":{},"geometry":{"type":"Point","coordinates":[85.3284239505286,27.693196430260674]}},{"type":"Feature","properties":{},"geometry":{"type":"Point","coordinates":[85.32806998965783,27.693656707325275]}},{"type":"Feature","properties":{},"geometry":{"type":"Point","coordinates":[85.32805477300403,27.693675146800807]}},{"type":"Feature","properties":{},"geometry":{"type":"Point","coordinates":[85.32801949705163,27.693492270358842]}},{"type":"Feature","properties":{},"geometry":{"type":"Point","coordinates":[85.3279457421486,27.693521513166807]}},{"type":"Feature","properties":{},"geometry":{"type":"Point","coordinates":[85.32831261336979,27.69376568730851]}},{"type":"Feature","properties":{},"geometry":{"type":"Point","coordinates":[85.32832158606088,27.69379528916749]}},{"type":"Feature","properties":{},"geometry":{"type":"Point","coordinates":[85.3283295499326,27.693827215548406]}},{"type":"Feature","properties":{},"geometry":{"type":"Point","coordinates":[85.3283310534668,27.693829755425504]}},{"type":"Feature","properties":{},"geometry":{"type":"Point","coordinates":[85.32831681147317,27.693920711248374]}},{"type":"Feature","properties":{},"geometry":{"type":"Point","coordinates":[85.32831896567633,27.69392347017799]}},{"type":"Feature","properties":{},"geometry":{"type":"Point","coordinates":[85.32836913685185,27.6939468743095]}},{"type":"Feature","properties":{},"geometry":{"type":"Point","coordinates":[85.3283698179736,27.69407212759425]}},{"type":"Feature","properties":{},"geometry":{"type":"Point","coordinates":[85.32819701788439,27.694074477325003]}},{"type":"Feature","properties":{},"geometry":{"type":"Point","coordinates":[85.32817538528182,27.694101802568134]}},{"type":"Feature","properties":{},"geometry":{"type":"Point","coordinates":[85.328134970968,27.694086281716004]}},{"type":"Feature","properties":{},"geometry":{"type":"Point","coordinates":[85.32807200863827,27.694120560251545]}},{"type":"Feature","properties":{},"geometry":{"type":"Point","coordinates":[85.3284448536947,27.694159880445213]}},{"type":"Feature","properties":{},"geometry":{"type":"Point","coordinates":[85.3284672143978,27.69421679623477]}},{"type":"Feature","properties":{},"geometry":{"type":"Point","coordinates":[85.32846433394417,27.694225832088996]}},{"type":"Feature","properties":{},"geometry":{"type":"Point","coordinates":[85.32841740560131,27.694208462777254]}},{"type":"Feature","properties":{},"geometry":{"type":"Point","coordinates":[85.32863608118508,27.69400648725786]}},{"type":"Feature","properties":{},"geometry":{"type":"Point","coordinates":[85.32872671165143,27.69399687878339]}},{"type":"Feature","properties":{},"geometry":{"type":"Point","coordinates":[85.3290497798233,27.692978713763807]}},{"type":"Feature","properties":{},"geometry":{"type":"Point","coordinates":[85.32932649955312,27.694578669743887]}},{"type":"Feature","properties":{},"geometry":{"type":"Point","coordinates":[85.32916367621146,27.694684401801087]}},{"type":"Feature","properties":{},"geometry":{"type":"Point","coordinates":[85.32916173334429,27.694690932675087]}},{"type":"Feature","properties":{},"geometry":{"type":"Point","coordinates":[85.3289291375825,27.69499061622774]}},{"type":"Feature","properties":{},"geometry":{"type":"Point","coordinates":[85.32892278277957,27.69500108221798]}},{"type":"Feature","properties":{},"geometry":{"type":"Point","coordinates":[85.32892121033085,27.695015977879425]}},{"type":"Feature","properties":{},"geometry":{"type":"Point","coordinates":[85.32893896046349,27.695339245451418]}},{"type":"Feature","properties":{},"geometry":{"type":"Point","coordinates":[85.32904765881412,27.695471641865584]}},{"type":"Feature","properties":{},"geometry":{"type":"Point","coordinates":[85.3288499480626,27.695643125607802]}},{"type":"Feature","properties":{},"geometry":{"type":"Point","coordinates":[85.32888437352601,27.695574310116342]}},{"type":"Feature","properties":{},"geometry":{"type":"Point","coordinates":[85.32925368722108,27.695580935015848]}},{"type":"Feature","properties":{},"geometry":{"type":"Point","coordinates":[85.32937506863041,27.69919325084364]}},{"type":"Feature","properties":{},"geometry":{"type":"Point","coordinates":[85.32907084116859,27.697842944572393]}},{"type":"Feature","properties":{},"geometry":{"type":"Point","coordinates":[85.32903236064944,27.69783011521789]}},{"type":"Feature","properties":{},"geometry":{"type":"Point","coordinates":[85.32870666459321,27.698203956028262]}},{"type":"Feature","properties":{},"geometry":{"type":"Point","coordinates":[85.32871081834536,27.69825829994514]}},{"type":"Feature","properties":{},"geometry":{"type":"Point","coordinates":[85.3287474552065,27.698381422164903]}},{"type":"Feature","properties":{},"geometry":{"type":"Point","coordinates":[85.32874830202667,27.69837901806702]}},{"type":"Feature","properties":{},"geometry":{"type":"Point","coordinates":[85.32888857776284,27.698829897625252]}},{"type":"Feature","properties":{},"geometry":{"type":"Point","coordinates":[85.32904211620983,27.698952345896835]}},{"type":"Feature","properties":{},"geometry":{"type":"Point","coordinates":[85.3290714264879,27.69894014338188]}},{"type":"Feature","properties":{},"geometry":{"type":"Point","coordinates":[85.32921922609809,27.698874599631527]}},{"type":"Feature","properties":{},"geometry":{"type":"Point","coordinates":[85.32926348594408,27.698856267762107]}},{"type":"Feature","properties":{},"geometry":{"type":"Point","coordinates":[85.32934308436975,27.69882173284284]}},{"type":"Feature","properties":{},"geometry":{"type":"Point","coordinates":[85.32939170138636,27.69882903086625]}},{"type":"Feature","properties":{},"geometry":{"type":"Point","coordinates":[85.3293528948828,27.698845700201556]}},{"type":"Feature","properties":{},"geometry":{"type":"Point","coordinates":[85.32945916085313,27.69880063475482]}},{"type":"Feature","properties":{},"geometry":{"type":"Point","coordinates":[85.32902753535403,27.69898931343983]}},{"type":"Feature","properties":{},"geometry":{"type":"Point","coordinates":[85.32889968863938,27.69871080583979]}},{"type":"Feature","properties":{},"geometry":{"type":"Point","coordinates":[85.32907611878468,27.69861442562395]}},{"type":"Feature","properties":{},"geometry":{"type":"Point","coordinates":[85.32911411088911,27.698543713594315]}},{"type":"Feature","properties":{},"geometry":{"type":"Point","coordinates":[85.32917208777349,27.698554291699676]}},{"type":"Feature","properties":{},"geometry":{"type":"Point","coordinates":[85.32931214730849,27.69847966682764]}},{"type":"Feature","properties":{},"geometry":{"type":"Point","coordinates":[85.32935584481459,27.69846329208445]}},{"type":"Feature","properties":{},"geometry":{"type":"Point","coordinates":[85.32944051098598,27.69844359930743]}},{"type":"Feature","properties":{},"geometry":{"type":"Point","coordinates":[85.32965769994776,27.698366676305145]}},{"type":"Feature","properties":{},"geometry":{"type":"Point","coordinates":[85.32974568594145,27.69834604502587]}},{"type":"Feature","properties":{},"geometry":{"type":"Point","coordinates":[85.32969923575685,27.698355545358254]}},{"type":"Feature","properties":{},"geometry":{"type":"Point","coordinates":[85.32970346066148,27.698355375204873]}},{"type":"Feature","properties":{},"geometry":{"type":"Point","coordinates":[85.32971007393654,27.698351783417625]}},{"type":"Feature","properties":{},"geometry":{"type":"Point","coordinates":[85.3298387274672,27.69829113536106]}},{"type":"Feature","properties":{},"geometry":{"type":"Point","coordinates":[85.32973327822879,27.69831204159357]}},{"type":"Feature","properties":{},"geometry":{"type":"Point","coordinates":[85.32968247910479,27.698324264794802]}},{"type":"Feature","properties":{},"geometry":{"type":"Point","coordinates":[85.3295574025803,27.69836162765527]}},{"type":"Feature","properties":{},"geometry":{"type":"Point","coordinates":[85.32940729741173,27.698401712834784]}},{"type":"Feature","properties":{},"geometry":{"type":"Point","coordinates":[85.32947388652782,27.698521058116306]}},{"type":"Feature","properties":{},"geometry":{"type":"Point","coordinates":[85.32956633512097,27.698688666044724]}},{"type":"Feature","properties":{},"geometry":{"type":"Point","coordinates":[85.32971274329681,27.698628689031857]}},{"type":"Feature","properties":{},"geometry":{"type":"Point","coordinates":[85.32977916022017,27.698591166230898]}},{"type":"Feature","properties":{},"geometry":{"type":"Point","coordinates":[85.32961511639033,27.698828529774723]}},{"type":"Feature","properties":{},"geometry":{"type":"Point","coordinates":[85.329645240077,27.69890240319334]}},{"type":"Feature","properties":{},"geometry":{"type":"Point","coordinates":[85.32962499169211,27.698651824977933]}},{"type":"Feature","properties":{},"geometry":{"type":"Point","coordinates":[85.32935793857388,27.698373760947646]}},{"type":"Feature","properties":{},"geometry":{"type":"Point","coordinates":[85.32932229944582,27.69832336031649]}},{"type":"Feature","properties":{},"geometry":{"type":"Point","coordinates":[85.32932674856748,27.69828450327959]}},{"type":"Feature","properties":{},"geometry":{"type":"Point","coordinates":[85.32929544358642,27.698294532814373]}},{"type":"Feature","properties":{},"geometry":{"type":"Point","coordinates":[85.32929453228299,27.69826169427752]}},{"type":"Feature","properties":{},"geometry":{"type":"Point","coordinates":[85.32925253044554,27.69823525265072]}},{"type":"Feature","properties":{},"geometry":{"type":"Point","coordinates":[85.32921361383555,27.698137076585645]}},{"type":"Feature","properties":{},"geometry":{"type":"Point","coordinates":[85.3293190417386,27.698093199694647]}},{"type":"Feature","properties":{},"geometry":{"type":"Point","coordinates":[85.32944739918977,27.698017963219193]}},{"type":"Feature","properties":{},"geometry":{"type":"Point","coordinates":[85.32959328006616,27.69793089802688]}},{"type":"Feature","properties":{},"geometry":{"type":"Point","coordinates":[85.32958436673471,27.697911473210876]}},{"type":"Feature","properties":{},"geometry":{"type":"Point","coordinates":[85.3296105059276,27.697894873895944]}},{"type":"Feature","properties":{},"geometry":{"type":"Point","coordinates":[85.32968330846477,27.697878334832737]}},{"type":"Feature","properties":{},"geometry":{"type":"Point","coordinates":[85.32975074266935,27.697839101332683]}},{"type":"Feature","properties":{},"geometry":{"type":"Point","coordinates":[85.3293231807842,27.69798489222065]}},{"type":"Feature","properties":{},"geometry":{"type":"Point","coordinates":[85.32932139748402,27.697929082292912]}},{"type":"Feature","properties":{},"geometry":{"type":"Point","coordinates":[85.32929815646114,27.69794573457556]}},{"type":"Feature","properties":{},"geometry":{"type":"Point","coordinates":[85.32922978867491,27.69788474557609]}},{"type":"Feature","properties":{},"geometry":{"type":"Point","coordinates":[85.32919025393703,27.697826824791086]}},{"type":"Feature","properties":{},"geometry":{"type":"Point","coordinates":[85.32932031772127,27.697780147641303]}},{"type":"Feature","properties":{},"geometry":{"type":"Point","coordinates":[85.32931726640382,27.697747472814005]}},{"type":"Feature","properties":{},"geometry":{"type":"Point","coordinates":[85.32937088025098,27.697714071976804]}},{"type":"Feature","properties":{},"geometry":{"type":"Point","coordinates":[85.3291821490989,27.697750866769265]}},{"type":"Feature","properties":{},"geometry":{"type":"Point","coordinates":[85.32915743767256,27.69770042739431]}},{"type":"Feature","properties":{},"geometry":{"type":"Point","coordinates":[85.32894009347017,27.697900757007908]}},{"type":"Feature","properties":{},"geometry":{"type":"Point","coordinates":[85.32911633112771,27.697955711200226]}},{"type":"Feature","properties":{},"geometry":{"type":"Point","coordinates":[85.32911456139539,27.697989745751613]}},{"type":"Feature","properties":{},"geometry":{"type":"Point","coordinates":[85.3291515841819,27.69800421728163]}},{"type":"Feature","properties":{},"geometry":{"type":"Point","coordinates":[85.32870649146535,27.698027385448075]}},{"type":"Feature","properties":{},"geometry":{"type":"Point","coordinates":[85.32874479467469,27.698080736329786]}},{"type":"Feature","properties":{},"geometry":{"type":"Point","coordinates":[85.32874290577696,27.698080391318044]}},{"type":"Feature","properties":{},"geometry":{"type":"Point","coordinates":[85.32890782287211,27.69800612015261]}},{"type":"Feature","properties":{},"geometry":{"type":"Point","coordinates":[85.3289697963701,27.69807881581881]}},{"type":"Feature","properties":{},"geometry":{"type":"Point","coordinates":[85.32897427737738,27.69811787719843]}},{"type":"Feature","properties":{},"geometry":{"type":"Point","coordinates":[85.32876645891959,27.69806748577362]}},{"type":"Feature","properties":{},"geometry":{"type":"Point","coordinates":[85.32965853759865,27.69812922464141]}},{"type":"Feature","properties":{},"geometry":{"type":"Point","coordinates":[85.32968547900003,27.698170483926837]}},{"type":"Feature","properties":{},"geometry":{"type":"Point","coordinates":[85.3296897404547,27.698155860780936]}},{"type":"Feature","properties":{},"geometry":{"type":"Point","coordinates":[85.33040395398723,27.697469447922682]}},{"type":"Feature","properties":{},"geometry":{"type":"Point","coordinates":[85.33036985288003,27.697466277591932]}},{"type":"Feature","properties":{},"geometry":{"type":"Point","coordinates":[85.33031024151185,27.69753039699919]}},{"type":"Feature","properties":{},"geometry":{"type":"Point","coordinates":[85.33026912949391,27.697520973162412]}},{"type":"Feature","properties":{},"geometry":{"type":"Point","coordinates":[85.33019398828066,27.69757905669833]}},{"type":"Feature","properties":{},"geometry":{"type":"Point","coordinates":[85.33004035266896,27.697622737307558]}},{"type":"Feature","properties":{},"geometry":{"type":"Point","coordinates":[85.33007450640015,27.697607467453018]}},{"type":"Feature","properties":{},"geometry":{"type":"Point","coordinates":[85.32993145382233,27.697700429361543]}},{"type":"Feature","properties":{},"geometry":{"type":"Point","coordinates":[85.3299419729059,27.697745392225144]}},{"type":"Feature","properties":{},"geometry":{"type":"Point","coordinates":[85.32997783653167,27.697789846704524]}},{"type":"Feature","properties":{},"geometry":{"type":"Point","coordinates":[85.33001320121794,27.6977988745822]}},{"type":"Feature","properties":{},"geometry":{"type":"Point","coordinates":[85.33028987473173,27.697970082266174]}},{"type":"Feature","properties":{},"geometry":{"type":"Point","coordinates":[85.33022076405892,27.698000617794175]}},{"type":"Feature","properties":{},"geometry":{"type":"Point","coordinates":[85.32997981165056,27.69813843893955]}},{"type":"Feature","properties":{},"geometry":{"type":"Point","coordinates":[85.32989203447553,27.698246195135596]}},{"type":"Feature","properties":{},"geometry":{"type":"Point","coordinates":[85.32989312083197,27.698198355946136]}},{"type":"Feature","properties":{},"geometry":{"type":"Point","coordinates":[85.32997381519289,27.69809739083966]}},{"type":"Feature","properties":{},"geometry":{"type":"Point","coordinates":[85.32990887454571,27.698029323285155]}},{"type":"Feature","properties":{},"geometry":{"type":"Point","coordinates":[85.32989806690911,27.6980472646708]}},{"type":"Feature","properties":{},"geometry":{"type":"Point","coordinates":[85.32992372967358,27.698226782748876]}},{"type":"Feature","properties":{},"geometry":{"type":"Point","coordinates":[85.3304822437481,27.69766243933894]}},{"type":"Feature","properties":{},"geometry":{"type":"Point","coordinates":[85.33049520228622,27.697722554714467]}},{"type":"Feature","properties":{},"geometry":{"type":"Point","coordinates":[85.33045357653228,27.697803436608044]}},{"type":"Feature","properties":{},"geometry":{"type":"Point","coordinates":[85.33041466101899,27.697794326309555]}},{"type":"Feature","properties":{},"geometry":{"type":"Point","coordinates":[85.33036734428042,27.697875562840807]}},{"type":"Feature","properties":{},"geometry":{"type":"Point","coordinates":[85.33040992369916,27.697881589098653]}},{"type":"Feature","properties":{},"geometry":{"type":"Point","coordinates":[85.3304062286764,27.697889583553142]}},{"type":"Feature","properties":{},"geometry":{"type":"Point","coordinates":[85.33033006307802,27.697937811590005]}},{"type":"Feature","properties":{},"geometry":{"type":"Point","coordinates":[85.33032886501202,27.69801838222662]}},{"type":"Feature","properties":{},"geometry":{"type":"Point","coordinates":[85.3303191528911,27.698048492403334]}},{"type":"Feature","properties":{},"geometry":{"type":"Point","coordinates":[85.33047646182423,27.698095940251253]}},{"type":"Feature","properties":{},"geometry":{"type":"Point","coordinates":[85.33055286771224,27.69810254766066]}},{"type":"Feature","properties":{},"geometry":{"type":"Point","coordinates":[85.3302466700485,27.698120630030182]}},{"type":"Feature","properties":{},"geometry":{"type":"Point","coordinates":[85.33020372476693,27.698183192205338]}},{"type":"Feature","properties":{},"geometry":{"type":"Point","coordinates":[85.33017104366182,27.698227738712667]}},{"type":"Feature","properties":{},"geometry":{"type":"Point","coordinates":[85.33018457418424,27.698296166273238]}},{"type":"Feature","properties":{},"geometry":{"type":"Point","coordinates":[85.3302754204627,27.698226114823903]}},{"type":"Feature","properties":{},"geometry":{"type":"Point","coordinates":[85.33035208698345,27.698255173714514]}},{"type":"Feature","properties":{},"geometry":{"type":"Point","coordinates":[85.3304667035356,27.698304492154694]}},{"type":"Feature","properties":{},"geometry":{"type":"Point","coordinates":[85.33045086990728,27.69830708738889]}},{"type":"Feature","properties":{},"geometry":{"type":"Point","coordinates":[85.33015666155265,27.698364513669844]}},{"type":"Feature","properties":{},"geometry":{"type":"Point","coordinates":[85.33009730572606,27.698466287716485]}},{"type":"Feature","properties":{},"geometry":{"type":"Point","coordinates":[85.33012127337176,27.69837693102963]}},{"type":"Feature","properties":{},"geometry":{"type":"Point","coordinates":[85.33030994365873,27.698463956889825]}},{"type":"Feature","properties":{},"geometry":{"type":"Point","coordinates":[85.32991791884584,27.698857217760644]}},{"type":"Feature","properties":{},"geometry":{"type":"Point","coordinates":[85.32993249815561,27.69890896984253]}},{"type":"Feature","properties":{},"geometry":{"type":"Point","coordinates":[85.32986854850122,27.69896052192527]}},{"type":"Feature","properties":{},"geometry":{"type":"Point","coordinates":[85.3298503360889,27.698979020200063]}},{"type":"Feature","properties":{},"geometry":{"type":"Point","coordinates":[85.32987747183383,27.699055946955585]}},{"type":"Feature","properties":{},"geometry":{"type":"Point","coordinates":[85.32981065062211,27.69911480841377]}},{"type":"Feature","properties":{},"geometry":{"type":"Point","coordinates":[85.32982861657933,27.699214580907388]}},{"type":"Feature","properties":{},"geometry":{"type":"Point","coordinates":[85.3298083778098,27.69931247459614]}},{"type":"Feature","properties":{},"geometry":{"type":"Point","coordinates":[85.33000710580916,27.698691265914167]}},{"type":"Feature","properties":{},"geometry":{"type":"Point","coordinates":[85.33005271665733,27.698474427005866]}},{"type":"Feature","properties":{},"geometry":{"type":"Point","coordinates":[85.33005013973178,27.698565492994774]}},{"type":"Feature","properties":{},"geometry":{"type":"Point","coordinates":[85.32995889267238,27.69872723670802]}},{"type":"Feature","properties":{},"geometry":{"type":"Point","coordinates":[85.33001316295709,27.698582610595913]}},{"type":"Feature","properties":{},"geometry":{"type":"Point","coordinates":[85.33021644395467,27.698001713734527]}},{"type":"Feature","properties":{},"geometry":{"type":"Point","coordinates":[85.32875475115529,27.699514199073754]}},{"type":"Feature","properties":{},"geometry":{"type":"Point","coordinates":[85.32875394274748,27.699513748870764]}},{"type":"Feature","properties":{},"geometry":{"type":"Point","coordinates":[85.32898670915004,27.699635457722625]}},{"type":"Feature","properties":{},"geometry":{"type":"Point","coordinates":[85.32939463311698,27.69960319843991]}},{"type":"Feature","properties":{},"geometry":{"type":"Point","coordinates":[85.32934105250736,27.699613118919192]}},{"type":"Feature","properties":{},"geometry":{"type":"Point","coordinates":[85.32976564693915,27.699639710093763]}},{"type":"Feature","properties":{},"geometry":{"type":"Point","coordinates":[85.32968251016781,27.699614915863222]}},{"type":"Feature","properties":{},"geometry":{"type":"Point","coordinates":[85.32981086236146,27.699528876433135]}},{"type":"Feature","properties":{},"geometry":{"type":"Point","coordinates":[85.32981040289502,27.699428933361435]}},{"type":"Feature","properties":{},"geometry":{"type":"Point","coordinates":[85.32981128788171,27.69942568673586]}},{"type":"Feature","properties":{},"geometry":{"type":"Point","coordinates":[85.32983051844151,27.699331342347232]}},{"type":"Feature","properties":{},"geometry":{"type":"Point","coordinates":[85.32983082354306,27.699327221375466]}},{"type":"Feature","properties":{},"geometry":{"type":"Point","coordinates":[85.32975690347052,27.69945277410749]}},{"type":"Feature","properties":{},"geometry":{"type":"Point","coordinates":[85.32932851261765,27.699542592190568]}},{"type":"Feature","properties":{},"geometry":{"type":"Point","coordinates":[85.3291911925047,27.699546130985205]}},{"type":"Feature","properties":{},"geometry":{"type":"Point","coordinates":[85.32915908055539,27.699572031998834]}},{"type":"Feature","properties":{},"geometry":{"type":"Point","coordinates":[85.32914316575624,27.69949873521603]}},{"type":"Feature","properties":{},"geometry":{"type":"Point","coordinates":[85.32939025361479,27.69939855203021]}},{"type":"Feature","properties":{},"geometry":{"type":"Point","coordinates":[85.32930967445732,27.699212325925643]}},{"type":"Feature","properties":{},"geometry":{"type":"Point","coordinates":[85.32964178814493,27.699319298914958]}},{"type":"Feature","properties":{},"geometry":{"type":"Point","coordinates":[85.32962612795907,27.699363694121672]}},{"type":"Feature","properties":{},"geometry":{"type":"Point","coordinates":[85.32961746354026,27.699451760565797]}},{"type":"Feature","properties":{},"geometry":{"type":"Point","coordinates":[85.32960327954574,27.699585186639506]}},{"type":"Feature","properties":{},"geometry":{"type":"Point","coordinates":[85.32964207247485,27.69927179844566]}},{"type":"Feature","properties":{},"geometry":{"type":"Point","coordinates":[85.32958066777712,27.699132853743926]}},{"type":"Feature","properties":{},"geometry":{"type":"Point","coordinates":[85.32960896406487,27.699142688170674]}},{"type":"Feature","properties":{},"geometry":{"type":"Point","coordinates":[85.3295840310915,27.69908412685447]}},{"type":"Feature","properties":{},"geometry":{"type":"Point","coordinates":[85.32956240511635,27.699093392335804]}},{"type":"Feature","properties":{},"geometry":{"type":"Point","coordinates":[85.33050643510025,27.697531768316512]}},{"type":"Feature","properties":{},"geometry":{"type":"Point","coordinates":[85.33050877755275,27.697393386883487]}},{"type":"Feature","properties":{},"geometry":{"type":"Point","coordinates":[85.33037331854513,27.69726164267298]}},{"type":"Feature","properties":{},"geometry":{"type":"Point","coordinates":[85.33026770135174,27.69715449982931]}},{"type":"Feature","properties":{},"geometry":{"type":"Point","coordinates":[85.3300241085945,27.6969469736222]}},{"type":"Feature","properties":{},"geometry":{"type":"Point","coordinates":[85.3300588060537,27.6969717709113]}},{"type":"Feature","properties":{},"geometry":{"type":"Point","coordinates":[85.3299370189051,27.696843477387006]}},{"type":"Feature","properties":{},"geometry":{"type":"Point","coordinates":[85.32977506441577,27.696853064647197]}},{"type":"Feature","properties":{},"geometry":{"type":"Point","coordinates":[85.32980284402743,27.696675832966026]}},{"type":"Feature","properties":{},"geometry":{"type":"Point","coordinates":[85.32989708027773,27.696390641120445]}},{"type":"Feature","properties":{},"geometry":{"type":"Point","coordinates":[85.32995746900718,27.69634789731614]}},{"type":"Feature","properties":{},"geometry":{"type":"Point","coordinates":[85.33000701425459,27.696359561092915]}},{"type":"Feature","properties":{},"geometry":{"type":"Point","coordinates":[85.33006714810612,27.696421476591834]}},{"type":"Feature","properties":{},"geometry":{"type":"Point","coordinates":[85.33012971047391,27.69648412805309]}},{"type":"Feature","properties":{},"geometry":{"type":"Point","coordinates":[85.33028721014205,27.69651143343122]}},{"type":"Feature","properties":{},"geometry":{"type":"Point","coordinates":[85.33033285119899,27.696411476749518]}},{"type":"Feature","properties":{},"geometry":{"type":"Point","coordinates":[85.33042899716338,27.69634440427711]}},{"type":"Feature","properties":{},"geometry":{"type":"Point","coordinates":[85.33047461269562,27.696313134018222]}},{"type":"Feature","properties":{},"geometry":{"type":"Point","coordinates":[85.33049302257976,27.69630174379697]}},{"type":"Feature","properties":{},"geometry":{"type":"Point","coordinates":[85.3304107586293,27.696772102373522]}},{"type":"Feature","properties":{},"geometry":{"type":"Point","coordinates":[85.33049332318053,27.696859083046956]}},{"type":"Feature","properties":{},"geometry":{"type":"Point","coordinates":[85.33045545760636,27.696897065157536]}},{"type":"Feature","properties":{},"geometry":{"type":"Point","coordinates":[85.33055497447171,27.69641138260348]}},{"type":"Feature","properties":{},"geometry":{"type":"Point","coordinates":[85.33051233118637,27.696453761214546]}},{"type":"Feature","properties":{},"geometry":{"type":"Point","coordinates":[85.33064271289082,27.696506316569653]}},{"type":"Feature","properties":{},"geometry":{"type":"Point","coordinates":[85.33073502092903,27.696682980064672]}},{"type":"Feature","properties":{},"geometry":{"type":"Point","coordinates":[85.33086902164099,27.696821584677586]}},{"type":"Feature","properties":{},"geometry":{"type":"Point","coordinates":[85.33091132944755,27.69686649477976]}},{"type":"Feature","properties":{},"geometry":{"type":"Point","coordinates":[85.3310778741754,27.696953881891417]}},{"type":"Feature","properties":{},"geometry":{"type":"Point","coordinates":[85.33116391273077,27.697048367249064]}},{"type":"Feature","properties":{},"geometry":{"type":"Point","coordinates":[85.33118287325719,27.69706936979192]}},{"type":"Feature","properties":{},"geometry":{"type":"Point","coordinates":[85.33097822456772,27.696935194654312]}},{"type":"Feature","properties":{},"geometry":{"type":"Point","coordinates":[85.33148988837529,27.697388385061064]}},{"type":"Feature","properties":{},"geometry":{"type":"Point","coordinates":[85.3314720881085,27.69741388781579]}},{"type":"Feature","properties":{},"geometry":{"type":"Point","coordinates":[85.33142385696068,27.697448645012297]}},{"type":"Feature","properties":{},"geometry":{"type":"Point","coordinates":[85.33143899229039,27.697335430081115]}},{"type":"Feature","properties":{},"geometry":{"type":"Point","coordinates":[85.33134411155801,27.697320177911887]}},{"type":"Feature","properties":{},"geometry":{"type":"Point","coordinates":[85.33137917287318,27.697272758085017]}},{"type":"Feature","properties":{},"geometry":{"type":"Point","coordinates":[85.33123712966515,27.69721002556985]}},{"type":"Feature","properties":{},"geometry":{"type":"Point","coordinates":[85.33119301946508,27.697165666052943]}},{"type":"Feature","properties":{},"geometry":{"type":"Point","coordinates":[85.33134477109259,27.697526847338104]}},{"type":"Feature","properties":{},"geometry":{"type":"Point","coordinates":[85.33118126446355,27.69755101535803]}},{"type":"Feature","properties":{},"geometry":{"type":"Point","coordinates":[85.3311793009326,27.697607494951686]}},{"type":"Feature","properties":{},"geometry":{"type":"Point","coordinates":[85.3311361535911,27.69761094157289]}},{"type":"Feature","properties":{},"geometry":{"type":"Point","coordinates":[85.33105979369262,27.697448849999816]}},{"type":"Feature","properties":{},"geometry":{"type":"Point","coordinates":[85.3309954943711,27.697462631225367]}},{"type":"Feature","properties":{},"geometry":{"type":"Point","coordinates":[85.33099499399434,27.697461596286036]}},{"type":"Feature","properties":{},"geometry":{"type":"Point","coordinates":[85.33102077961307,27.697409835388733]}},{"type":"Feature","properties":{},"geometry":{"type":"Point","coordinates":[85.33092601186522,27.697390890156264]}},{"type":"Feature","properties":{},"geometry":{"type":"Point","coordinates":[85.3309210722615,27.697382655306914]}},{"type":"Feature","properties":{},"geometry":{"type":"Point","coordinates":[85.33094143756702,27.697323065342612]}},{"type":"Feature","properties":{},"geometry":{"type":"Point","coordinates":[85.33074655268258,27.69720113693832]}},{"type":"Feature","properties":{},"geometry":{"type":"Point","coordinates":[85.33065952523219,27.697115546675736]}},{"type":"Feature","properties":{},"geometry":{"type":"Point","coordinates":[85.33056767388659,27.69706329977527]}},{"type":"Feature","properties":{},"geometry":{"type":"Point","coordinates":[85.33062253521868,27.696994188724698]}},{"type":"Feature","properties":{},"geometry":{"type":"Point","coordinates":[85.33073104496131,27.697110631761547]}},{"type":"Feature","properties":{},"geometry":{"type":"Point","coordinates":[85.33082092599489,27.697281771218005]}},{"type":"Feature","properties":{},"geometry":{"type":"Point","coordinates":[85.33141443076855,27.697742077802697]}},{"type":"Feature","properties":{},"geometry":{"type":"Point","coordinates":[85.33109470804,27.697805705132463]}},{"type":"Feature","properties":{},"geometry":{"type":"Point","coordinates":[85.33097839451386,27.69777962728523]}},{"type":"Feature","properties":{},"geometry":{"type":"Point","coordinates":[85.33086998423602,27.697721958791536]}},{"type":"Feature","properties":{},"geometry":{"type":"Point","coordinates":[85.33094352048613,27.69774081418831]}},{"type":"Feature","properties":{},"geometry":{"type":"Point","coordinates":[85.33061612765927,27.697615090386407]}},{"type":"Feature","properties":{},"geometry":{"type":"Point","coordinates":[85.33062024551266,27.697654732206907]}},{"type":"Feature","properties":{},"geometry":{"type":"Point","coordinates":[85.33071169407489,27.69764499520375]}},{"type":"Feature","properties":{},"geometry":{"type":"Point","coordinates":[85.33073883949685,27.69770791525265]}},{"type":"Feature","properties":{},"geometry":{"type":"Point","coordinates":[85.33084612431743,27.697754511330107]}},{"type":"Feature","properties":{},"geometry":{"type":"Point","coordinates":[85.33086051429659,27.69771470906072]}},{"type":"Feature","properties":{},"geometry":{"type":"Point","coordinates":[85.33018212285195,27.69894520911424]}},{"type":"Feature","properties":{},"geometry":{"type":"Point","coordinates":[85.33020310920742,27.699043959309957]}},{"type":"Feature","properties":{},"geometry":{"type":"Point","coordinates":[85.3302178017495,27.699146031693274]}},{"type":"Feature","properties":{},"geometry":{"type":"Point","coordinates":[85.33026578022432,27.699152192624165]}},{"type":"Feature","properties":{},"geometry":{"type":"Point","coordinates":[85.3303115399335,27.69924149043635]}},{"type":"Feature","properties":{},"geometry":{"type":"Point","coordinates":[85.3303215870782,27.699293492884426]}},{"type":"Feature","properties":{},"geometry":{"type":"Point","coordinates":[85.3310501152035,27.69794959819766]}},{"type":"Feature","properties":{},"geometry":{"type":"Point","coordinates":[85.33084351316585,27.69814219556124]}},{"type":"Feature","properties":{},"geometry":{"type":"Point","coordinates":[85.33066214322956,27.698312849869982]}},{"type":"Feature","properties":{},"geometry":{"type":"Point","coordinates":[85.33053247822458,27.698432583682543]}},{"type":"Feature","properties":{},"geometry":{"type":"Point","coordinates":[85.33043499411112,27.698533420657412]}},{"type":"Feature","properties":{},"geometry":{"type":"Point","coordinates":[85.33038770484349,27.69857719175595]}},{"type":"Feature","properties":{},"geometry":{"type":"Point","coordinates":[85.33026259750966,27.698738002053737]}},{"type":"Feature","properties":{},"geometry":{"type":"Point","coordinates":[85.33014878646208,27.699707004972367]}},{"type":"Feature","properties":{},"geometry":{"type":"Point","coordinates":[85.33002857636214,27.699685655570022]}},{"type":"Feature","properties":{},"geometry":{"type":"Point","coordinates":[85.33009036042931,27.699697374930533]}},{"type":"Feature","properties":{},"geometry":{"type":"Point","coordinates":[85.32859771938347,27.697869023305135]}},{"type":"Feature","properties":{},"geometry":{"type":"Point","coordinates":[85.32863016006705,27.69795401542527]}},{"type":"Feature","properties":{},"geometry":{"type":"Point","coordinates":[85.32867248364686,27.697711300957454]}},{"type":"Feature","properties":{},"geometry":{"type":"Point","coordinates":[85.32870047263067,27.69769222769474]}},{"type":"Feature","properties":{},"geometry":{"type":"Point","coordinates":[85.32882320796433,27.697614490651556]}},{"type":"Feature","properties":{},"geometry":{"type":"Point","coordinates":[85.32885422399963,27.697592867186746]}},{"type":"Feature","properties":{},"geometry":{"type":"Point","coordinates":[85.328923567697,27.69754065230137]}},{"type":"Feature","properties":{},"geometry":{"type":"Point","coordinates":[85.32931785439041,27.697144184894263]}},{"type":"Feature","properties":{},"geometry":{"type":"Point","coordinates":[85.3291483198667,27.697367120337958]}},{"type":"Feature","properties":{},"geometry":{"type":"Point","coordinates":[85.32913613256237,27.697374782119592]}},{"type":"Feature","properties":{},"geometry":{"type":"Point","coordinates":[85.32908435799219,27.6973490871529]}},{"type":"Feature","properties":{},"geometry":{"type":"Point","coordinates":[85.32904513193253,27.69738933678821]}},{"type":"Feature","properties":{},"geometry":{"type":"Point","coordinates":[85.32893958351468,27.697474842145795]}},{"type":"Feature","properties":{},"geometry":{"type":"Point","coordinates":[85.32886059775767,27.697536442702273]}},{"type":"Feature","properties":{},"geometry":{"type":"Point","coordinates":[85.32907186304007,27.697418880354686]}},{"type":"Feature","properties":{},"geometry":{"type":"Point","coordinates":[85.32892298478518,27.69704724206113]}},{"type":"Feature","properties":{},"geometry":{"type":"Point","coordinates":[85.32901635562168,27.69710731993615]}},{"type":"Feature","properties":{},"geometry":{"type":"Point","coordinates":[85.32903288165272,27.697124228294197]}},{"type":"Feature","properties":{},"geometry":{"type":"Point","coordinates":[85.32889901367227,27.697026298784223]}},{"type":"Feature","properties":{},"geometry":{"type":"Point","coordinates":[85.32883523701905,27.696939817447593]}},{"type":"Feature","properties":{},"geometry":{"type":"Point","coordinates":[85.32897379609545,27.69688808144768]}},{"type":"Feature","properties":{},"geometry":{"type":"Point","coordinates":[85.32886381620727,27.696770970417205]}},{"type":"Feature","properties":{},"geometry":{"type":"Point","coordinates":[85.32881428218658,27.69672362496062]}},{"type":"Feature","properties":{},"geometry":{"type":"Point","coordinates":[85.32880774144868,27.696726120985538]}},{"type":"Feature","properties":{},"geometry":{"type":"Point","coordinates":[85.32888636373313,27.696857599435834]}},{"type":"Feature","properties":{},"geometry":{"type":"Point","coordinates":[85.32941763945102,27.697064619763164]}},{"type":"Feature","properties":{},"geometry":{"type":"Point","coordinates":[85.32914762824909,27.696853151364444]}},{"type":"Feature","properties":{},"geometry":{"type":"Point","coordinates":[85.32909198764139,27.696780256032508]}},{"type":"Feature","properties":{},"geometry":{"type":"Point","coordinates":[85.3290996808334,27.696788440236855]}},{"type":"Feature","properties":{},"geometry":{"type":"Point","coordinates":[85.3295646978443,27.697061482440095]}},{"type":"Feature","properties":{},"geometry":{"type":"Point","coordinates":[85.32958207551627,27.69702739881348]}},{"type":"Feature","properties":{},"geometry":{"type":"Point","coordinates":[85.32959522418605,27.697087643813724]}},{"type":"Feature","properties":{},"geometry":{"type":"Point","coordinates":[85.32978360555254,27.697288768111765]}},{"type":"Feature","properties":{},"geometry":{"type":"Point","coordinates":[85.329870783905,27.69715689400448]}},{"type":"Feature","properties":{},"geometry":{"type":"Point","coordinates":[85.32988800021586,27.69716956589862]}},{"type":"Feature","properties":{},"geometry":{"type":"Point","coordinates":[85.32970364940647,27.697404944589113]}},{"type":"Feature","properties":{},"geometry":{"type":"Point","coordinates":[85.32979250341958,27.69740583510104]}},{"type":"Feature","properties":{},"geometry":{"type":"Point","coordinates":[85.32989404880846,27.697405313628664]}},{"type":"Feature","properties":{},"geometry":{"type":"Point","coordinates":[85.3298387890784,27.697438545904525]}},{"type":"Feature","properties":{},"geometry":{"type":"Point","coordinates":[85.32988604769395,27.697411685688333]}},{"type":"Feature","properties":{},"geometry":{"type":"Point","coordinates":[85.32969895605169,27.6975604027406]}},{"type":"Feature","properties":{},"geometry":{"type":"Point","coordinates":[85.32961909055751,27.69761647222992]}},{"type":"Feature","properties":{},"geometry":{"type":"Point","coordinates":[85.32955354350796,27.69764611718515]}},{"type":"Feature","properties":{},"geometry":{"type":"Point","coordinates":[85.32957258669025,27.696818379206988]}},{"type":"Feature","properties":{},"geometry":{"type":"Point","coordinates":[85.32958702551363,27.69678351371131]}},{"type":"Feature","properties":{},"geometry":{"type":"Point","coordinates":[85.32953410213864,27.69678532561094]}},{"type":"Feature","properties":{},"geometry":{"type":"Point","coordinates":[85.3295437862316,27.696519552119188]}},{"type":"Feature","properties":{},"geometry":{"type":"Point","coordinates":[85.32959575545297,27.696475847670175]}},{"type":"Feature","properties":{},"geometry":{"type":"Point","coordinates":[85.32954547051935,27.696347424557747]}},{"type":"Feature","properties":{},"geometry":{"type":"Point","coordinates":[85.32949512602843,27.696346499442612]}},{"type":"Feature","properties":{},"geometry":{"type":"Point","coordinates":[85.32944561469913,27.696206706280226]}},{"type":"Feature","properties":{},"geometry":{"type":"Point","coordinates":[85.32944220863939,27.696198522377113]}},{"type":"Feature","properties":{},"geometry":{"type":"Point","coordinates":[85.32950785247695,27.69639178229894]}},{"type":"Feature","properties":{},"geometry":{"type":"Point","coordinates":[85.32948353811793,27.69692510898813]}},{"type":"Feature","properties":{},"geometry":{"type":"Point","coordinates":[85.32939561979214,27.696078832660458]}},{"type":"Feature","properties":{},"geometry":{"type":"Point","coordinates":[85.32930120678988,27.696368441797517]}},{"type":"Feature","properties":{},"geometry":{"type":"Point","coordinates":[85.32930261799773,27.69646792344445]}},{"type":"Feature","properties":{},"geometry":{"type":"Point","coordinates":[85.32918933777272,27.696503717153554]}},{"type":"Feature","properties":{},"geometry":{"type":"Point","coordinates":[85.32921752192833,27.69653198487052]}},{"type":"Feature","properties":{},"geometry":{"type":"Point","coordinates":[85.32931201015,27.696640049263245]}},{"type":"Feature","properties":{},"geometry":{"type":"Point","coordinates":[85.32946416793969,27.696123120241758]}},{"type":"Feature","properties":{},"geometry":{"type":"Point","coordinates":[85.32984004594094,27.696074611136165]}},{"type":"Feature","properties":{},"geometry":{"type":"Point","coordinates":[85.33001570508938,27.696082420550905]}},{"type":"Feature","properties":{},"geometry":{"type":"Point","coordinates":[85.33004088598133,27.696048608773957]}},{"type":"Feature","properties":{},"geometry":{"type":"Point","coordinates":[85.33009239755562,27.696050325760762]}},{"type":"Feature","properties":{},"geometry":{"type":"Point","coordinates":[85.32958741736923,27.696104759281727]}},{"type":"Feature","properties":{},"geometry":{"type":"Point","coordinates":[85.32931136526182,27.695959768789457]}},{"type":"Feature","properties":{},"geometry":{"type":"Point","coordinates":[85.3293032373757,27.69592813200456]}},{"type":"Feature","properties":{},"geometry":{"type":"Point","coordinates":[85.32919406136945,27.6959495416824]}},{"type":"Feature","properties":{},"geometry":{"type":"Point","coordinates":[85.32913536842588,27.695994718133853]}},{"type":"Feature","properties":{},"geometry":{"type":"Point","coordinates":[85.32908797323769,27.696011336132013]}},{"type":"Feature","properties":{},"geometry":{"type":"Point","coordinates":[85.32885399543463,27.695996983961525]}},{"type":"Feature","properties":{},"geometry":{"type":"Point","coordinates":[85.32884521077735,27.696000945723434]}},{"type":"Feature","properties":{},"geometry":{"type":"Point","coordinates":[85.3287377227075,27.696069289049145]}},{"type":"Feature","properties":{},"geometry":{"type":"Point","coordinates":[85.32889623369428,27.6963222763517]}},{"type":"Feature","properties":{},"geometry":{"type":"Point","coordinates":[85.3289132622068,27.696284359977767]}},{"type":"Feature","properties":{},"geometry":{"type":"Point","coordinates":[85.32845708350582,27.697420962299276]}},{"type":"Feature","properties":{},"geometry":{"type":"Point","coordinates":[85.3284519640242,27.697388212850235]}},{"type":"Feature","properties":{},"geometry":{"type":"Point","coordinates":[85.32845561702456,27.697344723374155]}},{"type":"Feature","properties":{},"geometry":{"type":"Point","coordinates":[85.32845599251276,27.69734383799354]}},{"type":"Feature","properties":{},"geometry":{"type":"Point","coordinates":[85.32841235387073,27.697205795054284]}},{"type":"Feature","properties":{},"geometry":{"type":"Point","coordinates":[85.32841218072346,27.697204448164808]}},{"type":"Feature","properties":{},"geometry":{"type":"Point","coordinates":[85.32836793085919,27.697113439623585]}},{"type":"Feature","properties":{},"geometry":{"type":"Point","coordinates":[85.32835493843743,27.69706288077262]}},{"type":"Feature","properties":{},"geometry":{"type":"Point","coordinates":[85.32834731598214,27.69703056230202]}},{"type":"Feature","properties":{},"geometry":{"type":"Point","coordinates":[85.32837419496816,27.696929152337255]}},{"type":"Feature","properties":{},"geometry":{"type":"Point","coordinates":[85.32837423112741,27.696929308012358]}},{"type":"Feature","properties":{},"geometry":{"type":"Point","coordinates":[85.32842166524328,27.696888077314245]}},{"type":"Feature","properties":{},"geometry":{"type":"Point","coordinates":[85.3285167783237,27.696855418807306]}},{"type":"Feature","properties":{},"geometry":{"type":"Point","coordinates":[85.32852108628636,27.696865099216097]}},{"type":"Feature","properties":{},"geometry":{"type":"Point","coordinates":[85.328288466123,27.69681111973595]}},{"type":"Feature","properties":{},"geometry":{"type":"Point","coordinates":[85.32827378321018,27.696766431407955]}},{"type":"Feature","properties":{},"geometry":{"type":"Point","coordinates":[85.32826432371239,27.696745007090087]}},{"type":"Feature","properties":{},"geometry":{"type":"Point","coordinates":[85.32833556002275,27.696571575836263]}},{"type":"Feature","properties":{},"geometry":{"type":"Point","coordinates":[85.32834203754764,27.69659538478428]}},{"type":"Feature","properties":{},"geometry":{"type":"Point","coordinates":[85.3284289536927,27.69656835764898]}},{"type":"Feature","properties":{},"geometry":{"type":"Point","coordinates":[85.32843115993077,27.696581678842826]}},{"type":"Feature","properties":{},"geometry":{"type":"Point","coordinates":[85.32842966559355,27.69657114699961]}},{"type":"Feature","properties":{},"geometry":{"type":"Point","coordinates":[85.32813504791643,27.696225368150607]}},{"type":"Feature","properties":{},"geometry":{"type":"Point","coordinates":[85.32813338881542,27.696224784023062]}},{"type":"Feature","properties":{},"geometry":{"type":"Point","coordinates":[85.32813799401947,27.696247557710223]}},{"type":"Feature","properties":{},"geometry":{"type":"Point","coordinates":[85.32809026442732,27.696070348773116]}},{"type":"Feature","properties":{},"geometry":{"type":"Point","coordinates":[85.32801703014503,27.695875188787483]}},{"type":"Feature","properties":{},"geometry":{"type":"Point","coordinates":[85.3282758852188,27.696377002985475]}},{"type":"Feature","properties":{},"geometry":{"type":"Point","coordinates":[85.32828149905043,27.696411641129796]}},{"type":"Feature","properties":{},"geometry":{"type":"Point","coordinates":[85.32832076892478,27.69640537142478]}},{"type":"Feature","properties":{},"geometry":{"type":"Point","coordinates":[85.32846154590936,27.696383926998134]}},{"type":"Feature","properties":{},"geometry":{"type":"Point","coordinates":[85.32860145313363,27.696362663267287]}},{"type":"Feature","properties":{},"geometry":{"type":"Point","coordinates":[85.32860632411818,27.696327805124696]}},{"type":"Feature","properties":{},"geometry":{"type":"Point","coordinates":[85.32861610013258,27.696327260667104]}},{"type":"Feature","properties":{},"geometry":{"type":"Point","coordinates":[85.32868233640346,27.6963527016545]}},{"type":"Feature","properties":{},"geometry":{"type":"Point","coordinates":[85.328772841446,27.696343666624823]}},{"type":"Feature","properties":{},"geometry":{"type":"Point","coordinates":[85.32879176298546,27.696435475849118]}},{"type":"Feature","properties":{},"geometry":{"type":"Point","coordinates":[85.32867348057854,27.696451708261336]}},{"type":"Feature","properties":{},"geometry":{"type":"Point","coordinates":[85.32871510527877,27.696464981802364]}},{"type":"Feature","properties":{},"geometry":{"type":"Point","coordinates":[85.32885589442981,27.69648067795057]}},{"type":"Feature","properties":{},"geometry":{"type":"Point","coordinates":[85.32883115108565,27.69629924566048]}},{"type":"Feature","properties":{},"geometry":{"type":"Point","coordinates":[85.3286401830615,27.69598420969639]}},{"type":"Feature","properties":{},"geometry":{"type":"Point","coordinates":[85.32857661504578,27.69561842408023]}},{"type":"Feature","properties":{},"geometry":{"type":"Point","coordinates":[85.3285824226341,27.695617523947213]}},{"type":"Feature","properties":{},"geometry":{"type":"Point","coordinates":[85.32779016770463,27.694138612137984]}},{"type":"Feature","properties":{},"geometry":{"type":"Point","coordinates":[85.32919284937269,27.693317028302168]}},{"type":"Feature","properties":{},"geometry":{"type":"Point","coordinates":[85.32814945441667,27.696222053756625]}},{"type":"Feature","properties":{},"geometry":{"type":"Point","coordinates":[85.33128663866505,27.69720284501936]}},{"type":"Feature","properties":{},"geometry":{"type":"Point","coordinates":[85.3287274181338,27.697996658048268]}},{"type":"Feature","properties":{},"geometry":{"type":"Point","coordinates":[85.32866954505818,27.698035588574257]}},{"type":"Feature","properties":{},"geometry":{"type":"Point","coordinates":[85.32933800960731,27.69565117989908]}},{"type":"Feature","properties":{},"geometry":{"type":"Point","coordinates":[85.33134149926929,27.697786044739647]}},{"type":"Feature","properties":{},"geometry":{"type":"Point","coordinates":[85.3292921623963,27.694158822283935]}},{"type":"Feature","properties":{},"geometry":{"type":"Point","coordinates":[85.32945420840848,27.69444080633311]}},{"type":"Feature","properties":{},"geometry":{"type":"Point","coordinates":[85.32886541142882,27.698768821351482]}},{"type":"Feature","properties":{},"geometry":{"type":"Point","coordinates":[85.32887860978875,27.697580941909962]}},{"type":"Feature","properties":{},"geometry":{"type":"Point","coordinates":[85.328989685328,27.69762857976373]}},{"type":"Feature","properties":{},"geometry":{"type":"Point","coordinates":[85.32896260929431,27.69753128753605]}},{"type":"Feature","properties":{},"geometry":{"type":"Point","coordinates":[85.33010653849821,27.697583761136027]}},{"type":"Feature","properties":{},"geometry":{"type":"Point","coordinates":[85.33015797203798,27.69703960224407]}},{"type":"Feature","properties":{},"geometry":{"type":"Point","coordinates":[85.32983647444544,27.697343094078096]}},{"type":"Feature","properties":{},"geometry":{"type":"Point","coordinates":[85.33050296792705,27.69731307018917]}},{"type":"Feature","properties":{},"geometry":{"type":"Point","coordinates":[85.33046461568314,27.697247843423575]}},{"type":"Feature","properties":{},"geometry":{"type":"Point","coordinates":[85.33127866477045,27.69758388871885]}},{"type":"Feature","properties":{},"geometry":{"type":"Point","coordinates":[85.3288045330266,27.69674303665653]}},{"type":"Feature","properties":{},"geometry":{"type":"Point","coordinates":[85.32995832492553,27.696744703880572]}},{"type":"Feature","properties":{},"geometry":{"type":"Point","coordinates":[85.32944147858531,27.69595969070007]}},{"type":"Feature","properties":{},"geometry":{"type":"Point","coordinates":[85.32948588838265,27.69581990164918]}},{"type":"Feature","properties":{},"geometry":{"type":"Point","coordinates":[85.32767293644855,27.694522721326862]}},{"type":"Feature","properties":{},"geometry":{"type":"Point","coordinates":[85.32769328283344,27.69449417934194]}},{"type":"Feature","properties":{},"geometry":{"type":"Point","coordinates":[85.32819170905726,27.693607897767766]}},{"type":"Feature","properties":{},"geometry":{"type":"Point","coordinates":[85.32954593614642,27.694365216995934]}},{"type":"Feature","properties":{},"geometry":{"type":"Point","coordinates":[85.32927643599047,27.697184517355048]}},{"type":"Feature","properties":{},"geometry":{"type":"Point","coordinates":[85.32874751429998,27.698380338916163]}},{"type":"Feature","properties":{},"geometry":{"type":"Point","coordinates":[85.32882135735218,27.698473830070693]}},{"type":"Feature","properties":{},"geometry":{"type":"Point","coordinates":[85.32991755493539,27.696378836342642]}},{"type":"Feature","properties":{},"geometry":{"type":"Point","coordinates":[85.32995805315643,27.698729495591554]}},{"type":"Feature","properties":{},"geometry":{"type":"Point","coordinates":[85.32857878518152,27.693346143409347]}},{"type":"Feature","properties":{},"geometry":{"type":"Point","coordinates":[85.33032338679969,27.697526077977734]}},{"type":"Feature","properties":{},"geometry":{"type":"Point","coordinates":[85.32866211696272,27.69600021854909]}},{"type":"Feature","properties":{},"geometry":{"type":"Point","coordinates":[85.33045903565832,27.695965642114306]}},{"type":"Feature","properties":{},"geometry":{"type":"Point","coordinates":[85.32816013921428,27.693406636931623]}},{"type":"Feature","properties":{},"geometry":{"type":"Point","coordinates":[85.33033442526664,27.698007825365632]}},{"type":"Feature","properties":{},"geometry":{"type":"Point","coordinates":[85.32903298575823,27.693674788023685]}},{"type":"Feature","properties":{},"geometry":{"type":"Point","coordinates":[85.32921709512469,27.695579047571616]}},{"type":"Feature","properties":{},"geometry":{"type":"Point","coordinates":[85.33057196886523,27.697497579301007]}},{"type":"Feature","properties":{},"geometry":{"type":"Point","coordinates":[85.33101004302284,27.697971781783373]}},{"type":"Feature","properties":{},"geometry":{"type":"Point","coordinates":[85.33081008277072,27.697747179517993]}},{"type":"Feature","properties":{},"geometry":{"type":"Point","coordinates":[85.32778499308475,27.693123580818828]}},{"type":"Feature","properties":{},"geometry":{"type":"Point","coordinates":[85.32977522556851,27.696749049501953]}},{"type":"Feature","properties":{},"geometry":{"type":"Point","coordinates":[85.33019907103342,27.697089035999053]}},{"type":"Feature","properties":{},"geometry":{"type":"Point","coordinates":[85.32829595591299,27.69487964893329]}},{"type":"Feature","properties":{},"geometry":{"type":"Point","coordinates":[85.3303790118319,27.696842237591696]}},{"type":"Feature","properties":{},"geometry":{"type":"Point","coordinates":[85.3303477886672,27.69681368344554]}},{"type":"Feature","properties":{},"geometry":{"type":"Point","coordinates":[85.33032032794148,27.69678469541203]}}]}