{"type":"FeatureCollection","features":[{"type":"Feature","properties":{"kind":"valve"},"geometry":{"type":"Point","coordinates":[85.33324543738824,27.716459089684392]}},{"type":"Feature","properties":{"kind":"valve"},"geometry":{"type":"Point","coordinates":[85.3332650569339,27.71651821908583]}},{"type":"Feature","properties":{"kind":"valve"},"geometry":{"type":"Point","coordinates":[85.33343952981198,27.71702974133861]}},{"type":"Feature","properties":{"kind":"valve"},"geometry":{"type":"Point","coordinates":[85.33302707927345,27.718593491214037]}},{"type":"Feature","properties":{"kind":"valve"},"geometry":{"type":"Point","coordinates":[85.33034695407446,27.71649808730451]}},{"type":"Feature","properties":{"kind":"valve"},"geometry":{"type":"Point","coordinates":[85.33033504064481,27.716446423428103]}},{"type":"Feature","properties":{"kind":"valve"},"geometry":{"type":"Point","coordinates":[85.33393522250914,27.714332256564976]}},{"type":"Feature","properties":{"kind":"valve"},"geometry":{"type":"Point","coordinates":[85.33443814995034,27.71372078867411]}},{"type":"Feature","properties":{"kind":"valve"},"geometry":{"type":"Point","coordinates":[85.33377345785927,27.71838185322053]}},{"type":"Feature","properties":{"kind":"valve"},"geometry":{"type":"Point","coordinates":[85.33230078966113,27.716076015220644]}},{"type":"Feature","properties":{"kind":"valve"},"geometry":{"type":"Point","coordinates":[85.33564075276539,27.716103423375763]}},{"type":"Feature","properties":{"kind":"valve"},"geometry":{"type":"Point","coordinates":[85.33617166749208,27.713081271593612]}},{"type":"Feature","properties":{"kind":"valve"},"geometry":{"type":"Point","coordinates":[85.3366009679885,27.71440257795976]}},{"type":"Feature","properties":{"kind":"valve"},"geometry":{"type":"Point","coordinates":[85.33575039051527,27.715099624110493]}},{"type":"Feature","properties":{"kind":"valve"},"geometry":{"type":"Point","coordinates":[85.33316517109698,27.710375162214284]}},{"type":"Feature","properties":{"kind":"valve"},"geometry":{"type":"Point","coordinates":[85.33307618194485,27.71039453233449]}},{"type":"Feature","properties":{"kind":"valve"},"geometry":{"type":"Point","coordinates":[85.33357293673483,27.711043878434765]}},{"type":"Feature","properties":{"kind":"valve"},"geometry":{"type":"Point","coordinates":[85.33572700724511,27.712752859324777]}},{"type":"Feature","properties":{"kind":"valve"},"geometry":{"type":"Point","coordinates":[85.33532891524774,27.712389687248397]}},{"type":"Feature","properties":{"kind":"valve"},"geometry":{"type":"Point","coordinates":[85.33605026673561,27.712134892044457]}},{"type":"Feature","properties":{"kind":"valve"},"geometry":{"type":"Point","coordinates":[85.33618561713149,27.712414714900678]}},{"type":"Feature","properties":{"kind":"valve"},"geometry":{"type":"Point","coordinates":[85.328332834123,27.710995009994583]}},{"type":"Feature","properties":{"kind":"valve"},"geometry":{"type":"Point","coordinates":[85.33199908081633,27.71194362630133]}},{"type":"Feature","properties":{"kind":"valve"},"geometry":{"type":"Point","coordinates":[85.32967807604237,27.712902368771275]}},{"type":"Feature","properties":{"kind":"valve"},"geometry":{"type":"Point","coordinates":[85.33340301977809,27.708296852821796]}},{"type":"Feature","properties":{"kind":"valve"},"geometry":{"type":"Point","coordinates":[85.33401994315932,27.708337545763424]}},{"type":"Feature","properties":{"kind":"valve"},"geometry":{"type":"Point","coordinates":[85.333927644783,27.709930805966867]}},{"type":"Feature","properties":{"kind":"valve"},"geometry":{"type":"Point","coordinates":[85.33401251506497,27.70956982391997]}},{"type":"Feature","properties":{"kind":"valve"},"geometry":{"type":"Point","coordinates":[85.33595827986042,27.70987282978779]}},{"type":"Feature","properties":{"kind":"valve"},"geometry":{"type":"Point","coordinates":[85.33595879450455,27.709871661757436]}},{"type":"Feature","properties":{"kind":"valve"},"geometry":{"type":"Point","coordinates":[85.33706371792306,27.710274483038994]}},{"type":"Feature","properties":{"kind":"valve"},"geometry":{"type":"Point","coordinates":[85.33721620664267,27.71120746181454]}},{"type":"Feature","properties":{"kind":"valve"},"geometry":{"type":"Point","coordinates":[85.33696841277171,27.70966809217443]}},{"type":"Feature","properties":{"kind":"valve"},"geometry":{"type":"Point","coordinates":[85.33614320524812,27.709192800803876]}},{"type":"Feature","properties":{"kind":"valve"},"geometry":{"type":"Point","coordinates":[85.33614179804626,27.709186962438697]}},{"type":"Feature","properties":{"kind":"valve"},"geometry":{"type":"Point","coordinates":[85.33692342216821,27.7093209668188]}},{"type":"Feature","properties":{"kind":"valve"},"geometry":{"type":"Point","coordinates":[85.33550007637027,27.70825149381993]}},{"type":"Feature","properties":{"kind":"valve"},"geometry":{"type":"Point","coordinates":[85.33173356410727,27.708669697857257]}},{"type":"Feature","properties":{"kind":"valve"},"geometry":{"type":"Point","coordinates":[85.33203455192783,27.708685975402926]}},{"type":"Feature","properties":{"kind":"valve"},"geometry":{"type":"Point","coordinates":[85.33078500954349,27.708979608092886]}},{"type":"Feature","properties":{"kind":"valve"},"geometry":{"type":"Point","coordinates":[85.32987242985992,27.70913690056344]}},{"type":"Feature","properties":{"kind":"valve"},"geometry":{"type":"Point","coordinates":[85.3388092678393,27.71636135684945]}},{"type":"Feature","properties":{"kind":"valve"},"geometry":{"type":"Point","coordinates":[85.33851644076618,27.715292504769636]}},{"type":"Feature","properties":{"kind":"valve"},"geometry":{"type":"Point","coordinates":[85.33657216916819,27.70817978058524]}},{"type":"Feature","properties":{"kind":"valve"},"geometry":{"type":"Point","coordinates":[85.33681963401229,27.708557768570806]}},{"type":"Feature","properties":{"kind":"valve"},"geometry":{"type":"Point","coordinates":[85.33359397655215,27.711105268644715]}},{"type":"Feature","properties":{"kind":"valve"},"geometry":{"type":"Point","coordinates":[85.3282097292593,27.710426477443328]}},{"type":"Feature","properties":{"kind":"valve"},"geometry":{"type":"Point","coordinates":[85.32860894348728,27.709469443356525]}},{"type":"Feature","properties":{"kind":"valve"},"geometry":{"type":"Point","coordinates":[85.33716811212564,27.711459691942615]}},{"type":"Feature","properties":{"kind":"valve"},"geometry":{"type":"Point","coordinates":[85.3316815864855,27.708683287423703]}},{"type":"Feature","properties":{"kind":"valve"},"geometry":{"type":"Point","coordinates":[85.33178129850057,27.711805333031503]}},{"type":"Feature","properties":{"kind":"valve"},"geometry":{"type":"Point","coordinates":[85.33452868128599,27.70966369778301]}},{"type":"Feature","properties":{"kind":"valve"},"geometry":{"type":"Point","coordinates":[85.32849594181134,27.70947328554702]}},{"type":"Feature","properties":{"kind":"valve"},"geometry":{"type":"Point","coordinates":[85.33482655076773,27.710376505325133]}},{"type":"Feature","properties":{"kind":"valve"},"geometry":{"type":"Point","coordinates":[85.33403909848603,27.710107274637085]}},{"type":"Feature","properties":{"kind":"valve"},"geometry":{"type":"Point","coordinates":[85.33401731477599,27.708338135984555]}},{"type":"Feature","properties":{"kind":"valve"},"geometry":{"type":"Point","coordinates":[85.33697952722933,27.716057673414433]}},{"type":"Feature","properties":{"kind":"valve"},"geometry":{"type":"Point","coordinates":[85.33596400385139,27.709955722018897]}},{"type":"Feature","properties":{"kind":"valve"},"geometry":{"type":"Point","coordinates":[85.33544276265819,27.715746074859364]}},{"type":"Feature","properties":{"kind":"valve"},"geometry":{"type":"Point","coordinates":[85.3382117082429,27.716752081598134]}},{"type":"Feature","properties":{"kind":"valve"},"geometry":{"type":"Point","coordinates":[85.33266061502371,27.713773119793363]}},{"type":"Feature","properties":{"kind":"valve"},"geometry":{"type":"Point","coordinates":[85.33173276950278,27.71207567697992]}},{"type":"Feature","properties":{"kind":"valve"},"geometry":{"type":"Point","coordinates":[85.32834700656018,27.711034906818934]}},{"type":"Feature","properties":{"kind":"valve"},"geometry":{"type":"Point","coordinates":[85.33652660650917,27.711862880856035]}},{"type":"Feature","properties":{"kind":"valve"},"geometry":{"type":"Point","coordinates":[85.3336847841301,27.71117993144921]}},{"type":"Feature","properties":{"kind":"valve"},"geometry":{"type":"Point","coordinates":[85.3317338401641,27.711804141842943]}},{"type":"Feature","properties":{"kind":"valve"},"geometry":{"type":"Point","coordinates":[85.33525665438194,27.714445377334062]}},{"type":"Feature","properties":{"kind":"valve"},"geometry":{"type":"Point","coordinates":[85.33553898178651,27.715899204304733]}},{"type":"Feature","properties":{"kind":"valve"},"geometry":{"type":"Point","coordinates":[85.33550063795047,27.715803117124693]}},{"type":"Feature","properties":{"kind":"valve"},"geometry":{"type":"Point","coordinates":[85.33560477602026,27.713079273988193]}},{"type":"Feature","properties":{"kind":"valve"},"geometry":{"type":"Point","coordinates":[85.33205474137264,27.715907259001597]}},{"type":"Feature","properties":{"kind":"valve"},"geometry":{"type":"Point","coordinates":[85.33742222337276,27.714421109977692]}},{"type":"Feature","properties":{"kind":"valve"},"geometry":{"type":"Point","coordinates":[85.33193748278332,27.70883391036374]}},{"type":"Feature","properties":{"kind":"valve"},"geometry":{"type":"Point","coordinates":[85.33783496250261,27.71538291695363]}},{"type":"Feature","properties":{"kind":"valve"},"geometry":{"type":"Point","coordinates":[85.33849874881038,27.718413614251087]}},{"type":"Feature","properties":{"kind":"valve"},"geometry":{"type":"Point","coordinates":[85.33807326636749,27.71681994159149]}},{"type":"Feature","properties":{"kind":"valve"},"geometry":{"type":"Point","coordinates":[85.33771565341205,27.71543954135262]}},{"type":"Feature","properties":{"kind":"valve"},"geometry":{"type":"Point","coordinates":[85.33750590954956,27.714280284985882]}},{"type":"Feature","properties":{"kind":"hydrant"},"geometry":{"type":"Point","coordinates":[85.33700101568822,27.712050758132058]}},{"type":"Feature","properties":{"kind":"hydrant"},"geometry":{"type":"Point","coordinates":[85.33750783261574,27.714574207242467]}},{"type":"Feature","properties":{"kind":"hydrant"},"geometry":{"type":"Point","coordinates":[85.33854870438438,27.718353640317112]}},{"type":"Feature","properties":{"kind":"hydrant"},"geometry":{"type":"Point","coordinates":[85.33707876479028,27.71858092322772]}},{"type":"Feature","properties":{"kind":"hydrant"},"geometry":{"type":"Point","coordinates":[85.33391844851788,27.718332959661847]}},{"type":"Feature","properties":{"kind":"hydrant"},"geometry":{"type":"Point","coordinates":[85.33002783022647,27.716175688756508]}},{"type":"Feature","properties":{"kind":"hydrant"},"geometry":{"type":"Point","coordinates":[85.33250921081695,27.714644496182647]}},{"type":"Feature","properties":{"kind":"hydrant"},"geometry":{"type":"Point","coordinates":[85.33130409385454,27.71053290006025]}},{"type":"Feature","properties":{"kind":"hydrant"},"geometry":{"type":"Point","coordinates":[85.33197394088704,27.708940549984845]}},{"type":"Feature","properties":{"kind":"hydrant"},"geometry":{"type":"Point","coordinates":[85.33508523060402,27.713680893795612]}},{"type":"Feature","properties":{"kind":"hydrant"},"geometry":{"type":"Point","coordinates":[85.32962514999275,27.712521964830117]}},{"type":"Feature","properties":{"kind":"hydrant"},"geometry":{"type":"Point","coordinates":[85.33713627855386,27.71140601298633]}},{"type":"Feature","properties":{"kind":"hydrant"},"geometry":{"type":"Point","coordinates":[85.33216216005329,27.71181591879744]}},{"type":"Feature","properties":{"kind":"hydrant"},"geometry":{"type":"Point","coordinates":[85.33122276658767,27.719092857207674]}},{"type":"Feature","properties":{"kind":"flowmeter"},"geometry":{"type":"Point","coordinates":[85.33693573595005,27.711938988952433]}},{"type":"Feature","properties":{"kind":"flowmeter"},"geometry":{"type":"Point","coordinates":[85.33684819740449,27.71190166897707]}},{"type":"Feature","properties":{"kind":"flowmeter"},"geometry":{"type":"Point","coordinates":[85.33490795008301,27.712479783603897]}},{"type":"Feature","properties":{"kind":"flowmeter"},"geometry":{"type":"Point","coordinates":[85.3348553366782,27.712577390412132]}},{"type":"Feature","properties":{"kind":"flowmeter"},"geometry":{"type":"Point","coordinates":[85.33476561506707,27.71252330688719]}},{"type":"Feature","properties":{"kind":"flowmeter"},"geometry":{"type":"Point","coordinates":[85.32813206682606,27.710435683994294]}},{"type":"Feature","properties":{"kind":"flowmeter"},"geometry":{"type":"Point","coordinates":[85.337190236183,27.711512720833664]}},{"type":"Feature","properties":{"kind":"flowmeter"},"geometry":{"type":"Point","coordinates":[85.33664301098462,27.708208721999938]}},{"type":"Feature","properties":{"kind":"flowmeter"},"geometry":{"type":"Point","coordinates":[85.33616700080366,27.708149446255725]}},{"type":"Feature","properties":{"kind":"flowmeter"},"geometry":{"type":"Point","coordinates":[85.33680557783163,27.70854244223806]}},{"type":"Feature","properties":{"kind":"logger"},"geometry":{"type":"Point","coordinates":[85.33664301098462,27.708208721999938]}},{"type":"Feature","properties":{"kind":"logger"},"geometry":{"type":"Point","coordinates":[85.33854870438438,27.718353640317112]}},{"type":"Feature","properties":{"kind":"logger"},"geometry":{"type":"Point","coordinates":[85.33377345785927,27.71838185322053]}},{"type":"Feature","properties":{"kind":"logger"},"geometry":{"type":"Point","coordinates":[85.32967807604237,27.712902368771275]}}]}