{"type":"FeatureCollection","features":[{"type":"Feature","properties":{"derived":true},"geometry":{"type":"Polygon","coordinates":[[[85.34247648733664,27.673608934382354],[85.34279354925991,27.674139001888534],[85.34281299732721,27.674168131396925],[85.34283542775611,27.67419550902454],[85.34299843806288,27.674376024291842],[85.3430109339295,27.674389204407518],[85.34345966858754,27.67484019391238],[85.34346281943112,27.674843323673294],[85.34358693752449,27.67496517637452],[85.34362749867984,27.67499983211593],[85.34459534443378,27.675718924468978],[85.34461514289778,27.675732729906592],[85.34758988842987,27.677677523368736],[85.34759085222265,27.677678151501482],[85.34842666009247,27.678221186088894],[85.34843016716513,27.678223439235474],[85.3489592362012,27.678559536429002],[85.34899305057708,27.678578841189744],[85.34902884458897,27.67859507271846],[85.34906626696007,27.67860807172097],[85.34910495043258,27.67861771062661],[85.34914451537206,27.678623894840218],[85.34918457349319,27.678626563670516],[85.34922473167042,27.67862569092576],[85.34926459579619,27.67862128517079],[85.3493037746488,27.678613389643],[85.34934188373188,27.678602081827957],[85.34937854904794,27.678587472699004],[85.34941341076875,27.678569705628124],[85.3494461267668,27.678548954978886],[85.3541502572439,27.675240518588875],[85.35417842494498,27.67521876137427],[85.35420422828972,27.675194792308783],[85.35422744902748,27.675168814129666],[85.3542478907524,27.67514104656771],[85.35474906340737,27.674386739914308],[85.35477071080793,27.67434934328312],[85.35478732413605,27.674309958399984],[85.35479468217312,27.67428885188951],[85.35480501785366,27.67425270197424],[85.35481110808551,27.67421579548513],[85.35481288784206,27.674178526506036],[85.3548103381236,27.674141292991056],[85.35480348616014,27.674104492515195],[85.35479240512035,27.67406851802913],[85.35477721333015,27.674033753663323],[85.35412337600404,27.672739714600567],[85.35411737427665,27.672728367291626],[85.35223754525278,27.66932862876434],[85.35221300132095,27.66929033498103],[85.3521833970854,27.669254990746527],[85.35206591476442,27.669131278577247],[85.35203782762382,27.669104573401665],[85.35126901918727,27.668444103822328],[85.35123592624467,27.66841859709448],[85.35119993792654,27.668396415078327],[85.35116574507232,27.668377686211485],[85.3511197943567,27.668356003433907],[85.35070238125193,27.668188621443576],[85.35066665169055,27.66817607040002],[85.35062974851027,27.668166585847754],[85.3505920028883,27.668160252903007],[85.35055375356188,27.668157128398825],[85.3505153437884,27.668157240375006],[85.35047711826509,27.66816058782652],[85.35043942003566,27.668167140712473],[85.35040258741192,27.66817684022578],[85.34729411098705,27.66914013165872],[85.34725340976405,27.669154993814026],[85.3472147565706,27.66917369435948],[85.34717860641962,27.66919601315859],[85.34714538485974,27.669221687482],[85.3425523756908,27.67317987214108],[85.34252487904462,27.67320604234382],[85.34250043228575,27.67323451070912],[85.34247927632109,27.673264996702418],[85.34246161962979,27.673297199906713],[85.34244763620868,27.673330802982917],[85.34243746385765,27.673365474796952],[85.34243120282154,27.6734008736828],[85.34242891480227,27.673436650809357],[85.34243062235052,27.67347245361789],[85.34243630864349,27.673507929296232],[85.34244591765041,27.67354272825554],[85.34245935468466,27.67357650757526],[85.34247648733664,27.673608934382354]]]}}]}