{"type":"FeatureCollection","features":[{"type":"Feature","properties":{"derived":true},"geometry":{"type":"Polygon","coordinates":[[[85.32250391615138,27.703084099462455],[85.32255821474874,27.703240168491828],[85.32289925298096,27.705596595669615],[85.32291789755578,27.705622624159375],[85.32431742920049,27.705599890806756],[85.32631850155087,27.705344008418095],[85.3266097814519,27.705332868522987],[85.3267350918159,27.705345336022173],[85.32678006538745,27.705415403904574],[85.3268608695823,27.705858394935024],[85.32716193071157,27.70702302675602],[85.32727901358713,27.7075923939943],[85.32750708027783,27.708428075264784],[85.32777032089642,27.709358150409482],[85.32785653090568,27.709471407425994],[85.32789639053391,27.709495994537768],[85.32821067746679,27.70943457153589],[85.33023040876915,27.708966402239604],[85.3305798853383,27.708901087786774],[85.33073926585445,27.708887270168056],[85.33119991138102,27.708783717409972],[85.33171751008409,27.708590502260353],[85.33181152172504,27.708621237365715],[85.33193448145411,27.708630872091106],[85.3332855384734,27.708216321738803],[85.33357083679427,27.70822640320863],[85.33593533946838,27.708115746806225],[85.33624615030662,27.708096197963496],[85.33643973055068,27.708067411854305],[85.33657141871375,27.707993895646077],[85.3367240884369,27.708043716343806],[85.33676836261581,27.708021362261363],[85.33674942705787,27.70791164328839],[85.33670122742639,27.707811882157028],[85.33663062802832,27.707461709552927],[85.33655301352195,27.706846791595535],[85.33658349568032,27.706731306591955],[85.3365288205877,27.706632207044187],[85.33643264150481,27.70604824293911],[85.33622255175696,27.705356558612845],[85.33627035774056,27.705282135050524],[85.33625925855078,27.705259858953863],[85.3362040655993,27.705224500703654],[85.33612780349007,27.704437258284493],[85.33595825102009,27.703348055278905],[85.33595086806332,27.703175878438515],[85.33582354562473,27.703010726344584],[85.33571728505655,27.703000532515787],[85.33564441660413,27.702951573148127],[85.33592351997503,27.702750149129255],[85.33587106876904,27.702559829394673],[85.33553694861867,27.70188088415205],[85.33524991668648,27.701483035463067],[85.33524628695294,27.701368046375148],[85.33513810588191,27.70134905862824],[85.33470306130359,27.700920310977246],[85.33429689536709,27.700558791906015],[85.33383247816495,27.7002235389902],[85.33358937251471,27.700103330684293],[85.33333241555671,27.700022042323237],[85.33314601845895,27.699992105073633],[85.33221486157031,27.699886564031495],[85.33155503261655,27.699954392767513],[85.33140289556036,27.699954671241958],[85.33130944727695,27.699905148995914],[85.33117419483317,27.699925683908404],[85.33095071726758,27.69983351798137],[85.33076832033841,27.6997227687431],[85.33062248026165,27.69969061895887],[85.33017135953739,27.69968317274035],[85.32955501497133,27.699579518425033],[85.32912763011804,27.69962516620976],[85.32898335689123,27.699589448947105],[85.32893388653292,27.699543377459257],[85.32877548171463,27.69952076821124],[85.32873073766817,27.699415296384615],[85.32869427135607,27.69939751316734],[85.32631285955476,27.699981490855343],[85.32594900552047,27.700093457300614],[85.32513669729742,27.70015817653841],[85.32435490841095,27.700309885570334],[85.32425933559489,27.70036403827034],[85.32422004659193,27.700519540794144],[85.32415070540858,27.700582307777204],[85.32398537151188,27.700594442446096],[85.32231486951113,27.701005868813645],[85.32220343890695,27.701133001272037],[85.32250391615138,27.703084099462455]],[[85.32278727989663,27.703830959965586],[85.32278540380507,27.703722945821497],[85.3227161504098,27.703661259157585],[85.32265823170894,27.703262043990005],[85.32278386589392,27.703221994904254],[85.3228226338152,27.70330311002565],[85.3228620988586,27.703316242517943],[85.32289340399547,27.703290997780268],[85.32325015876621,27.70315292841196],[85.32335826943212,27.703125681152294],[85.32343349623075,27.7032009187251],[85.3232006700207,27.703410362884288],[85.3231979312382,27.70345142919746],[85.32323686906638,27.703470558283144],[85.3232760858111,27.703466625866486],[85.32336260829337,27.703390462928663],[85.32353615483397,27.703315655594306],[85.32364360830277,27.703444144397412],[85.32366070878896,27.703532751786945],[85.32373283571502,27.703609880531346],[85.32378392985231,27.703760921141775],[85.32377602002197,27.703850231156967],[85.32360481700512,27.703843645405367],[85.32352899816006,27.703945327214967],[85.32343616741082,27.703978008197105],[85.32329188617682,27.703988211917103],[85.32320321175258,27.704014556204896],[85.32312795579014,27.70391069808737],[85.32306974756254,27.70389458378898],[85.32293866189022,27.703923781604963],[85.32290603965166,27.703946037396136],[85.32276123447085,27.703969382161198],[85.32278727989663,27.703830959965586]],[[85.32287288556995,27.703189070290126],[85.32294827619728,27.70315346581388],[85.32300072090524,27.703146214232515],[85.32302204021836,27.703119889446096],[85.32300160288123,27.702989054460133],[85.3229223581466,27.702954382397394],[85.32293014232033,27.702812929851888],[85.32310436731477,27.70277245642599],[85.32327828484186,27.703022204056715],[85.32320489464712,27.703059298368142],[85.32319357424318,27.703096100405155],[85.32288363336629,27.70321605209933],[85.32287288556995,27.703189070290126]],[[85.32325906302769,27.70278899251473],[85.32311918217687,27.702623489173618],[85.32319935468504,27.702564869785892],[85.32336573311751,27.702520441912302],[85.32338145645855,27.702558719630463],[85.32342062833456,27.702567923515154],[85.32349367731082,27.70249257288856],[85.32360405687798,27.702471693795435],[85.3236818338139,27.702481957875793],[85.32390258651526,27.702584092997625],[85.3237250310075,27.702641994026916],[85.32366363557117,27.7027737918701],[85.32370309148915,27.702855232085746],[85.32377992897031,27.702899872472152],[85.32378357660355,27.702985163305296],[85.32370653825592,27.70312988695066],[85.32370213102946,27.703169649637243],[85.32358790269159,27.70318268075781],[85.3235333936156,27.703108490622725],[85.32338823783759,27.7029904045943],[85.32334873803023,27.70298642164403],[85.32325094300776,27.702832517733242],[85.32325906302769,27.70278899251473]],[[85.32333538072618,27.70240215325875],[85.32334829066316,27.702449723210556],[85.3232064646124,27.702487594909933],[85.32319254522268,27.702448623779894],[85.32333538072618,27.70240215325875]],[[85.32414125782037,27.70259994276503],[85.32419833438131,27.702755546138295],[85.32425050202704,27.70277605409819],[85.32449330473061,27.702660144557633],[85.32458542528404,27.702575101515023],[85.32465710506557,27.70256752669584],[85.32472295454319,27.702506310313275],[85.32472574022138,27.702469460259323],[85.32461258071096,27.702305264345974],[85.32458322173152,27.702213558254293],[85.3245329931983,27.702169476557014],[85.32464362117776,27.702106746909482],[85.32473842269573,27.702241320312368],[85.32477915978822,27.70232830750318],[85.32485662047723,27.70235309401667],[85.32488660627114,27.702327971096278],[85.3248902017787,27.702299480884196],[85.32482595589498,27.702197198053568],[85.32477471636166,27.70215051385935],[85.32475754367992,27.70204971598035],[85.32488167168793,27.70203061277823],[85.32493440853736,27.702066928694624],[85.32496460569962,27.70215261236657],[85.3250332077224,27.702241132712622],[85.3250584107283,27.702342290750266],[85.32494048988585,27.702421659712947],[85.32488045009543,27.702503082654186],[85.32490513505302,27.70258864128717],[85.32495303892108,27.70266632510228],[85.32497163894337,27.702832317050557],[85.3248758214105,27.702862937862786],[85.32483985898669,27.70283231752042],[85.32472174930328,27.702811965807502],[85.32455797097451,27.70287560846938],[85.3244313257477,27.703012169799212],[85.3242949251101,27.703112355541606],[85.32431073398449,27.703235318636775],[85.32417330661997,27.703270055076427],[85.32391020072849,27.703262962542624],[85.32380947935393,27.70318080044765],[85.32390014367061,27.70294082909719],[85.3239973259091,27.702788865693492],[85.32396081298728,27.702760164965984],[85.32379822286902,27.70277442680381],[85.32378318749197,27.702749463427175],[85.32379709548482,27.70269320849044],[85.32405316924094,27.70261389844739],[85.32414125782037,27.70259994276503]],[[85.32445206231871,27.70212976330979],[85.32431428840135,27.702166953510318],[85.32427493141651,27.702077175688384],[85.32428928235892,27.702062219321576],[85.32441440571081,27.70204204019802],[85.32447282428929,27.701999747239196],[85.32458039728368,27.702056993288537],[85.32445206231871,27.70212976330979]],[[85.32370613548522,27.703293249201142],[85.32368874035494,27.703377195788384],[85.32363389306796,27.703311611532413],[85.32370613548522,27.703293249201142]],[[85.32289788296626,27.704081197629428],[85.32291950878512,27.704108746562042],[85.3230165496875,27.7041389133075],[85.32318461840853,27.70411240416781],[85.3233171183425,27.704111893776854],[85.32354595081385,27.704047846483313],[85.32361508472505,27.704126388397665],[85.32374128275104,27.70412930603789],[85.32378996480702,27.704092977330404],[85.32384154127716,27.703938089380415],[85.32390220855619,27.703850602798916],[85.32424770493826,27.703946155123383],[85.32429800132577,27.703894480184456],[85.32449263214359,27.703852542329763],[85.32459651718504,27.70380873719275],[85.32476000889417,27.703692777214755],[85.32483614822155,27.70392218616316],[85.32480940469144,27.703942805098613],[85.32480873950242,27.70397248231927],[85.32490402825255,27.704091794939544],[85.32504194967991,27.704386442970947],[85.32503049487104,27.704422476943353],[85.32493039580623,27.704445556088093],[85.3246431801345,27.704364552079554],[85.32443597714226,27.70443842896044],[85.32440158137571,27.704501635591154],[85.32428937390499,27.704519211775295],[85.32420711176721,27.70444867541983],[85.32412262613771,27.70432020309713],[85.32402766664359,27.70430785057711],[85.32398649704639,27.704355665366734],[85.32401819945625,27.70440677814553],[85.32392540893447,27.704578247308213],[85.32381200735848,27.70473004768015],[85.32364636745176,27.70468709840043],[85.32333982387408,27.70474749620942],[85.32326109654925,27.70478419558616],[85.32317301354244,27.704921309725147],[85.32307892421537,27.704942073947855],[85.32300057755111,27.70498279321066],[85.32288188898131,27.70480796773094],[85.3228353036377,27.704390110910442],[85.32280295775689,27.704360119197137],[85.32275688143602,27.704043455822376],[85.32288949237804,27.704022076980685],[85.32289788296626,27.704081197629428]],[[85.32485706269121,27.70361271461828],[85.32491500687158,27.70347292688558],[85.32497479017374,27.70342466234218],[85.32499725985785,27.703381195963473],[85.32500372089957,27.703218722035814],[85.32521007204953,27.703213754522377],[85.32526207917573,27.703160259345143],[85.3252626151124,27.703132606003113],[85.32523906366055,27.70311203549356],[85.3251339790037,27.703120327520303],[85.32504075783987,27.70300727085883],[85.32505690607256,27.702885375839376],[85.32512056443629,27.70283291178352],[85.32526495278123,27.702767313411726],[85.32541223497125,27.702854400595616],[85.32551304720633,27.702846865698785],[85.32565721802418,27.70278889363481],[85.32571732689776,27.702743506867645],[85.32586277269307,27.702766961689296],[85.32587780942116,27.70287768774543],[85.32563945797617,27.702955755163917],[85.32562050511017,27.702998620784115],[85.32566162532692,27.703035931335464],[85.3257175902289,27.703032586155405],[85.3259341260259,27.702970792909056],[85.32599325602435,27.702947745293496],[85.32600714155045,27.702912961916155],[85.32617653612982,27.702858653686665],[85.32635684198296,27.70332916345535],[85.32641379199404,27.70343812441564],[85.32624622649759,27.703504461955777],[85.3262061295389,27.703502832007906],[85.32615794812574,27.703530711202074],[85.32615221887264,27.703559288359646],[85.32620890504755,27.70372291332068],[85.32617777982269,27.70374917244836],[85.32607421102034,27.703799625179478],[85.32588856559896,27.703792842376313],[85.32573629554109,27.70361894063333],[85.3257799732658,27.703496358051883],[85.32584734465243,27.703478445832687],[85.32587163191411,27.70344725242379],[85.32585915698064,27.703395030084668],[85.32581941775679,27.703378813863445],[85.32573856013661,27.70341107110319],[85.32561569696404,27.703352596194296],[85.32557723981544,27.703319725595023],[85.32553975214523,27.703319097758044],[85.32551828824538,27.70334334429778],[85.32552478094155,27.70338371374971],[85.32572052276119,27.70378037618536],[85.32499879855524,27.704075740672597],[85.3249226100486,27.70392785011797],[85.3248275190815,27.703641340200885],[85.32485706269121,27.70361271461828]],[[85.32491851839029,27.703355785942808],[85.3248157471801,27.703422158608703],[85.32475666815726,27.703548202683187],[85.32462489411272,27.703633455077465],[85.32446473396604,27.70376815060931],[85.32409427711303,27.70377849965842],[85.32392113238751,27.703765375002973],[85.32389174769317,27.70374976809339],[85.32388239728465,27.703557170875982],[85.32378450785062,27.70348433896768],[85.32378016790744,27.703423984116682],[85.32385541778369,27.703353606089415],[85.32435009484885,27.703346695676856],[85.32448386840595,27.70330737652431],[85.32462581904298,27.703245185266603],[85.3247481442425,27.703253002630525],[85.32489623943448,27.703191544870716],[85.3249230957071,27.703201182271634],[85.32491851839029,27.703355785942808]],[[85.32602847706596,27.702777120697156],[85.32613060739826,27.702789766905408],[85.32613532373146,27.70279512829565],[85.32601481192884,27.702833764625385],[85.32602847706596,27.702777120697156]],[[85.32630008268784,27.70356215791076],[85.32644422310291,27.70350509411577],[85.32648541915033,27.70361025928519],[85.32636024500518,27.70366062671862],[85.32630008268784,27.70356215791076]],[[85.32485223415377,27.704498871717515],[85.32487963907462,27.704526813617203],[85.32502499104926,27.704553115901657],[85.32506817221565,27.704676015195158],[85.32503955027286,27.704721077493524],[85.32502272296145,27.704899747696402],[85.32495656693584,27.70494959798582],[85.32483932954072,27.704923178801202],[85.3247695317211,27.704834747808427],[85.32472867164077,27.704842171566213],[85.32471668689504,27.70488067510282],[85.32479760389487,27.705077610661462],[85.32483698257371,27.70508949807981],[85.32496243625131,27.70504680017656],[85.32504532797967,27.705121273571248],[85.32505049891661,27.705197941097403],[85.32508449185453,27.705273171820817],[85.32506255633596,27.705339533359474],[85.3249795880828,27.70542582200789],[85.32462405415245,27.70547997071742],[85.32453795394495,27.70545952276828],[85.32439556451418,27.70508329961072],[85.32448099243081,27.704568576245777],[85.32451025391991,27.704529279941298],[85.32465804209495,27.704439757747412],[85.32485223415377,27.704498871717515]],[[85.32443939520755,27.705485208609826],[85.32437761915646,27.705513730486317],[85.32404339200485,27.70552709785908],[85.32394788090097,27.705409704184657],[85.32390847165794,27.705392296480618],[85.3238734657941,27.70541246938094],[85.32387479187958,27.705453278908816],[85.32376909354917,27.705517497301436],[85.32321958484614,27.7055364742745],[85.32313038741287,27.705412473465906],[85.32309840653149,27.705405321715396],[85.32305866369047,27.70542481322644],[85.32296223318235,27.705358002384102],[85.32293970492357,27.705179284816452],[85.32302321789156,27.70507433353917],[85.3231370415327,27.70505783052681],[85.3233269334874,27.70506475358777],[85.32367508873214,27.705033598102045],[85.32374491941258,27.704983513680293],[85.32374629535488,27.704955912193416],[85.32372533961197,27.70493552904909],[85.32366153541413,27.704930393578717],[85.32336985203524,27.704961803928846],[85.32339050398217,27.70482901986873],[85.3236629974136,27.704787644021145],[85.32384266706985,27.704829351904756],[85.32389982526712,27.704798612291896],[85.32401881547341,27.704624292768514],[85.32414702258622,27.704609221172884],[85.32430796387314,27.705126025340142],[85.32433996908868,27.705165185193334],[85.32443403627248,27.705404775972728],[85.32443939520755,27.705485208609826]],[[85.32584588138504,27.705330645812577],[85.32581172200179,27.705318053322394],[85.32535201265696,27.705385164360273],[85.32521669565043,27.705347862977483],[85.32517145128733,27.705215859221436],[85.32516763109261,27.704981506999122],[85.32519406438813,27.704932873653146],[85.325316508816,27.70493567337729],[85.32532572926264,27.70520227299677],[85.32541229746708,27.705252193440487],[85.32545268518402,27.70522310975767],[85.32544203826339,27.705107564670413],[85.32553977816701,27.704992371697035],[85.32555779688364,27.704938059896968],[85.32550551355948,27.70481998488821],[85.32548067769225,27.704802180637163],[85.32519097177776,27.704837925418403],[85.32515689951778,27.704761233731276],[85.32517272472484,27.704569866435207],[85.32514538007777,27.704465679908516],[85.32583243071655,27.7038693540775],[85.32611378497896,27.7039090874824],[85.32624542629564,27.70382670077067],[85.32643006751549,27.703744458438436],[85.32656157301446,27.703808079623833],[85.3266140763931,27.70391500623809],[85.32664389483574,27.703932476538007],[85.32673352826617,27.704110634539393],[85.32654945805295,27.704149827609935],[85.32652338441545,27.704169916930223],[85.32659866857173,27.704394893425523],[85.32611118427194,27.705297421737967],[85.32584588138504,27.705330645812577]],[[85.32675442330692,27.70395084859448],[85.32684723565062,27.70411775219232],[85.3268225165048,27.704110852927368],[85.32674088397677,27.70394859809034],[85.32675442330692,27.70395084859448]],[[85.32683131202873,27.70392603004201],[85.32682696691492,27.70388021948551],[85.3270224801045,27.703807704948026],[85.3270567843003,27.703819485025914],[85.32719011449194,27.70379049698305],[85.32720849058043,27.703818610082568],[85.32723847114204,27.703825789608636],[85.32751354621705,27.703725735295315],[85.32756367557081,27.703729591765413],[85.32758713399016,27.703706855860997],[85.32758884036353,27.70366337978916],[85.32755617549776,27.703638495444963],[85.32725551637722,27.703625605132377],[85.32718864117618,27.703652647495534],[85.3270633088262,27.703505275471432],[85.32711091579877,27.703383923786593],[85.32708056311492,27.70334688053414],[85.32662687603487,27.703466522276646],[85.32654009250811,27.7032885645978],[85.32657343241739,27.703184642331507],[85.32661246294646,27.70319199657294],[85.32682921664971,27.7031095244458],[85.3268775371027,27.70312882076166],[85.32703840745592,27.703065285015196],[85.32719913484314,27.70304820703947],[85.32735046660164,27.703084851614147],[85.32744814958707,27.703191623989756],[85.3274800663075,27.70335395008847],[85.32760644431525,27.70345770969055],[85.32764756000749,27.703462365288168],[85.32767433303798,27.703424819917153],[85.32764013416886,27.70332167587915],[85.3275301469615,27.70311861840191],[85.3276159059096,27.70300914706085],[85.32770061539354,27.702979709345655],[85.32780526576639,27.702977698906498],[85.32783023284586,27.702961281442015],[85.32782955624265,27.702908573187297],[85.32779097505158,27.70288193735336],[85.32775550670425,27.702782099266145],[85.32785364335216,27.702729853624643],[85.32802089606581,27.702738871358502],[85.32806962090503,27.70270765467733],[85.32824678149673,27.702699098008214],[85.32827036205009,27.702667449658517],[85.32824708849866,27.70259513315592],[85.32833875749375,27.702561254945326],[85.32839744841017,27.702682770465593],[85.32848508518148,27.702810269706834],[85.3284441132539,27.702879001861312],[85.32793461360731,27.70306879563076],[85.32791792318187,27.703099415956192],[85.32793507893489,27.70317865850731],[85.32799349716056,27.70329850928548],[85.328052990823,27.703311300661106],[85.32807745010608,27.703273251834926],[85.32803645459795,27.70317701122898],[85.32823148112834,27.703065422492227],[85.32836772821686,27.70301981980411],[85.32844487085629,27.70297167158201],[85.32850702346707,27.70295150542271],[85.32856506036703,27.702955615085543],[85.32862835930544,27.703068725401394],[85.32864105641754,27.70316446862864],[85.32860994110567,27.703345741361957],[85.3284887566356,27.70349366220237],[85.3284252150056,27.703483470180416],[85.3283217200079,27.7034940593492],[85.3281128439406,27.703570910856797],[85.32804888678614,27.703923045975642],[85.32779741283628,27.70393580504686],[85.32776999016609,27.70395444471163],[85.3277639987718,27.70398919415246],[85.3277746699327,27.70401268132208],[85.32780281750269,27.704024331259195],[85.32794242294453,27.70400577417447],[85.32838334828926,27.704004232612366],[85.32841600014297,27.70413753680203],[85.32829024888578,27.704286494958605],[85.32837940725891,27.704634885507197],[85.32842389990937,27.704921495918903],[85.32838132154299,27.70504889357522],[85.32792264684416,27.70518820681284],[85.32780109813436,27.70505340884874],[85.32774587193587,27.7047347682154],[85.3276922999354,27.70463016300236],[85.3276463934926,27.704617363144845],[85.32760508974809,27.704658939034918],[85.32760468050931,27.70473675153548],[85.32763146808075,27.704770109881302],[85.32773229516089,27.705144660986964],[85.32766804554308,27.705263187748688],[85.32758841037423,27.705292529400896],[85.32752918561229,27.705158476488347],[85.32750537282615,27.70513741759774],[85.3272840997379,27.70474059403703],[85.32731135796844,27.70471832096905],[85.32731076979825,27.704687457117398],[85.32728741873062,27.704669252668577],[85.32724184008265,27.704664600011423],[85.32718059034282,27.704554456596597],[85.3271814267175,27.704521882763444],[85.32714249061011,27.704485942967324],[85.32683131202873,27.70392603004201]],[[85.3267400442458,27.7037300800752],[85.3267171040841,27.703551087767657],[85.32683521227474,27.703529123146044],[85.32697332733244,27.703747720390673],[85.32677725683735,27.70382044159271],[85.3267400442458,27.7037300800752]],[[85.32661557813422,27.703112451234894],[85.32656499906783,27.703070469760775],[85.32645663834022,27.703089159806865],[85.32639403528914,27.702943952898355],[85.3264067476826,27.70290230666145],[85.32634098407586,27.70275445017645],[85.32630298956205,27.702732772905897],[85.3262528089137,27.7026163788567],[85.32626393533549,27.70256400794694],[85.32621931926285,27.70253869944947],[85.32616985273646,27.702423961399248],[85.32618232727255,27.702383346237742],[85.32613648036097,27.702346553739286],[85.32603294810595,27.702106408623465],[85.32604769212112,27.702084029164865],[85.32611652888704,27.702082656489072],[85.32620224799959,27.70203426050953],[85.32632726924618,27.701996416329724],[85.32634589397384,27.701974195922187],[85.3263398065004,27.70194344011367],[85.32629579720097,27.701923516667865],[85.32599242753419,27.702008578972382],[85.32594532002838,27.7018893997504],[85.32591047005737,27.701869914859294],[85.32585826412632,27.70177430009304],[85.32595502445083,27.7017533364484],[85.3259793415456,27.701732949418812],[85.32615002546312,27.70168072847132],[85.32632867843368,27.70168925665768],[85.32636826372872,27.701678677991296],[85.32647666291862,27.701702764372076],[85.32651467267083,27.7017317027388],[85.32655934767533,27.701721136923144],[85.3266459158083,27.701740372301423],[85.32669113620612,27.701778812791645],[85.32675231443055,27.701766248462572],[85.3269893186429,27.701861178773257],[85.32709524542308,27.702272053678413],[85.32718376446395,27.702409541554562],[85.32727709183463,27.702605281045955],[85.32731197060555,27.702625626480952],[85.32735183918365,27.702601587916625],[85.3273459516472,27.702546477522656],[85.32746062717258,27.702434497274012],[85.32752680112145,27.70239244816823],[85.32765810522126,27.702370708721194],[85.32775291949905,27.702314744954958],[85.32783852796481,27.70229558171409],[85.32786188315089,27.702262005769658],[85.32782869434483,27.702223280990093],[85.3277515568695,27.70223531259452],[85.32767017648392,27.702144660207257],[85.327612938514,27.702126445398445],[85.32758434624178,27.70213720227702],[85.32755757705014,27.70217639763287],[85.32756439999295,27.702272574096686],[85.32743580976366,27.702339430878595],[85.32739441663762,27.702353284195144],[85.32721970641595,27.702273560490614],[85.32719642519297,27.702227454996887],[85.32718199499355,27.702129687840166],[85.32731228484994,27.702090473397902],[85.32733481142712,27.702062972763542],[85.32732702331852,27.70203622777906],[85.32729994432826,27.70202216292505],[85.32722199245498,27.70178209808316],[85.3273027018137,27.701670109834623],[85.32740990996415,27.701688363586303],[85.32752565147031,27.70180419472394],[85.32763185935306,27.701875040074025],[85.32769357013663,27.701885418038383],[85.32805961337658,27.70182462384079],[85.32808758276872,27.701833968026428],[85.32808309151171,27.701890040029607],[85.32812504473786,27.702048405941422],[85.32804066010999,27.702145435496874],[85.32803471144072,27.702172552131458],[85.32805546910446,27.702197280882956],[85.32811383650898,27.702203656062203],[85.32819865377996,27.702246489576844],[85.32820183507253,27.7022863859801],[85.32812791778832,27.702375554917776],[85.3279690570375,27.702470349143294],[85.32781503673141,27.702610498719817],[85.32757231766621,27.702736419953123],[85.32756488099619,27.7027697828276],[85.32760547058547,27.70279642352556],[85.32763282345998,27.70290705251487],[85.32726837272402,27.702950961286522],[85.32703933300469,27.702927580363607],[85.32684478251628,27.703002700435057],[85.32681296417327,27.70303717713819],[85.32661557813422,27.703112451234894]],[[85.32601666140205,27.702270157153528],[85.3259776756752,27.702190304738426],[85.32598043169995,27.702186121467363],[85.32601666140205,27.702270157153528]],[[85.32579117664666,27.701917716142418],[85.32571310691392,27.701862390358357],[85.32575064287472,27.70176706524849],[85.32576896153965,27.70177591904257],[85.32583580603705,27.701898344424315],[85.32579117664666,27.701917716142418]],[[85.32839672777212,27.704340402833264],[85.32851347609059,27.704153077968847],[85.32851921011265,27.704090884855027],[85.32848487291263,27.703958058618483],[85.32859489836456,27.703933761872648],[85.32864727085284,27.704067807950455],[85.32873703786753,27.704178423602944],[85.32875153032454,27.704291711239634],[85.3287962004954,27.704398641063],[85.32881539269285,27.704538080182576],[85.32887684511638,27.704569150050812],[85.3290101829492,27.70482248499739],[85.32899396765262,27.704914898149745],[85.32889350528338,27.704915299276507],[85.32861728569412,27.704986123858458],[85.32852275364337,27.70490198195637],[85.32848685698596,27.704743745469237],[85.32849472648068,27.704637277913626],[85.32848093159144,27.704610786953413],[85.32845442333915,27.70460077396688],[85.32839672777212,27.704340402833264]],[[85.3289654160038,27.704565888610475],[85.32922344458167,27.7044973304676],[85.3292825315011,27.7044595585763],[85.32934897604851,27.70430957817827],[85.32946639197023,27.704244166747372],[85.32974630755788,27.704160634672352],[85.32987512583976,27.704151900340783],[85.32990975102749,27.70412438982993],[85.33007302023782,27.70422948326297],[85.33028003491837,27.704180924245392],[85.33042837125485,27.70420132114],[85.33058962533951,27.704162731721723],[85.33063975183681,27.70423492749426],[85.33067504594217,27.704349815974208],[85.33059163540652,27.704428474824905],[85.33011232476777,27.70456508679456],[85.32947079666302,27.704774535866463],[85.32921743248363,27.704839367405548],[85.32915647441264,27.70478779523692],[85.32906980327836,27.704659242662157],[85.32901549397323,27.70465665209977],[85.3289654160038,27.704565888610475]],[[85.32948520810481,27.70416116586612],[85.32945251750296,27.704157831695714],[85.32933014188895,27.704204913947688],[85.3292794081735,27.70401615431601],[85.32943278124021,27.70379466893855],[85.329419276452,27.703750472787792],[85.32935307576707,27.70374970452625],[85.32921003794448,27.70378552148566],[85.32913188694306,27.703600981515883],[85.32907565084241,27.703551374216033],[85.32904438438813,27.703555933046484],[85.32885048609216,27.70368938547418],[85.32875000836526,27.703717402900697],[85.32863094147702,27.703667736279968],[85.32859250136863,27.703569756721816],[85.3287057136511,27.70347837815773],[85.32880825661627,27.703365671660276],[85.32914481617442,27.703280073217222],[85.32934473307614,27.70320542093308],[85.32936556324908,27.703182517538824],[85.32935641701721,27.70314898871548],[85.32931982059081,27.703137609610323],[85.32899332558877,27.703231858350044],[85.32881990199458,27.703247617930817],[85.32876295968737,27.70318096609152],[85.3288791672347,27.7030611920721],[85.32897510346722,27.70305897782407],[85.3291291931329,27.70300286460282],[85.32958650136698,27.70291202112876],[85.32962762657266,27.70302819988456],[85.32960942145344,27.703056421022566],[85.32962323834657,27.703102701563164],[85.32971429054412,27.703214360146152],[85.32974845429108,27.70321037398134],[85.32976783537171,27.703185809266067],[85.32972015267492,27.70304176610073],[85.32977395411848,27.70295705943947],[85.32984369234676,27.702962359636313],[85.3299132578214,27.703019463846697],[85.32998487364381,27.703032956647863],[85.33007438555344,27.703026214282314],[85.33014126265114,27.70309816325879],[85.33019314867379,27.703219635424635],[85.33032170939921,27.703426363405747],[85.33039620485407,27.70344315139305],[85.33047348830773,27.70370849642254],[85.33028855280152,27.703762674870756],[85.33018129659754,27.70377814198357],[85.32979960130373,27.703647485982884],[85.329766085636,27.70365050916283],[85.32974447599474,27.703694737865074],[85.32982698517614,27.703949822707408],[85.3297956210146,27.70406205252851],[85.32948520810481,27.70416116586612]],[[85.32925369400415,27.704230801961433],[85.32903678152246,27.70429025970283],[85.3288699879664,27.704252743170283],[85.32888398191793,27.704186902494822],[85.32880651352757,27.70405221257311],[85.32881268995585,27.703793836454874],[85.32906062232283,27.70369295585822],[85.32911723330643,27.703807636237663],[85.3291360123696,27.70396344628867],[85.32917864637236,27.7040586010838],[85.32921195244622,27.704075498157312],[85.32925369400415,27.704230801961433]],[[85.3304817833169,27.703844012440545],[85.33053142997412,27.703915025401557],[85.33056367547493,27.704008283397716],[85.3305641306302,27.70406925953633],[85.3303880505515,27.7040581337059],[85.33017885905244,27.70411941932389],[85.32997498303945,27.704037330736956],[85.32998759319842,27.703929613827714],[85.33020873215986,27.70386206661387],[85.33030108621624,27.703856536430273],[85.33032738769903,27.70382730560068],[85.3304891597091,27.703779913097435],[85.3304817833169,27.703844012440545]],[[85.32748663400506,27.705276707169347],[85.32748802689036,27.705273159885813],[85.32749056326455,27.705277870053067],[85.32748663400506,27.705276707169347]],[[85.32736752976713,27.705056394743735],[85.3273539232785,27.705077525476607],[85.32721204475052,27.704820011653226],[85.32722646253823,27.704799706833324],[85.32736752976713,27.705056394743735]],[[85.32730639924537,27.70528053618523],[85.32689081934568,27.705272396487096],[85.32716117216938,27.704891656313663],[85.32731050103165,27.70516269280926],[85.32730639924537,27.70528053618523]],[[85.32703211346531,27.70449342906963],[85.3269280522224,27.70430455274517],[85.32693712326567,27.704279395759727],[85.32705494614713,27.704491274132177],[85.32703211346531,27.70449342906963]],[[85.3267869294502,27.704396573859796],[85.32686678732566,27.704357334551062],[85.32692172317861,27.70445704602192],[85.3267869294502,27.704396573859796]],[[85.32711180397895,27.705470086722997],[85.3272985509733,27.70547760708747],[85.32730566821792,27.70572579858873],[85.32699173800547,27.705802407853668],[85.32711180397895,27.705470086722997]],[[85.32735961803466,27.705787451593398],[85.32738694526213,27.705759516863825],[85.32741161574921,27.705486825221076],[85.32751068874771,27.705486915077334],[85.3276970443048,27.705552157355182],[85.3277667917277,27.705671501689995],[85.32792387405729,27.705783724068574],[85.32798185348153,27.705913043512716],[85.32809496494527,27.70597155122774],[85.32816848823549,27.706103716754935],[85.32839646128889,27.706385412194322],[85.32850391010467,27.706495360566283],[85.32846757550925,27.706578320609818],[85.32839446216542,27.706682329963797],[85.3283218921055,27.706708392456903],[85.32826210298994,27.706710284683343],[85.32807871177612,27.706567213576164],[85.32800951000148,27.70653824423856],[85.32797497768524,27.706545042057105],[85.32796211002783,27.70658594398245],[85.32802397819687,27.706649238287913],[85.32805663297202,27.7067495129096],[85.32797169289192,27.70679758493965],[85.32799374279287,27.7068724962742],[85.32802394521042,27.706878882007775],[85.3281590295155,27.706847681901316],[85.32826160012864,27.706798472214707],[85.32844315538809,27.706781154996374],[85.32846710421917,27.706887358850537],[85.32836299499901,27.706984105084643],[85.32835921389479,27.707019545599362],[85.3283761075359,27.707040959073566],[85.32840629737031,27.70704739195797],[85.32854872335255,27.706986148808575],[85.32867454378027,27.706876115330484],[85.32866218512048,27.706847206055738],[85.32861206342321,27.706826862960913],[85.32854601322671,27.706688821557265],[85.3285883597307,27.706621592528055],[85.32860730920538,27.706508600701902],[85.32888111753952,27.706766030231655],[85.32888875419803,27.70684396394475],[85.32899770085658,27.70690360365799],[85.32906540789719,27.707032421093455],[85.32905449722544,27.707091189927066],[85.32907233236375,27.707119958457877],[85.32929000204382,27.70713493700111],[85.32932119845171,27.707115535669622],[85.32932261501124,27.707082555823952],[85.32946437220266,27.707043606170505],[85.32947894363483,27.70718040510152],[85.32958823079852,27.707331263689206],[85.32958063786096,27.70742886879942],[85.32962855021272,27.707559031870357],[85.32970656029703,27.70763319339943],[85.3297516694867,27.707756315508057],[85.32971779823134,27.707787551890902],[85.32967189212098,27.70812045961602],[85.32964601444901,27.708134903739055],[85.32955889657738,27.70784939042952],[85.32952791605366,27.70784301941509],[85.32930277455006,27.707884511989217],[85.3290696975877,27.707722333524234],[85.32901233536313,27.707593436205208],[85.32910634819677,27.707497438583772],[85.32925460917023,27.70744533994923],[85.32926388317513,27.707412220547894],[85.32923541091007,27.707386303635165],[85.32910556508952,27.707397282676457],[85.32894135739959,27.707432860567952],[85.32886139115924,27.7075711300004],[85.32848294678884,27.707677459554358],[85.32801105978244,27.707407702098976],[85.32747542587035,27.707514982988915],[85.32737040515568,27.707403133684082],[85.32756163418684,27.70727918453615],[85.32787500322344,27.707220497592544],[85.32795800000345,27.707194851274153],[85.32797645398266,27.707161566151054],[85.32794421279061,27.707072620270736],[85.3279157272993,27.707054154506466],[85.32787708271083,27.707066796716564],[85.32785170344023,27.707118315958436],[85.32777733950651,27.707134108523917],[85.32769468255937,27.70694212135558],[85.32765432115694,27.70671906872522],[85.3276304237904,27.70669356487795],[85.32759148421077,27.706697254278428],[85.3275670427261,27.706732774935613],[85.32759741036325,27.70689490141088],[85.32752325614874,27.706934113875654],[85.3274581380094,27.706927532890855],[85.32732384582769,27.706952086850038],[85.32724465960911,27.70687617692009],[85.32697838074067,27.705880529280932],[85.32735961803466,27.705787451593398]],[[85.3288128109948,27.706596066010047],[85.32882147275058,27.7063995773817],[85.32899235691616,27.706332438094638],[85.32906673712917,27.706267038633236],[85.32907169649114,27.706235060103744],[85.32905124850502,27.706214272201017],[85.32901964386653,27.706212636627367],[85.3285927576783,27.70638564025143],[85.32833655544641,27.706111290231476],[85.32836543146138,27.706039220203312],[85.32850472109625,27.706014413220412],[85.3287672411345,27.705924632508257],[85.32880538869638,27.705849171907925],[85.32879186375283,27.705827509051627],[85.32876395148651,27.705818731170403],[85.32861842648161,27.705855925924023],[85.32849792954535,27.70577612597549],[85.32843701067864,27.7056390368998],[85.32853320434823,27.705568011708568],[85.32865855015382,27.705526827539543],[85.32896672506433,27.705506950667004],[85.32930152232706,27.705382972225983],[85.32935154091291,27.70534809763225],[85.3294497947475,27.70546563957412],[85.32948424265282,27.70547755416357],[85.32994997366278,27.706055491307442],[85.32998046348678,27.70618308135016],[85.32990397542824,27.706256698963575],[85.32979698307408,27.70631248034763],[85.32979382004541,27.706358899471798],[85.32982815614814,27.70637342502072],[85.32993883136544,27.706349712255246],[85.33003394122213,27.706279923154145],[85.33016023997659,27.70635510049581],[85.33024920615152,27.706451221071585],[85.3300226201819,27.706568554685447],[85.33000671850145,27.706591230822795],[85.33001298779082,27.706618290228164],[85.33005432109931,27.706636156735787],[85.33009493556332,27.706617200209273],[85.33037560206776,27.706587197037017],[85.33046155991835,27.706649258151504],[85.33050298535404,27.706704196689685],[85.33060541620311,27.706955418735514],[85.33071249756924,27.707099036764472],[85.3306629594988,27.70721085646708],[85.33062272637645,27.707201519943705],[85.33059270122277,27.707221662867674],[85.3306050288944,27.707291379614336],[85.33062855645262,27.707305707794877],[85.33069400388284,27.70731042564121],[85.33079322104078,27.70726229716706],[85.33091859741953,27.707332268043864],[85.33105041340116,27.7074304535431],[85.33111675948035,27.707532917741094],[85.33129406337295,27.707710585638733],[85.3313108544016,27.70776112996524],[85.33116701485403,27.70777785750648],[85.33115194775213,27.707748007008792],[85.33112258573937,27.707737042591923],[85.33105931702293,27.70776913462825],[85.33110128054444,27.707919074731116],[85.33106625198626,27.70797271874337],[85.33098646180855,27.707984144000676],[85.33096085124615,27.708004110690084],[85.33095496770832,27.70803209262956],[85.33097607125046,27.70806003264092],[85.33085038517063,27.70827197788605],[85.33091659933359,27.70845272472953],[85.33098642194027,27.708477300277334],[85.33120470881906,27.708429252002126],[85.33135533122343,27.708428619747966],[85.33151961944942,27.708391422743983],[85.33166148454563,27.708307664382282],[85.33172531683647,27.708460776276535],[85.33155611721018,27.70854491827004],[85.33116922003926,27.708691627048985],[85.33092941082782,27.708747530027114],[85.33079871227582,27.7087521604873],[85.33071218227137,27.708790538366856],[85.33059669771424,27.70881536628245],[85.33048477579538,27.708537585539943],[85.3305031911699,27.708494354365442],[85.33044513071567,27.708439189467295],[85.33041552127663,27.70826199941052],[85.33034925212665,27.708201457162964],[85.33014133453176,27.707699556392978],[85.33021158345949,27.7075467792636],[85.33038151052477,27.707472565950216],[85.33049038566543,27.70745242039867],[85.33051124150845,27.70742807403459],[85.33050358615672,27.707398226617176],[85.33044750879242,27.707370157523684],[85.33021785109953,27.70743915050209],[85.3301585180358,27.707476696785594],[85.3299586283669,27.70748950286916],[85.32984778484206,27.70752852529905],[85.32974172478883,27.70749629417281],[85.32972272855766,27.707412575595058],[85.32964611933356,27.70724212193753],[85.32979552605117,27.707188449292566],[85.32990933813085,27.70706617265695],[85.33004412699786,27.707008497982745],[85.33005891351449,27.706981872836362],[85.3300488165924,27.706943304770398],[85.3299877723923,27.706932825644174],[85.3299045432366,27.706956009946648],[85.32982620989773,27.70699455353824],[85.32973446700737,27.707122774015783],[85.32961293120592,27.707132358660683],[85.32956464988366,27.706974867363705],[85.32958533400402,27.70688941450127],[85.32950059651922,27.70669544462276],[85.32921010263972,27.7066200624158],[85.3292086182311,27.706585121362753],[85.32917402594842,27.70656771053668],[85.32907075824892,27.7065983222883],[85.3289275544669,27.706704602995327],[85.3288128109948,27.706596066010047]],[[85.32841046859014,27.70578388108966],[85.32839770050757,27.70581510059075],[85.32843493701073,27.70593288082123],[85.32831160490885,27.705958001913885],[85.3282381636317,27.70599706915209],[85.32817985035638,27.705907085430965],[85.32809937245204,27.705846630550056],[85.3281396838308,27.705734955061825],[85.32817018403487,27.70571492284492],[85.32818241515206,27.705680951980465],[85.32815501903272,27.705616732295105],[85.32812832780246,27.705601269575542],[85.32809802768536,27.705607276112335],[85.32807096457832,27.70566907572963],[85.32797547112267,27.70566799626021],[85.3279082728499,27.705602630788345],[85.32785341247322,27.70558937583236],[85.32778676249646,27.70550692082718],[85.32782450669451,27.705428582116433],[85.32866601125194,27.705183600017698],[85.32879509459686,27.705219297664083],[85.32881955901657,27.70532505777464],[85.32872061866604,27.705404491028315],[85.3286552532572,27.705412695808075],[85.32850082979839,27.705494803680125],[85.32842349539774,27.705492528556682],[85.32833282777764,27.70556444657569],[85.32832512483392,27.70564785960387],[85.32836498105047,27.705673248181277],[85.32841046859014,27.70578388108966]],[[85.32959938860415,27.705445403730895],[85.32978730232087,27.705555366518254],[85.32981568464533,27.70560095208816],[85.33016461792754,27.70586141919881],[85.33028517124409,27.705899181456296],[85.33033170827689,27.705928476635417],[85.33042961129757,27.706024378977556],[85.33048298267687,27.706108232067134],[85.33046724562413,27.70623153714789],[85.33069826837,27.706492560309176],[85.33073281853856,27.706494369642506],[85.33075734123237,27.706468478314108],[85.33092881055047,27.706413298986778],[85.33095710851352,27.706473283218127],[85.33099838204963,27.70648355395116],[85.33119512721272,27.70637349741183],[85.33132169154047,27.70632976630583],[85.33153516175574,27.706357784845665],[85.33157809286188,27.706429287640958],[85.33138874952697,27.70653990366538],[85.33139455994599,27.7066855043622],[85.33142169222003,27.706709014256933],[85.33145630406834,27.706704022264702],[85.33165955838979,27.706537053106377],[85.33175703461815,27.706654538130326],[85.33175978437859,27.706727720588866],[85.33171934620653,27.706842084775232],[85.33144032889213,27.70693077780748],[85.33120601504075,27.707042820017758],[85.33118228753406,27.707069563969323],[85.3311813303595,27.70709667932723],[85.33122230405596,27.707120176728278],[85.33129854443396,27.707089674232844],[85.33143682821618,27.707159901663715],[85.33146560501567,27.707161445743928],[85.33149334500061,27.70713373082957],[85.33150444617398,27.706998591111482],[85.33163690326398,27.706952303999376],[85.33173004273911,27.70695066717809],[85.3317770373544,27.70691854148464],[85.33188822638596,27.70691549705767],[85.33189834755639,27.706964689875747],[85.3319462844291,27.707028568111934],[85.33191032154869,27.707184508211675],[85.3318783700119,27.707253788991302],[85.33174373771935,27.70729825832105],[85.33159642600069,27.707449955771892],[85.33140618336664,27.707480278734852],[85.33127178904968,27.70733640277278],[85.3312396085192,27.707275566295536],[85.33107994726363,27.707159617450262],[85.330962753754,27.70715066617346],[85.33077943846527,27.70698103082874],[85.33063486484981,27.706789675262243],[85.33063224467989,27.70667428239453],[85.3305245695461,27.7065062199477],[85.33045170481482,27.706425362560864],[85.3303344234457,27.706355991341216],[85.3301607284362,27.706199863653623],[85.32956817107647,27.705454410448592],[85.32959938860415,27.705445403730895]],[[85.33169743441516,27.706461165964242],[85.33167651019617,27.706364172193943],[85.33209662144156,27.706410978022266],[85.33225793567034,27.706622405196818],[85.33224524048866,27.706801886491483],[85.33227666031094,27.706909053412293],[85.33218618391521,27.706933285938824],[85.33202273175979,27.70691826221212],[85.33191828100318,27.706813922995504],[85.3318926746656,27.706704860971264],[85.33169743441516,27.706461165964242]],[[85.33171553414527,27.706295261978465],[85.33174811012913,27.706209307164134],[85.33174155107339,27.70616332795472],[85.33196553692436,27.706164813986057],[85.33197355517261,27.706207452382696],[85.3320528379892,27.706333339235393],[85.33171553414527,27.706295261978465]],[[85.33171553548723,27.705882761732912],[85.33177322194656,27.70587133836132],[85.3318828421625,27.705820475843698],[85.33209255865265,27.70580065889158],[85.33211614027886,27.705758666064327],[85.33223145187559,27.705715291372005],[85.33228109145624,27.705725358361253],[85.332411729527,27.705668380598883],[85.33250387569205,27.70560404025991],[85.33261494848263,27.70555190554885],[85.33263544772402,27.705586639264414],[85.33267877466403,27.705800076727552],[85.3326648957023,27.705845535819268],[85.33269762102697,27.70600337056352],[85.33272146115681,27.70602681026398],[85.33276329669579,27.706026054448063],[85.33281467129618,27.705975756542507],[85.33276890256826,27.70585797173646],[85.3328513092496,27.705816512732998],[85.33286555306238,27.70578788407924],[85.33278532111096,27.705604132271734],[85.33276961448342,27.70545999049488],[85.3329274300387,27.705367722614874],[85.33322435255774,27.705255776428753],[85.3333423854029,27.70533366902183],[85.33343649025404,27.705504627504347],[85.33307308735377,27.70555654416348],[85.33303038554014,27.705573427128364],[85.33300769394793,27.70560180121716],[85.33301519736186,27.705685366200186],[85.33306075061061,27.70570193604726],[85.33310859002218,27.70563854391869],[85.3332265630904,27.70563902104758],[85.33333928734005,27.705603317162282],[85.33341914845889,27.70570992238367],[85.33316881369889,27.705815039598654],[85.33314821764436,27.705847650219795],[85.33315669631837,27.705876038144588],[85.33320052416482,27.70588822914468],[85.33336778575982,27.705830408192067],[85.33358815663935,27.705801399598204],[85.33365949119056,27.70597137209905],[85.33344832730369,27.706053363055588],[85.3334275554625,27.70607953212316],[85.33344645415052,27.706128875235606],[85.33357574804283,27.70622543173827],[85.33362883982998,27.706329307575093],[85.33358233545135,27.706406106204415],[85.3335164513906,27.706457991278814],[85.3334683400367,27.706407004605175],[85.33341609673869,27.70628544998659],[85.33337731826714,27.7062750014533],[85.33334734943217,27.706300812718066],[85.3333442098021,27.706338821640305],[85.33340336046498,27.70654969079713],[85.33332410100836,27.70661568460711],[85.33331423103816,27.706643738708014],[85.33341019801037,27.706771459458267],[85.33335580887208,27.706903028717154],[85.33327714665936,27.706885808793476],[85.33322832731282,27.706780269073235],[85.33319619839493,27.706747544698246],[85.3331443962506,27.70656807604041],[85.33311270863581,27.70653309244348],[85.33306547986408,27.706429626959988],[85.3330661120618,27.70636968505785],[85.33297722088575,27.706250928382623],[85.33293128339162,27.706234987934526],[85.33289843240645,27.706246259907896],[85.33283933640169,27.70638190425189],[85.3327732064881,27.70638335111064],[85.3327474575912,27.706411834185356],[85.33263738310623,27.706416831637142],[85.33258512208928,27.706179678197696],[85.33254736859317,27.70612921755821],[85.33251446176405,27.706119466568914],[85.33248741631229,27.70613302876171],[85.3324635909841,27.706173996033346],[85.332492134114,27.706320603009633],[85.33240187064692,27.706370783819093],[85.33226128956044,27.70635656302913],[85.33204893707831,27.70609743046289],[85.33172110798678,27.706090992963322],[85.33167676580106,27.705986294465973],[85.33171553548723,27.705882761732912]],[[85.3320705435364,27.70562135260633],[85.33218639325591,27.70557711205577],[85.33220489878647,27.70564689893578],[85.33209286395541,27.705689041072812],[85.3320705435364,27.70562135260633]],[[85.33247580556278,27.705535085704057],[85.33221481911956,27.70540519161874],[85.33211787538633,27.705284971872803],[85.33195002825148,27.705148820684748],[85.33177321255172,27.705182776251334],[85.33173270209244,27.705204881059576],[85.33168424362164,27.70510344177813],[85.33173825044797,27.704914330006726],[85.33171860292614,27.70489493440318],[85.33155712772796,27.704832981837438],[85.33163834974776,27.704734594782618],[85.33177957909179,27.70476653846213],[85.33199964342259,27.704772191005265],[85.3320331229591,27.70475574797304],[85.33203645392264,27.704722028344882],[85.33200648167278,27.704700599538224],[85.33179940717746,27.704684221250155],[85.33164512698794,27.70463415887133],[85.33147174866984,27.704687405002343],[85.33135335398609,27.704452107547613],[85.33138152977536,27.70439715002267],[85.33152352675545,27.704350228050668],[85.33164013578886,27.70436774877615],[85.33165477095112,27.704462989695706],[85.33173427015764,27.70453698390633],[85.33177081863349,27.704544020994845],[85.33185204618417,27.704438083835587],[85.33202166787568,27.70439156405793],[85.332043442923,27.704372591170753],[85.33203859473423,27.704336378985708],[85.33192508635963,27.704226462487718],[85.33240533785967,27.704069272055765],[85.33247718180101,27.704063034156786],[85.33261503932873,27.70408695870427],[85.33268647839735,27.70421170718022],[85.33245742606111,27.704358961548053],[85.33236623270227,27.7043525532513],[85.33233471483986,27.70439225123376],[85.3323372808691,27.70442293349189],[85.33236185731754,27.704439980558696],[85.33244374878286,27.704451902555093],[85.33277516469629,27.7044156136021],[85.33280920913043,27.704399268433352],[85.33293497430559,27.704617806620583],[85.3328408696725,27.704614866470774],[85.33275068818033,27.704650133734827],[85.33265980214729,27.704665037310082],[85.33260291360435,27.704709594073872],[85.33260163507586,27.704745965574713],[85.3326369508049,27.704764852235602],[85.33273403057534,27.704748961710354],[85.33283797787703,27.704820416891693],[85.33285252516649,27.704865708083467],[85.33287514668187,27.704882724966982],[85.33290389731863,27.70488183878901],[85.33304202798516,27.704820783861095],[85.33308601237493,27.704884616949318],[85.33305625598894,27.704988491794946],[85.33290960376185,27.705030642049216],[85.3327591412033,27.70506295452848],[85.33272570474878,27.705056113176635],[85.33268202342339,27.70507915722133],[85.33256119956994,27.705096796925414],[85.33257248886355,27.704977536605707],[85.33250474422542,27.704927159769824],[85.3321817626663,27.704882514163177],[85.33214665617453,27.70489585449727],[85.33214681467061,27.70498162522535],[85.33216263309022,27.705052214564063],[85.3321874688616,27.705083540503733],[85.3323189197599,27.705101590783134],[85.33244503918603,27.705164327464107],[85.33247127243189,27.705279939847326],[85.33250919691426,27.7053045286197],[85.33255258111167,27.705412627793354],[85.33253891386637,27.70544973835015],[85.33257055126468,27.70549112245113],[85.33247580556278,27.705535085704057]],[[85.3329095863887,27.705107719877965],[85.3329492370038,27.705126830398264],[85.3330527092165,27.705074376609975],[85.33318060691748,27.705082126673556],[85.33317442907783,27.705162616540452],[85.3328571447205,27.70524983896859],[85.33279938811607,27.705283211222653],[85.33277601241831,27.705133600687947],[85.3329095863887,27.705107719877965]],[[85.33377727397858,27.705549918698992],[85.33401705404232,27.705531951058486],[85.33415989418467,27.70554454549565],[85.33421370647626,27.70562716274998],[85.33430919433403,27.705684315471583],[85.3343490141208,27.7057754987407],[85.33414313126124,27.70586258219925],[85.33419101223078,27.706062857743643],[85.33409033504284,27.70619891309045],[85.3339906094773,27.70637675833969],[85.33383480318939,27.70634425042078],[85.33398554886224,27.706106747606622],[85.33395273872026,27.706074710139745],[85.33389751000644,27.706091817062052],[85.33379370417552,27.70580005046372],[85.33377727397858,27.705549918698992]],[[85.33252645113281,27.706504354612136],[85.3328633732219,27.70647886269063],[85.33302256103813,27.706584702744962],[85.33310377623836,27.706788831721813],[85.33314375165371,27.706821883457692],[85.33317086898168,27.706930023915042],[85.33316082754979,27.70703317495172],[85.33295671639998,27.70701056994991],[85.33280400549293,27.707010651991155],[85.33267663396639,27.707054355917883],[85.33256672109582,27.707064927130418],[85.33248771632181,27.70703508494016],[85.3324867080866,27.706904785942097],[85.33260130793151,27.70687112137221],[85.33265209661597,27.706875402016486],[85.33268041040813,27.706844195545184],[85.33265171667729,27.706705601900772],[85.33260559716813,27.706677837485245],[85.33252645113281,27.706504354612136]],[[85.33207695274653,27.70707972612201],[85.33208860009933,27.707099474013965],[85.33206765866956,27.707185697919485],[85.3319951777729,27.707175638173673],[85.33202124712673,27.70706259743848],[85.33207695274653,27.70707972612201]],[[85.33126276692963,27.707521116419983],[85.33121003430364,27.707486504485423],[85.33124447133086,27.707422791955626],[85.33131700793962,27.707504157159857],[85.33126276692963,27.707521116419983]],[[85.33102788000859,27.708394317251187],[85.33100221949195,27.70835336226914],[85.33107755435242,27.708383220437153],[85.33102788000859,27.708394317251187]],[[85.33177795424444,27.708301639140043],[85.33177415947101,27.70834782913513],[85.33175229126769,27.708298165577187],[85.33177795424444,27.708301639140043]],[[85.33046033541699,27.708694242076405],[85.33043319236265,27.70882799292666],[85.33033229086234,27.708848357805472],[85.33022141554116,27.70873972851107],[85.33009757725308,27.70843640176558],[85.33031712054797,27.70834792869404],[85.33035535318372,27.708476161837627],[85.33039697317679,27.708533554250685],[85.33046033541699,27.708694242076405]],[[85.32946772532775,27.70690978786667],[85.32942945091095,27.70697475432607],[85.32939654108588,27.70698451867402],[85.32946772532775,27.70690978786667]],[[85.329794070754,27.70763916260974],[85.32979325474355,27.707636935374104],[85.32979474314746,27.707636502613287],[85.329794070754,27.70763916260974]],[[85.32813435238481,27.707577073160156],[85.32797720610182,27.707836290769723],[85.32777230682932,27.707877736644527],[85.32760422279632,27.707932038264712],[85.32745063588618,27.70779347646713],[85.32743296711197,27.707695213356],[85.32751029291664,27.707581914546942],[85.32799497977715,27.70748231019746],[85.32813435238481,27.707577073160156]],[[85.3272791800592,27.707055114609968],[85.32749509731917,27.707022393793],[85.32750835320442,27.707210267391865],[85.3273238023784,27.707247151147175],[85.3272791800592,27.707055114609968]],[[85.32751183126328,27.70804358591467],[85.32791159803203,27.707933734464188],[85.32802324179391,27.707921799419935],[85.32830873155255,27.70781043587324],[85.32887826883061,27.70765261181148],[85.32898763251919,27.70776582122411],[85.32904555600221,27.70792775830303],[85.32846746987056,27.708109949148646],[85.32829097312775,27.70812632017766],[85.32818476762559,27.70819349842715],[85.32760510519903,27.708363935580522],[85.32751183126328,27.70804358591467]],[[85.32772632241434,27.708751000765275],[85.32771916881656,27.708755685091713],[85.3277126341961,27.708733242122452],[85.32772632241434,27.708751000765275]],[[85.32784779281221,27.709083799204336],[85.32788927212157,27.709051287601426],[85.32817222968181,27.70894823802304],[85.32829546597367,27.709030381028207],[85.32824495831883,27.709068152208975],[85.32823569472427,27.709092052648373],[85.32830519892096,27.709282352240425],[85.32792641267903,27.709376156121422],[85.32786163214624,27.709258643266665],[85.32781512889194,27.709087802488018],[85.32784779281221,27.709083799204336]],[[85.32783954735251,27.708818719406874],[85.328119705414,27.708731573604606],[85.32821934521385,27.70885307110191],[85.32787440759097,27.708978693196293],[85.32783954735251,27.708818719406874]],[[85.32781871697833,27.7084039496572],[85.32795030088108,27.70833879044653],[85.32802420843544,27.708342097178505],[85.32877920079332,27.70812654381248],[85.32893195872096,27.70806828227286],[85.32910859386214,27.708033712389934],[85.32913774577402,27.707990339629003],[85.32926444150529,27.707974732159066],[85.32929653991444,27.70799609530835],[85.32936163690844,27.707988295325254],[85.32954602266902,27.708193353251513],[85.32941578547047,27.708311220544815],[85.32910305975211,27.708447388358447],[85.32908482727139,27.70848721750882],[85.32910698581843,27.708510964688433],[85.32951187062349,27.708669242689467],[85.32957368420888,27.7087589135574],[85.32957333998583,27.708839736483192],[85.3296456376979,27.708935571753376],[85.32961924135891,27.708999485289368],[85.32896364074989,27.709143946177182],[85.32892170660331,27.709095932829946],[85.3288904647327,27.70901294375731],[85.32885361339885,27.708986255186932],[85.32869931962568,27.70902236123725],[85.32866230643884,27.708994884809233],[85.328443986335,27.708997426973433],[85.328346198364,27.708888845519123],[85.32838067928236,27.708848244982775],[85.32834560096352,27.70866633277059],[85.32867855183716,27.7085714581447],[85.3287763170776,27.7087536970721],[85.32882749329146,27.708767327844637],[85.3288509234472,27.708730150991627],[85.32878475947147,27.70848332444918],[85.32870790887553,27.708472833441792],[85.32854852057731,27.708521615635256],[85.32850477572609,27.70851178656789],[85.3282838536154,27.708597819685615],[85.32808953287056,27.70862900750091],[85.3280277333104,27.708683702684777],[85.32783379033633,27.70874403043527],[85.32781871697833,27.7084039496572]],[[85.32844374351458,27.70910450182708],[85.3286329641218,27.70910157512108],[85.32866142169499,27.709172122183933],[85.3286039442963,27.709236023268026],[85.32844438431569,27.70927877195275],[85.3283824716218,27.709260360396627],[85.32832647466145,27.709111053239987],[85.32838023952283,27.709090247665983],[85.32844374351458,27.70910450182708]],[[85.32975373596881,27.708918609330333],[85.32967833590261,27.708799577975967],[85.32966485602624,27.70873384793412],[85.32961171017274,27.708625647114893],[85.32959775623188,27.708535445252224],[85.3295589597107,27.708512198296415],[85.32950375239521,27.708377432987742],[85.32964871747494,27.708225114258735],[85.32990113814677,27.708167402141147],[85.32993162616211,27.70825945241684],[85.32990031118709,27.708277835585662],[85.32989579642339,27.70830894855962],[85.33006901193363,27.70862815626581],[85.33016489930819,27.708892923201578],[85.33003105751907,27.70890409207528],[85.33000197321543,27.708937172884035],[85.32976507585765,27.708991374412005],[85.32975373596881,27.708918609330333]],[[85.32939125803843,27.708430027678094],[85.32943336085185,27.708416373580523],[85.32945285033892,27.708463949027063],[85.32939125803843,27.708430027678094]],[[85.33210226603944,27.708482489711265],[85.33205665182928,27.708509756396747],[85.3319380165738,27.70840160110101],[85.33193535351482,27.70829723866339],[85.33189842450167,27.708227928225774],[85.3316922677582,27.70812982264586],[85.33164053255736,27.70803006525329],[85.33173179617346,27.70796625463877],[85.33189244926993,27.707950453861493],[85.33195107861441,27.70798330954276],[85.33198677940422,27.707979106131848],[85.33201645396873,27.707921719958136],[85.33197866122673,27.707835090707704],[85.33185477447867,27.70779721993368],[85.33167497287249,27.707863225660052],[85.33156559438493,27.70794322078573],[85.33144578475383,27.707734626544628],[85.33146254454243,27.70762166393602],[85.33166030034442,27.70752204119038],[85.33184704582179,27.70758236764116],[85.33222645162382,27.70762426948779],[85.33240526513652,27.70765950265919],[85.33243190162528,27.707627147438952],[85.33241061119536,27.707434270335185],[85.33244665744273,27.707398725215107],[85.33243768743016,27.707321913939555],[85.33241744186813,27.707297158534335],[85.33249448180835,27.7071717451833],[85.3326360986903,27.707190184244475],[85.33273154702022,27.707164940334177],[85.33285300785538,27.70716015656078],[85.33289136824057,27.707405965677918],[85.33300311484811,27.70744149582755],[85.33314698552087,27.707437895742505],[85.33315895697028,27.707446619676098],[85.33311829347831,27.707639510499295],[85.33314974372817,27.707657682714036],[85.33328268796895,27.707655147148518],[85.33328414966488,27.707743223955248],[85.33325249563273,27.707777979232937],[85.33327327708352,27.707908160295744],[85.33327321960522,27.708041764897757],[85.33320191970817,27.708137857750987],[85.33311735933643,27.70816107793813],[85.33300359312894,27.70811194543229],[85.3329141963929,27.708041954214337],[85.33277012459611,27.70776181244416],[85.33282032731582,27.707668047861922],[85.332730884556,27.707543102374665],[85.33274914746612,27.707486231675624],[85.33274161812483,27.707415793995498],[85.33272008510404,27.707395946184707],[85.33268909066803,27.707395431198496],[85.33266532499194,27.707417855340697],[85.33259826572015,27.707676214053706],[85.33260539548972,27.7077144427066],[85.33265903232495,27.70776192013413],[85.33269982537198,27.707872661957065],[85.33264652264336,27.70801599567063],[85.33248417282209,27.708353478853848],[85.3323905412671,27.70836496967771],[85.33236332774638,27.708397165219818],[85.33210226603944,27.708482489711265]],[[85.33200345867499,27.70752603539515],[85.33184252271782,27.707353988041145],[85.33191239987443,27.707335520108515],[85.33203538976737,27.707351350873207],[85.33211844671627,27.707401969520586],[85.33229777259973,27.70742240460272],[85.33226382995089,27.707554780694743],[85.33200345867499,27.70752603539515]],[[85.33218013568413,27.707305440312002],[85.33215833977155,27.70722603857489],[85.33219033576664,27.70710814792396],[85.33223679317965,27.70702974707861],[85.33234418799748,27.70699377686919],[85.33237927899374,27.70709636849433],[85.3324244491788,27.70713524939041],[85.33233065057819,27.70728794397676],[85.33218013568413,27.707305440312002]],[[85.33267940204641,27.70824085741258],[85.33288719647824,27.708163963078455],[85.33293937445544,27.708221838267644],[85.3326701522693,27.70829936892024],[85.33267940204641,27.70824085741258]],[[85.3327186116544,27.708073922079166],[85.33284372113978,27.708097509951642],[85.33284591883158,27.708101048559627],[85.33269842687372,27.70815562799058],[85.3327186116544,27.708073922079166]],[[85.33379106949614,27.708076721561227],[85.33384858618167,27.708120993933317],[85.3337443728927,27.70812653614968],[85.33379106949614,27.708076721561227]],[[85.33416116792762,27.708101729770135],[85.33415294616974,27.708077949757374],[85.33412678631535,27.708064120882614],[85.33395208797641,27.708076327513723],[85.33381814456935,27.707981057897783],[85.33383500073403,27.707573316681113],[85.33419225812463,27.707582618702265],[85.334195752175,27.707781616619535],[85.33420645220215,27.707812345501967],[85.33423276220412,27.7078260933857],[85.33442088326164,27.707810700106993],[85.33475229057115,27.707710374199834],[85.33487194788582,27.70778636744277],[85.33493985413166,27.70791290211066],[85.33496350888545,27.70801432222742],[85.33481991442403,27.70806578333263],[85.33472620673632,27.70802333114441],[85.33471355026644,27.70794586083784],[85.33465835007374,27.70791929482989],[85.3346275229727,27.707936687047287],[85.33455132159868,27.708083619357687],[85.33416116792762,27.708101729770135]],[[85.33380792048912,27.707501731692826],[85.33373845282227,27.70747154271295],[85.33370260466845,27.70749273260133],[85.33370126971306,27.70751955842936],[85.33374179686626,27.70759743617264],[85.33369852740128,27.707703540132908],[85.33370186536305,27.707850293292033],[85.3336182158557,27.70803278659942],[85.33349592629536,27.70811149100651],[85.33347041448114,27.708077224458403],[85.33348362120329,27.70797298582918],[85.33346709093044,27.70783556930644],[85.33346162516929,27.707453528661997],[85.3334694182259,27.707372111922222],[85.33351457866719,27.707259874991852],[85.33351409592844,27.707135998742864],[85.33357322595526,27.70694439246023],[85.33365192487442,27.706875055090215],[85.33384035339131,27.706909119499862],[85.33385562787083,27.706968992386756],[85.3337815080077,27.707021173737736],[85.33375888154069,27.707143374803692],[85.3337612069946,27.70721104559668],[85.33378604274874,27.707236664296747],[85.3338319390364,27.70722610356094],[85.33385342252801,27.707154279650904],[85.33392981163959,27.707088063876796],[85.33401369744529,27.707105734115814],[85.33404669299931,27.707093050159717],[85.33405618363612,27.70704184861942],[85.33397073893177,27.70697378293086],[85.3339862778511,27.706917996954324],[85.33411420697064,27.7067016967866],[85.33424741647758,27.706561054861886],[85.3342482925001,27.70652393815284],[85.3342069570195,27.70649603956199],[85.33414202294087,27.706506437143492],[85.33409209998096,27.706595349975974],[85.33403446094509,27.706651078317392],[85.33397376080238,27.706742092332572],[85.33389085539187,27.706803914124688],[85.33384473514747,27.706740512251898],[85.33391895221493,27.7065870169703],[85.33408489208584,27.70642234550746],[85.33423422360717,27.70620353787652],[85.33430412483754,27.70621403618615],[85.33443479162034,27.706271065910837],[85.33443582508048,27.70645317493007],[85.3344701430532,27.70654513496451],[85.3344329924641,27.706861601038906],[85.33438552237051,27.70694474070045],[85.33420397806658,27.70692173542027],[85.33417519358441,27.706939197539306],[85.33416789432955,27.70697253373584],[85.3342023847059,27.70701262388003],[85.33429187762604,27.707026479597133],[85.33435271203227,27.707060017440117],[85.33426262394768,27.70724459400517],[85.33428276119741,27.707320066767373],[85.33435409442261,27.707359766200877],[85.33440503926136,27.707356830145788],[85.3344709505427,27.7073238278506],[85.33446485385595,27.70724407982201],[85.33449908898903,27.70708022775781],[85.33457006155038,27.707073611039842],[85.33459909621905,27.707146892650844],[85.33463271533367,27.70735834734906],[85.33468373386292,27.707429499467054],[85.33441113877751,27.707505642539505],[85.33415842347355,27.70747092624856],[85.33398556261484,27.707497548645435],[85.33380792048912,27.707501731692826]],[[85.33471461551495,27.70749654301873],[85.33471629383202,27.70764066882588],[85.33465448492953,27.707661807549506],[85.33457391075359,27.70753584569605],[85.33471461551495,27.70749654301873]],[[85.33510129922824,27.708054366601413],[85.33504731120483,27.707906069015717],[85.33519319261696,27.707831546665826],[85.33520606921019,27.707791588839264],[85.33516363342359,27.707767518720527],[85.3350131725349,27.707808297768096],[85.33495897489021,27.707746668508126],[85.3349512331282,27.707691181675315],[85.33498414653153,27.70757704782558],[85.33496717581782,27.70755722515879],[85.33482129590575,27.707491630452033],[85.33477534117067,27.70740060596768],[85.33473925824029,27.70726475830436],[85.3347657418571,27.707149935890765],[85.33481962158855,27.70713901412075],[85.33492126053703,27.70720122323039],[85.3349535320561,27.70728234346834],[85.33510610689474,27.707378554105443],[85.33516332583902,27.707591717240785],[85.33529353846029,27.70767585393268],[85.33529877688532,27.707749025778266],[85.33539651410734,27.707954285800966],[85.33535560592054,27.708038783234215],[85.33510129922824,27.708054366601413]],[[85.33550207756625,27.707930647768933],[85.33545427846416,27.70782700730789],[85.33552541388666,27.707806322960657],[85.33563932966788,27.70789480783747],[85.33566414714402,27.70802647158377],[85.335526612443,27.70803215388642],[85.33550207756625,27.707930647768933]],[[85.33574105061949,27.707959842654486],[85.3357352433509,27.707967277662135],[85.33573280933646,27.707954364578473],[85.33574105061949,27.707959842654486]],[[85.33597950439355,27.707984001302076],[85.33619976591207,27.707941761095793],[85.33613918036494,27.708006013054074],[85.33597761505996,27.708013843923528],[85.33597950439355,27.707984001302076]],[[85.33645345239736,27.706960182445915],[85.33650258349734,27.707261454305993],[85.33640671163988,27.707433966595076],[85.33629567669979,27.7074727756218],[85.3362674138273,27.70740547053206],[85.3362670077919,27.70735763454307],[85.33624411665848,27.707341177869615],[85.33621558781796,27.707342490237146],[85.33617667220216,27.707394021031917],[85.33616378692402,27.707524849212664],[85.33618749721563,27.70755412060213],[85.33627173022575,27.707571831070755],[85.33643627451501,27.707530242180013],[85.33654596323831,27.70758366350909],[85.33655955627178,27.707647041056678],[85.33629495414225,27.7077405479085],[85.3362783904357,27.70769894437461],[85.33623434309702,27.707691397142423],[85.33621080914274,27.7077153326041],[85.33621507032946,27.7077643611421],[85.3359039625782,27.707755698982993],[85.33586591671636,27.707565790422667],[85.33593479211666,27.707473917456763],[85.33593842821413,27.707448518835594],[85.33592017707119,27.70742616954227],[85.33580276268799,27.707370507132936],[85.33588009024338,27.707281488233967],[85.33600478499699,27.707236416605422],[85.33606802179143,27.70710290425946],[85.33608555534754,27.70710079418271],[85.33621278561789,27.707181330874565],[85.3362795840587,27.707162658289093],[85.33629176434087,27.707120935645914],[85.3362607511331,27.707040862375642],[85.3362731344225,27.70682957947779],[85.33629855483322,27.706743832498187],[85.33634211590594,27.706732010019188],[85.33642815718711,27.70680361166587],[85.33642500568938,27.706931464318657],[85.33645345239736,27.706960182445915]],[[85.33638958588364,27.70637594396418],[85.33637997111813,27.706401742564665],[85.3363973836054,27.70654590832401],[85.33633179405177,27.70662003504062],[85.33619279637324,27.70655524252047],[85.33605196416755,27.706536322381293],[85.33600218056777,27.70646771878663],[85.33595314831088,27.70648162457522],[85.33594729202893,27.706507784227274],[85.33598424930832,27.706649292732326],[85.33605895530599,27.70666697220036],[85.33615121172787,27.70665113729653],[85.33616856972367,27.706720933118703],[85.33615341311949,27.706773428190942],[85.33616448193098,27.706816043645293],[85.33591266227738,27.70685219563755],[85.33590171707307,27.706888049238156],[85.33597394623412,27.70702719874756],[85.3358858517866,27.707050025058624],[85.335789396031,27.70692260027124],[85.33577843657747,27.706691343657933],[85.33575274876729,27.706620765288683],[85.33575629149647,27.706547259146728],[85.33578892389767,27.706450743812177],[85.33573359584527,27.706352723048447],[85.33593978592506,27.706306439521285],[85.33605189467629,27.7063067951499],[85.33637352168911,27.706270550334644],[85.33638958588364,27.70637594396418]],[[85.33571297123954,27.706282894399955],[85.33572471653457,27.706204713456763],[85.3358069134197,27.706178874098832],[85.33586329584209,27.70617963035664],[85.33589501177899,27.706242031739954],[85.33571297123954,27.706282894399955]],[[85.33626147160369,27.706198342290424],[85.33626169356776,27.706114933945276],[85.3363397790784,27.706101802965637],[85.33635826501785,27.706189499703154],[85.33626147160369,27.706198342290424]],[[85.33602867674045,27.70457637781724],[85.33604011524613,27.70456858988584],[85.33604246048854,27.704591096571676],[85.33602867674045,27.70457637781724]],[[85.33599414919749,27.70412746419551],[85.33601563008482,27.70443314226827],[85.33577582457892,27.704783414693456],[85.33560621571422,27.704669583753795],[85.33572022824377,27.70455206451489],[85.33582575852459,27.704354984357956],[85.33585897466676,27.70411479963546],[85.33599414919749,27.70412746419551]],[[85.3356306101071,27.7048367187968],[85.33550427844288,27.70475118823495],[85.33555742442772,27.704727261072744],[85.33566156837774,27.704797156101588],[85.3356306101071,27.7048367187968]],[[85.33558801687767,27.704898641840625],[85.33558573826396,27.705048439949486],[85.33572991165984,27.705194556096643],[85.33579317159783,27.705205514769993],[85.33594114349299,27.705370725598833],[85.33573302630685,27.705348505022673],[85.33565942921842,27.70540531247703],[85.33558848489564,27.70551098453614],[85.33554226333422,27.705549816878218],[85.33545774895084,27.705494694792115],[85.33557707334596,27.70535601293267],[85.33557918805913,27.705321286415188],[85.33527953877194,27.70515550706192],[85.33525603546647,27.705059884154092],[85.33527770786964,27.704954232159384],[85.33533795039976,27.70484574216552],[85.33541662846895,27.704818291443907],[85.33543836098347,27.704797271670405],[85.33558801687767,27.704898641840625]],[[85.33587723919621,27.70395510592247],[85.33589404542285,27.703874663603422],[85.33594668368967,27.70385538231816],[85.33597664820142,27.70401935241457],[85.33587723919621,27.70395510592247]],[[85.33573872051831,27.702514202762128],[85.3357341519562,27.70256927649039],[85.33578315729022,27.7026821612582],[85.33575141350975,27.702733026196007],[85.33562700642511,27.702615131616835],[85.33548044448733,27.702340850265397],[85.33561058882742,27.702264987799715],[85.33573872051831,27.702514202762128]],[[85.33550162102829,27.7020345115644],[85.33545777871497,27.702138767126797],[85.33533524994586,27.70224395844535],[85.3353427943994,27.702292087217725],[85.33542345584235,27.70243080507175],[85.33532754477642,27.70250853082281],[85.33503568793681,27.70215019088966],[85.33489640139959,27.70208797981634],[85.33479798854474,27.702087789931092],[85.3347642579929,27.70214350932355],[85.33481376860146,27.70240234298756],[85.33472271190591,27.702363310199775],[85.33459300147923,27.702334053911883],[85.33450128478627,27.702259214704956],[85.33450744117793,27.702224829266626],[85.33449432808005,27.70220344089429],[85.33446515503094,27.70219436741803],[85.33441606173405,27.70220484341122],[85.33437078922964,27.702031708782137],[85.33437088860688,27.70176974469449],[85.33445114890735,27.70176730253858],[85.33448725809971,27.70187933775472],[85.33452254733979,27.701900178781475],[85.33456063123377,27.701879651198897],[85.3345958590157,27.70176036834116],[85.33465673141488,27.701776043986943],[85.33468226828128,27.701865132665827],[85.3346816088828,27.701924507306853],[85.33472773263088,27.70194755689346],[85.3347572320517,27.701925902666254],[85.33478034988865,27.701868345202318],[85.33477750108844,27.701823854906596],[85.33481477686617,27.701757602011302],[85.3349089727323,27.70166161777425],[85.33496232248022,27.701662932213033],[85.33503533345664,27.70173685428371],[85.33498575380685,27.70179647272126],[85.33494969076496,27.70189289307473],[85.33499148835523,27.701933702612695],[85.33503896615515,27.70193333742827],[85.33506603317997,27.701914037835348],[85.33509151965032,27.701830535764454],[85.33513385836602,27.70177048628302],[85.33521517569598,27.701586747849376],[85.33544645441496,27.701913504650623],[85.33550162102829,27.7020345115644]],[[85.33437435994007,27.702389541648547],[85.33434402184555,27.70248959694416],[85.3342064228841,27.702447447838885],[85.33397346396474,27.702402808313515],[85.33386516449607,27.70249566094753],[85.3338321488554,27.702625672394724],[85.33361894457718,27.70261924496887],[85.33368595427564,27.702210203412132],[85.33367029300105,27.702155914096576],[85.33360791461833,27.702148372829747],[85.33343213251027,27.702266491356113],[85.33310548142781,27.702203302233855],[85.33303864771105,27.702182734867332],[85.33294047559822,27.702087608769144],[85.33282197870807,27.701935011293124],[85.33287137048285,27.701896415769703],[85.33299851561699,27.701855902558304],[85.3331111460804,27.701886734303333],[85.33319198392279,27.702015415504526],[85.3332355858852,27.702026541552875],[85.3332632775303,27.701987602129616],[85.33321615382759,27.70188751889401],[85.33325649949316,27.70179182515091],[85.33336134349771,27.701823753421095],[85.33345298303686,27.701959494337984],[85.33349612690026,27.701971082242274],[85.33353301225499,27.701919079793853],[85.333476555674,27.701801027112836],[85.33356030523909,27.701731533973867],[85.33366652827978,27.70179855154392],[85.33370385302456,27.701950134679336],[85.33372265840813,27.70196789208546],[85.33375305069465,27.701970187603546],[85.33377532388822,27.70195498607542],[85.33378854978382,27.701917315353413],[85.33373424293569,27.701671272955345],[85.33385778228808,27.701697554600276],[85.33393715836203,27.70166958040654],[85.33398732499181,27.70174259301734],[85.334000064379,27.70180786465092],[85.33399527298792,27.701980975269663],[85.33389051155623,27.701992239492412],[85.33387148298942,27.70201406847932],[85.3338753698642,27.702041479795724],[85.33392123249082,27.70207966776269],[85.33430421340398,27.70209560447203],[85.33437435994007,27.702389541648547]],[[85.33445510362515,27.702486347471474],[85.3344277456357,27.702491588895846],[85.33443652479376,27.70246424598925],[85.33445510362515,27.702486347471474]],[[85.33334110173647,27.70260969371493],[85.33332609420596,27.702514796777937],[85.33343758735391,27.70251055935558],[85.33355098362067,27.702524597925144],[85.33353677432986,27.70262177560501],[85.33336907144138,27.7026269402785],[85.33334110173647,27.70260969371493]],[[85.33460147650757,27.70095737602161],[85.33514606011782,27.701501418491496],[85.33509518477935,27.701589760445025],[85.33481113460334,27.701502214934834],[85.33472759382818,27.701499317182588],[85.33460615659033,27.701356280058974],[85.33457318057228,27.70134436473601],[85.3345460550094,27.701355993024446],[85.33453222209513,27.701383778861988],[85.33448988603853,27.701633319735205],[85.33445443419444,27.70163852973854],[85.33435157849692,27.701615811048477],[85.33428228439031,27.701533824308527],[85.33429421417276,27.70139337013166],[85.33427656680693,27.701300247419233],[85.33424722015,27.701277363621735],[85.3342163443697,27.70128235207765],[85.33419870920976,27.701305454717055],[85.33417705668195,27.70145820770263],[85.33418679361709,27.70152801333745],[85.33409828664813,27.701566051411458],[85.33406256276142,27.701562036310456],[85.33398291084063,27.701483889170113],[85.33397109582815,27.701336563960016],[85.33395578859086,27.701308334051266],[85.3339638257734,27.701172458462633],[85.33415291981245,27.701138667304043],[85.33418562015638,27.701157705854396],[85.33428360928225,27.701147621203184],[85.33446571462919,27.70120169671658],[85.3344895379353,27.70118107500656],[85.33453459697063,27.701041797607463],[85.33460147650757,27.70095737602161]],[[85.33462360941945,27.70157314270214],[85.33457816524114,27.70159629195769],[85.33459060892581,27.701522601302926],[85.33462360941945,27.70157314270214]],[[85.33404053378638,27.701047343608632],[85.33411634338354,27.701024482299648],[85.33413244493099,27.701068644301035],[85.33401211602167,27.701089073136846],[85.33404053378638,27.701047343608632]],[[85.33442197709654,27.70084828139157],[85.3343314415447,27.70075564800221],[85.33432505471026,27.700700883099795],[85.33445954048771,27.70082495502268],[85.33442197709654,27.70084828139157]],[[85.33416274706872,27.700684495572876],[85.33386933614933,27.700753709932563],[85.33380600246963,27.700561634315747],[85.33385362315234,27.70046069161555],[85.33385407202462,27.700357247482472],[85.3342124151914,27.70060289251373],[85.33416274706872,27.700684495572876]],[[85.33423384409507,27.700815410522473],[85.33421868264924,27.70085960476366],[85.33411426310276,27.700932957096157],[85.33401314443341,27.70095996969406],[85.33378314308287,27.700980976462677],[85.33371742693565,27.701005414887465],[85.33321769036984,27.70106948359842],[85.33307126682209,27.701135275634986],[85.3330498837619,27.70116105304504],[85.33295312074365,27.701197038733287],[85.33290719284369,27.70112466645213],[85.33295854838678,27.70109973891827],[85.33304221207243,27.70102628016045],[85.33311996416877,27.700906156447665],[85.3331985079326,27.700735343726883],[85.33335512276237,27.7006213267224],[85.33337940331832,27.700615540968887],[85.33343483654453,27.70071322447268],[85.3333822340995,27.700817400905525],[85.33324483815119,27.700890869855403],[85.33323886027323,27.700938319157423],[85.33326832517511,27.700953555443384],[85.33337984430439,27.700952717429512],[85.33354486783449,27.70087653738731],[85.33356824676895,27.700819317431083],[85.33354997505164,27.700699033422655],[85.33347753625397,27.700587801418056],[85.33358012729313,27.700545903820238],[85.33369471592472,27.70059331653803],[85.33372923322149,27.700628163301367],[85.3337361808772,27.70077938489264],[85.33380178706743,27.700835699930785],[85.33417600359259,27.700756058500993],[85.33423384409507,27.700815410522473]],[[85.33366576171049,27.700251969929113],[85.333722963977,27.70043165923545],[85.3336163189415,27.7004584500814],[85.33361633342372,27.700225677270897],[85.33366576171049,27.700251969929113]],[[85.33323366550874,27.700098587218182],[85.33322640211946,27.700254359648756],[85.33341321479075,27.7005193386687],[85.33331663610663,27.700538339171793],[85.33317592371507,27.70060450606124],[85.33311387714282,27.70053321564886],[85.33306262156208,27.70027981292274],[85.33303201232577,27.700260731752234],[85.33295202910159,27.7002660942611],[85.33286073632576,27.70019863795386],[85.33282414061112,27.700039283606554],[85.33323366550874,27.700098587218182]],[[85.33252011932233,27.700069122478016],[85.33248302539182,27.699997856310112],[85.33264269031986,27.70001664712787],[85.33252011932233,27.700069122478016]],[[85.33207379050599,27.699988984550732],[85.33222790240401,27.69999486801665],[85.3322900774402,27.70015541991799],[85.33227729738555,27.700161365150922],[85.33216157714924,27.70009436086414],[85.33207379050599,27.699988984550732]],[[85.33236215230595,27.7000153203283],[85.33239688768475,27.7000748855925],[85.33235962726316,27.700113463918882],[85.33231907909489,27.700008758351544],[85.33236215230595,27.7000153203283]],[[85.33190105425005,27.6999987211269],[85.33172862270527,27.70019018228189],[85.33172365283335,27.700237412321748],[85.3316355223746,27.700327370006864],[85.33136772452809,27.700379712587857],[85.33112487254066,27.700481791430168],[85.33107873893373,27.70035247881709],[85.33109017232229,27.70030141722128],[85.3310420754645,27.700106905306484],[85.33113721935183,27.70003895005458],[85.33143424083244,27.700066317308703],[85.33179088646733,27.700026061667604],[85.33182131722161,27.700007033315835],[85.33190105425005,27.6999987211269]],[[85.33160563560584,27.700406070766743],[85.3317451605674,27.70068186328799],[85.33176235532366,27.70081485174077],[85.33164032162979,27.700866246375995],[85.33157054945528,27.700852685985325],[85.33153160183454,27.700877889096883],[85.33152656013614,27.70090950581066],[85.33154596420707,27.700930077659844],[85.3316205679868,27.700944792000506],[85.33166591994583,27.700974936155532],[85.33190652012988,27.701014131196057],[85.33192921797223,27.701100892703277],[85.33192479094893,27.701205060425018],[85.33172416620653,27.701203634558208],[85.33158877733979,27.70118507666837],[85.33154804676795,27.701048413550616],[85.33151917513445,27.701026099391964],[85.331367065054,27.70109986681265],[85.33133498509322,27.701067767535136],[85.33132096393888,27.700880391320844],[85.33116355774081,27.700816370080453],[85.3311276645027,27.700770336336866],[85.33110288157434,27.7006569410104],[85.33119433126481,27.70056597966428],[85.33136784329712,27.700719846636275],[85.33141666751894,27.700724020113395],[85.33144200384146,27.700703366985547],[85.3314417800862,27.7006753169509],[85.33133942598954,27.70058028373336],[85.33130944292947,27.700524474633585],[85.33140121297566,27.70046333160473],[85.3314749542971,27.700467819066187],[85.33149560464477,27.700431198354927],[85.33160563560584,27.700406070766743]],[[85.33105840491226,27.700534034255675],[85.3309650289126,27.70062459434138],[85.33087037674582,27.700537051586995],[85.33083769630562,27.70040421289461],[85.33077150100722,27.700381806248313],[85.33044953815147,27.70047525718456],[85.33033292204253,27.700493579770338],[85.33031077168707,27.700531978513517],[85.33035086760508,27.7006340781108],[85.33037594634705,27.70075724904761],[85.33035273228133,27.700881855870175],[85.33029635071209,27.700894433389333],[85.33024665081305,27.700940605797555],[85.32989032316442,27.701109548545567],[85.32978473508278,27.701077926212157],[85.32977690792119,27.70100864252327],[85.32983645200835,27.70096665367939],[85.329942698983,27.70091114873934],[85.33013281597393,27.70086080392804],[85.33025523214684,27.700802016425666],[85.33025391513912,27.700740159321704],[85.33017595184643,27.700596199753356],[85.33015675302543,27.700519621878946],[85.3300748598075,27.70043996443824],[85.33004856079518,27.7003941435796],[85.33013688017257,27.70036090945603],[85.3301735643447,27.70036047269654],[85.33021190550281,27.700314827545522],[85.33032714697669,27.700263337056594],[85.33041997966883,27.700279766466014],[85.33055354242042,27.700272439787508],[85.33057962214521,27.70023771835592],[85.33057563146602,27.700079465625134],[85.33087700125937,27.700015629512322],[85.33090396388666,27.700095582294068],[85.3308294694808,27.700170248151775],[85.33077152152384,27.700173125003296],[85.33073079802027,27.70019521866514],[85.33071751851291,27.700232864933394],[85.33074399549024,27.700257419230393],[85.33079383741433,27.700267286994467],[85.3308483834384,27.70025414814893],[85.33095718230891,27.700300718632022],[85.33101001454143,27.700398395721088],[85.33105840491226,27.700534034255675]],[[85.3280999403419,27.69962379387474],[85.3281243751681,27.699644582050546],[85.32816775189103,27.699646752367993],[85.32838435269655,27.69958295835187],[85.3284884587848,27.699571852825493],[85.32860929518924,27.699536306239068],[85.32870275011105,27.69964546088822],[85.32881757598682,27.69962947257377],[85.3289107879853,27.69965767541104],[85.32894959172658,27.699701928921915],[85.32889051605017,27.699758684270535],[85.32834026829366,27.699939883266644],[85.32827249699011,27.69997575058375],[85.32813220526994,27.69993065877835],[85.32809916488581,27.699947009362923],[85.32808393742194,27.699995320756344],[85.32796190925286,27.70002663697356],[85.3278945252715,27.699989102729685],[85.32785607216012,27.69999692790821],[85.3278426694406,27.700025133533188],[85.32785883819341,27.700065328182134],[85.32794502301859,27.700138907085776],[85.32796558250281,27.70022864165702],[85.32792264696339,27.70042637695297],[85.32785860265132,27.700599688101878],[85.32773387807742,27.70050009944464],[85.327765218671,27.70033612494023],[85.32775076653748,27.700304615949083],[85.32771035401142,27.700289657033657],[85.32767382801379,27.70031811134882],[85.32753608515674,27.700321200250997],[85.3274389535465,27.70027622147058],[85.32752692183124,27.7000909544592],[85.32751452514464,27.700053561512217],[85.32748753695658,27.700044760368097],[85.32745989241981,27.70005481942294],[85.32732658938087,27.700211111884407],[85.32726813299587,27.700213127817385],[85.32723780043177,27.700101831171843],[85.32731634824049,27.700012662653002],[85.32741804973902,27.699959352903925],[85.3277208505171,27.699909194145828],[85.32773288800432,27.69987463857983],[85.32767831110154,27.699727611934183],[85.3280999403419,27.69962379387474]],[[85.32774586063476,27.700686340267318],[85.32763197894445,27.700665698290457],[85.32748499241922,27.70069204842388],[85.32722496772126,27.700854564050868],[85.32721299415033,27.700883136832754],[85.32723612509072,27.70096231099521],[85.32731727336188,27.701124238067965],[85.32719392651157,27.701179948101355],[85.32709402938957,27.701122516364677],[85.32708045645589,27.70103390315945],[85.32709007819311,27.7009633715653],[85.32706388937258,27.70087013709027],[85.3270661244875,27.700768098640676],[85.32710002617611,27.70066712616585],[85.32721260777814,27.700638192469327],[85.3272996183829,27.700562437412565],[85.32730136407811,27.70052354796799],[85.32727689318801,27.700503903474203],[85.32724238787685,27.70050334733341],[85.32711540205537,27.70056817116993],[85.3270001751435,27.70056818549544],[85.32689492768534,27.700613578117657],[85.32678072587647,27.70058502306602],[85.32672566413817,27.70042125715115],[85.32679827048995,27.700354359997583],[85.3269061602884,27.700330382245127],[85.32693214437151,27.700294722817116],[85.32695475286083,27.700176700594046],[85.32705011848437,27.70018043875415],[85.32720364368521,27.70029428739621],[85.3273648069487,27.700379591203305],[85.32745105022356,27.70040635430721],[85.32751017360289,27.70043855842942],[85.32758593479203,27.7005068908708],[85.32764087927882,27.7005228337462],[85.327805733714,27.700654464952223],[85.32774586063476,27.700686340267318]],[[85.3273773171896,27.700907082694773],[85.3275438230039,27.7009945606274],[85.32752425217265,27.701027417420278],[85.32738990610977,27.701091331744212],[85.3273324699686,27.700960880116057],[85.3273773171896,27.700907082694773]],[[85.327353349778,27.699806022553087],[85.32754487263443,27.699759957181943],[85.32750371061451,27.699821649206623],[85.32743853210238,27.69986072682426],[85.327353349778,27.699806022553087]],[[85.32695491636134,27.699903375593838],[85.32696935186962,27.69992417647015],[85.32699903975725,27.699931807956098],[85.32716160452881,27.699889372524744],[85.32719732629094,27.69996779823076],[85.32705994550444,27.700078058760944],[85.32697235408439,27.70003310730125],[85.32693389108368,27.70003904984566],[85.3268751347502,27.70011813677057],[85.32681685707043,27.700238334226498],[85.32663752055383,27.700224999003762],[85.32655997721756,27.70008007778263],[85.32663601034973,27.700019907720222],[85.32674471974302,27.699983764642173],[85.3267611600616,27.699950761915133],[85.32695491636134,27.699903375593838]],[[85.3259622581532,27.70016703590268],[85.3263669898759,27.700097239162965],[85.32645391792485,27.700117353631967],[85.32660939765445,27.700433299565578],[85.32668517707077,27.700737087741103],[85.32676724901579,27.700813808239957],[85.32684480165281,27.70079129865285],[85.32696308831477,27.70084668164572],[85.32697607506842,27.700901567517253],[85.3269638364005,27.701094133073298],[85.32690512404042,27.70116765813156],[85.32681813818951,27.70118047690261],[85.32673358772752,27.70128551866653],[85.32676227954859,27.70142520197559],[85.32683619312274,27.701475893020127],[85.32686594906271,27.70156415414811],[85.32684523499817,27.701649175838224],[85.32626136610463,27.701534027980426],[85.32605092579688,27.701590712420256],[85.32597942411279,27.701587369944402],[85.32594596748939,27.701619420800185],[85.32571345957749,27.701671927015617],[85.32559332841018,27.70171419431754],[85.32509025153344,27.701488583610626],[85.32501123033184,27.70143769777485],[85.32495835999654,27.701370001046136],[85.32470537915655,27.700661174923574],[85.32507516028713,27.700374658586192],[85.32522256696755,27.700304012313694],[85.32526877899504,27.700298207463213],[85.32528155059423,27.700272620197982],[85.32526764523824,27.700222973698605],[85.3259622581532,27.70016703590268]],[[85.32544152972605,27.70176772112841],[85.3251070671669,27.701596464899666],[85.32510771971398,27.701577261360296],[85.32549241672521,27.70174978329075],[85.32544152972605,27.70176772112841]],[[85.32541895023586,27.701839437610623],[85.32548892725886,27.701843950156444],[85.32553125019771,27.70187006542409],[85.32550607747902,27.701977239258817],[85.32544700637534,27.702057794517227],[85.32537147933355,27.702541499541017],[85.32532097612243,27.70265495436002],[85.32516751804339,27.70264139791451],[85.32501086199674,27.702567895917813],[85.3250655129474,27.70247489567154],[85.32520301278645,27.70249425377065],[85.32524960894476,27.70246699285387],[85.32524692281416,27.702398133717903],[85.32520787746624,27.70230833657042],[85.32521050701038,27.70225532782175],[85.32524147902285,27.70218979478159],[85.3253135344025,27.702142253717298],[85.3253234233464,27.702110371956874],[85.32526849358712,27.702060162657947],[85.32522305223328,27.70205507055959],[85.32519477625247,27.702072944130123],[85.32517783017026,27.70213229421676],[85.325100774376,27.702147239374938],[85.32502942285522,27.702051268697947],[85.32526742208694,27.701937995344963],[85.32530491652206,27.70187591733671],[85.3252855908653,27.70185028573437],[85.32502627260301,27.701732720664168],[85.32507814911246,27.70166494945708],[85.32541895023586,27.701839437610623]],[[85.32552450155436,27.702083574157584],[85.32558871757335,27.702047802286373],[85.32564162423925,27.701983953208472],[85.32575043933292,27.701999051295854],[85.32579731020608,27.702114811971704],[85.32575514604883,27.70219547553539],[85.32563402549532,27.70223986308205],[85.3255543155763,27.70228660110122],[85.32548588442927,27.702299656808304],[85.32552450155436,27.702083574157584]],[[85.32475097536941,27.701044498224995],[85.32472673919663,27.701084588961542],[85.3248349517726,27.70142851225539],[85.32462263820176,27.701392894494706],[85.3244710461557,27.70132659540746],[85.3244486970095,27.701257722368663],[85.32446657053423,27.7009167992296],[85.32445307785487,27.70077732100446],[85.32466414279666,27.7007887572951],[85.32475097536941,27.701044498224995]],[[85.32435054369351,27.70122137782819],[85.32435965441046,27.700892390216254],[85.32438488616843,27.700926461200382],[85.32436932631103,27.701222816902074],[85.32435054369351,27.70122137782819]],[[85.3242685022655,27.70125469865609],[85.32429754499559,27.701373972020317],[85.32437805525477,27.701469850908943],[85.32443968098903,27.701512162417114],[85.32466007673828,27.701582890335196],[85.3249209153988,27.701628491394516],[85.3249104531878,27.701757410775254],[85.32483875007314,27.70185617412336],[85.3248070694077,27.701847097309308],[85.32477696822046,27.701860440981108],[85.32470353033841,27.701971931353945],[85.3245852656814,27.70190186848418],[85.32454820361491,27.70174461450705],[85.32425279767156,27.701566506736484],[85.32416126404597,27.701478541629893],[85.32411718933182,27.70148067972949],[85.32395784317117,27.701606523414192],[85.32391857539871,27.70149995271066],[85.32386940165021,27.701252684168065],[85.3238581463908,27.701104520831876],[85.32381712267694,27.70104501178642],[85.32378585513318,27.70103304211221],[85.32373646769628,27.700874790333366],[85.32390453821054,27.700742316081683],[85.32411898728765,27.700693433223226],[85.32421882856968,27.700711550021058],[85.32428141322042,27.70078774426863],[85.3242685022655,27.70125469865609]],[[85.32458010532997,27.701480910408286],[85.32458012635436,27.7014809426371],[85.3245800656751,27.701480923361768],[85.32458010532997,27.701480910408286]],[[85.32471798852845,27.701494853412605],[85.32493392242597,27.70153348184396],[85.32493075247216,27.701556636722053],[85.32471509296742,27.701519018811897],[85.32471798852845,27.701494853412605]],[[85.32515426227535,27.700254628007173],[85.32515435549911,27.70025470531447],[85.32515415444935,27.70025480166987],[85.32515426227535,27.700254628007173]],[[85.32345664520497,27.700826767360557],[85.32354310932477,27.700821612394204],[85.32361062966204,27.700903130235783],[85.32365647671915,27.701068697189445],[85.32356084883504,27.701159291153882],[85.32349492152477,27.701133508148],[85.3234105498692,27.701003973372806],[85.32338183101862,27.70098729960187],[85.32335322016944,27.70099059875763],[85.32333186833046,27.701021020294057],[85.32335184852327,27.701104996710285],[85.32340069851085,27.701166129552035],[85.32332915698719,27.701240138756162],[85.32329092571152,27.701255022156342],[85.32309975318893,27.70090999040003],[85.32345664520497,27.700826767360557]],[[85.32235850273698,27.701345864970982],[85.32236970555225,27.70131722769398],[85.32234759207181,27.70122669224823],[85.32238272141727,27.70110544195281],[85.32273631085901,27.701019843759425],[85.32271011497153,27.70128437031321],[85.32266190774935,27.701294067765556],[85.32249332533132,27.70150749676384],[85.32238555379595,27.701521011477922],[85.32235850273698,27.701345864970982]],[[85.3223965860978,27.701594182982152],[85.32260867955813,27.701568903658497],[85.3226264585187,27.701480864042935],[85.32266960464896,27.70143222825068],[85.32273254894213,27.701503415413192],[85.32275973885277,27.701573320868935],[85.32278769063265,27.70158839020099],[85.32299756698721,27.701562593894298],[85.32307268506003,27.701568642893946],[85.32329899133488,27.701512904049302],[85.32342430077658,27.701771794910496],[85.32327989508973,27.70172287121808],[85.32318619018348,27.70173714904501],[85.32306552636183,27.701730543930232],[85.32295648596883,27.701861702479775],[85.32290193091013,27.701870934651517],[85.32283572091455,27.701859875535582],[85.32279113905867,27.701897604758056],[85.32265123497709,27.701891746994196],[85.32261423305326,27.701919599223654],[85.3224454256437,27.701928569131645],[85.3223965860978,27.701594182982152]],[[85.32336244475225,27.701354871074237],[85.32345160581711,27.701328554651866],[85.3235044176559,27.701391184542064],[85.32356504352573,27.701407466745493],[85.32359390258505,27.701390523057313],[85.32360426675967,27.701342900343725],[85.32366451679036,27.701261942319714],[85.3237722261172,27.7012884308215],[85.32375834473537,27.701371122174194],[85.32376631656673,27.701551716719102],[85.32391290423172,27.701860418915125],[85.32398114311094,27.701909990502084],[85.32397490211737,27.702013944932883],[85.32403433858332,27.70217185619533],[85.32404551732685,27.702283370243695],[85.3238503330241,27.702351103792648],[85.32368317037302,27.70237521221746],[85.32356033030418,27.702368513121357],[85.32347221344041,27.702397795729592],[85.3234138374557,27.702338542217394],[85.32337388817251,27.702109215196472],[85.32356759392279,27.70195234414164],[85.32358061011399,27.701923732361184],[85.32355663330259,27.701760594188038],[85.32351426369333,27.701727090618434],[85.32352178384,27.7015952664818],[85.32348228421165,27.70157056132849],[85.32343509609132,27.70159934109168],[85.32336156286598,27.701461937361813],[85.32336244475225,27.701354871074237]],[[85.32246878817797,27.702041030526452],[85.32245929251955,27.70200015795128],[85.3225442954259,27.70199564118045],[85.32246878817797,27.702041030526452]],[[85.3225801605814,27.702834261372935],[85.32248732870237,27.702137650246293],[85.32271759971695,27.70210470520366],[85.32274101580622,27.702260395835918],[85.32276602808994,27.70229092316546],[85.32280032706628,27.702295494441174],[85.3228314498722,27.70226639715425],[85.3229330848769,27.70195001987122],[85.32306028776595,27.70192544469821],[85.323122379822,27.701930535468133],[85.32323924429505,27.701970153968343],[85.32330538395259,27.702300105676162],[85.32317717587016,27.70232836509906],[85.32314708047136,27.702205002632525],[85.3231171816592,27.70218916354694],[85.32308278724588,27.70220141754569],[85.3230380276892,27.70235801054254],[85.32308661795616,27.70247869724121],[85.32300164966148,27.7025617524768],[85.32299657680146,27.702622570378775],[85.32289446309697,27.702720245768894],[85.32285106378103,27.70274121759843],[85.32276567251353,27.702861429137297],[85.3225801605814,27.702834261372935]]]}}]}