{"type":"FeatureCollection","features":[{"type":"Feature","properties":{"kind":"valve"},"geometry":{"type":"Point","coordinates":[85.32682641596561,27.705447387065526]}},{"type":"Feature","properties":{"kind":"valve"},"geometry":{"type":"Point","coordinates":[85.33505062404495,27.70809831911728]}},{"type":"Feature","properties":{"kind":"valve"},"geometry":{"type":"Point","coordinates":[85.33613760738916,27.70535808174036]}},{"type":"Feature","properties":{"kind":"valve"},"geometry":{"type":"Point","coordinates":[85.33626720833665,27.705809372380262]}},{"type":"Feature","properties":{"kind":"valve"},"geometry":{"type":"Point","coordinates":[85.33263104858568,27.70392741207721]}},{"type":"Feature","properties":{"kind":"valve"},"geometry":{"type":"Point","coordinates":[85.33284874474586,27.703912504715134]}},{"type":"Feature","properties":{"kind":"valve"},"geometry":{"type":"Point","coordinates":[85.33617625175874,27.7052874306588]}},{"type":"Feature","properties":{"kind":"valve"},"geometry":{"type":"Point","coordinates":[85.33671043088088,27.70792157072464]}},{"type":"Feature","properties":{"kind":"valve"},"geometry":{"type":"Point","coordinates":[85.33635667095633,27.70606222496656]}},{"type":"Feature","properties":{"kind":"valve"},"geometry":{"type":"Point","coordinates":[85.33198005737343,27.70264468341979]}},{"type":"Feature","properties":{"kind":"valve"},"geometry":{"type":"Point","coordinates":[85.32991737941543,27.70233920626353]}},{"type":"Feature","properties":{"kind":"valve"},"geometry":{"type":"Point","coordinates":[85.3282813011021,27.70171651181573]}},{"type":"Feature","properties":{"kind":"valve"},"geometry":{"type":"Point","coordinates":[85.32827723245518,27.701712476124484]}},{"type":"Feature","properties":{"kind":"valve"},"geometry":{"type":"Point","coordinates":[85.3284580177725,27.701527644627255]}},{"type":"Feature","properties":{"kind":"valve"},"geometry":{"type":"Point","coordinates":[85.32901420666273,27.699730671938717]}},{"type":"Feature","properties":{"kind":"valve"},"geometry":{"type":"Point","coordinates":[85.32812271356205,27.701518528713382]}},{"type":"Feature","properties":{"kind":"valve"},"geometry":{"type":"Point","coordinates":[85.33448739388638,27.700851674730167]}},{"type":"Feature","properties":{"kind":"valve"},"geometry":{"type":"Point","coordinates":[85.33459171893395,27.700907050344963]}},{"type":"Feature","properties":{"kind":"valve"},"geometry":{"type":"Point","coordinates":[85.33517546057003,27.701424057878228]}},{"type":"Feature","properties":{"kind":"valve"},"geometry":{"type":"Point","coordinates":[85.33519821428497,27.701497618643593]}},{"type":"Feature","properties":{"kind":"valve"},"geometry":{"type":"Point","coordinates":[85.32747188198886,27.705159654352]}},{"type":"Feature","properties":{"kind":"valve"},"geometry":{"type":"Point","coordinates":[85.32754217759484,27.70321875162074]}},{"type":"Feature","properties":{"kind":"valve"},"geometry":{"type":"Point","coordinates":[85.32426561578579,27.70054171297306]}},{"type":"Feature","properties":{"kind":"valve"},"geometry":{"type":"Point","coordinates":[85.32971600803747,27.69968990040056]}},{"type":"Feature","properties":{"kind":"valve"},"geometry":{"type":"Point","coordinates":[85.33092808650346,27.699879677332017]}},{"type":"Feature","properties":{"kind":"valve"},"geometry":{"type":"Point","coordinates":[85.33225525628238,27.699954727097094]}},{"type":"Feature","properties":{"kind":"valve"},"geometry":{"type":"Point","coordinates":[85.33243508086507,27.699988784854966]}},{"type":"Feature","properties":{"kind":"valve"},"geometry":{"type":"Point","coordinates":[85.33278371703445,27.70004683268062]}},{"type":"Feature","properties":{"kind":"valve"},"geometry":{"type":"Point","coordinates":[85.32752773966384,27.705360185063846]}},{"type":"Feature","properties":{"kind":"valve"},"geometry":{"type":"Point","coordinates":[85.32418293333228,27.700633562667758]}},{"type":"Feature","properties":{"kind":"valve"},"geometry":{"type":"Point","coordinates":[85.32423099426282,27.70064502646185]}},{"type":"Feature","properties":{"kind":"valve"},"geometry":{"type":"Point","coordinates":[85.33381331619424,27.70031476990553]}},{"type":"Feature","properties":{"kind":"valve"},"geometry":{"type":"Point","coordinates":[85.33519517327733,27.701495275153228]}},{"type":"Feature","properties":{"kind":"valve"},"geometry":{"type":"Point","coordinates":[85.33097308521138,27.70257323633061]}},{"type":"Feature","properties":{"kind":"valve"},"geometry":{"type":"Point","coordinates":[85.3359570003827,27.70381256699291]}},{"type":"Feature","properties":{"kind":"valve"},"geometry":{"type":"Point","coordinates":[85.336450740698,27.7066519656746]}},{"type":"Feature","properties":{"kind":"valve"},"geometry":{"type":"Point","coordinates":[85.33266382291274,27.70382623657153]}},{"type":"Feature","properties":{"kind":"valve"},"geometry":{"type":"Point","coordinates":[85.3363951443123,27.706222418971986]}},{"type":"Feature","properties":{"kind":"valve"},"geometry":{"type":"Point","coordinates":[85.33073611029978,27.704410082712833]}},{"type":"Feature","properties":{"kind":"valve"},"geometry":{"type":"Point","coordinates":[85.32649284639128,27.700034144234593]}},{"type":"Feature","properties":{"kind":"valve"},"geometry":{"type":"Point","coordinates":[85.32762867914869,27.69970504725945]}},{"type":"Feature","properties":{"kind":"valve"},"geometry":{"type":"Point","coordinates":[85.3285447935213,27.7063900625304]}},{"type":"Feature","properties":{"kind":"valve"},"geometry":{"type":"Point","coordinates":[85.32924542733285,27.70535030984196]}},{"type":"Feature","properties":{"kind":"valve"},"geometry":{"type":"Point","coordinates":[85.32893957613219,27.705049203725284]}},{"type":"Feature","properties":{"kind":"valve"},"geometry":{"type":"Point","coordinates":[85.33180730198103,27.708542891218457]}},{"type":"Feature","properties":{"kind":"valve"},"geometry":{"type":"Point","coordinates":[85.33366558655392,27.708160619746938]}},{"type":"Feature","properties":{"kind":"valve"},"geometry":{"type":"Point","coordinates":[85.33534093963762,27.70609782796539]}},{"type":"Feature","properties":{"kind":"valve"},"geometry":{"type":"Point","coordinates":[85.33520941018051,27.704987846500316]}},{"type":"Feature","properties":{"kind":"valve"},"geometry":{"type":"Point","coordinates":[85.33567473888789,27.703058211689324]}},{"type":"Feature","properties":{"kind":"valve"},"geometry":{"type":"Point","coordinates":[85.3344224852074,27.703235751248407]}},{"type":"Feature","properties":{"kind":"valve"},"geometry":{"type":"Point","coordinates":[85.32703008726516,27.7011483862421]}},{"type":"Feature","properties":{"kind":"valve"},"geometry":{"type":"Point","coordinates":[85.32894201903528,27.70300681180926]}},{"type":"Feature","properties":{"kind":"valve"},"geometry":{"type":"Point","coordinates":[85.3292386741329,27.704884065421403]}},{"type":"Feature","properties":{"kind":"valve"},"geometry":{"type":"Point","coordinates":[85.33276886598132,27.70192847762178]}},{"type":"Feature","properties":{"kind":"valve"},"geometry":{"type":"Point","coordinates":[85.32989717638819,27.703964492691526]}},{"type":"Feature","properties":{"kind":"valve"},"geometry":{"type":"Point","coordinates":[85.331457255526,27.707838332613957]}},{"type":"Feature","properties":{"kind":"valve"},"geometry":{"type":"Point","coordinates":[85.33145449027741,27.707839786681173]}},{"type":"Feature","properties":{"kind":"valve"},"geometry":{"type":"Point","coordinates":[85.33276654855342,27.701928834198544]}},{"type":"Feature","properties":{"kind":"valve"},"geometry":{"type":"Point","coordinates":[85.33520724022425,27.70498589977562]}},{"type":"Feature","properties":{"kind":"valve"},"geometry":{"type":"Point","coordinates":[85.32898837451677,27.702172121692065]}},{"type":"Feature","properties":{"kind":"valve"},"geometry":{"type":"Point","coordinates":[85.32941228429281,27.700322301208658]}},{"type":"Feature","properties":{"kind":"valve"},"geometry":{"type":"Point","coordinates":[85.33555813009141,27.70296816295186]}},{"type":"Feature","properties":{"kind":"valve"},"geometry":{"type":"Point","coordinates":[85.32426134504877,27.700505588233142]}},{"type":"Feature","properties":{"kind":"valve"},"geometry":{"type":"Point","coordinates":[85.32685438066318,27.705457773150993]}},{"type":"Feature","properties":{"kind":"valve"},"geometry":{"type":"Point","coordinates":[85.3295175580788,27.704836272910104]}},{"type":"Feature","properties":{"kind":"valve"},"geometry":{"type":"Point","coordinates":[85.33128773857956,27.69997958749439]}},{"type":"Feature","properties":{"kind":"valve"},"geometry":{"type":"Point","coordinates":[85.33651673028359,27.706740788103506]}},{"type":"Feature","properties":{"kind":"valve"},"geometry":{"type":"Point","coordinates":[85.33442031059877,27.70323651752331]}},{"type":"Feature","properties":{"kind":"valve"},"geometry":{"type":"Point","coordinates":[85.33270845072776,27.703845095856263]}},{"type":"Feature","properties":{"kind":"valve"},"geometry":{"type":"Point","coordinates":[85.33245067385708,27.70107318109922]}},{"type":"Feature","properties":{"kind":"valve"},"geometry":{"type":"Point","coordinates":[85.33119408441259,27.700513619319427]}},{"type":"Feature","properties":{"kind":"valve"},"geometry":{"type":"Point","coordinates":[85.32901014156701,27.699730998334115]}},{"type":"Feature","properties":{"kind":"valve"},"geometry":{"type":"Point","coordinates":[85.3314295499407,27.703338799574954]}},{"type":"Feature","properties":{"kind":"valve"},"geometry":{"type":"Point","coordinates":[85.33617545812221,27.705327237144637]}},{"type":"Feature","properties":{"kind":"valve"},"geometry":{"type":"Point","coordinates":[85.33448954432114,27.705737528782823]}},{"type":"Feature","properties":{"kind":"valve"},"geometry":{"type":"Point","coordinates":[85.33458998879964,27.706963446448846]}},{"type":"Feature","properties":{"kind":"valve"},"geometry":{"type":"Point","coordinates":[85.33459264015455,27.70696234294097]}},{"type":"Feature","properties":{"kind":"valve"},"geometry":{"type":"Point","coordinates":[85.3325625382953,27.703954062283685]}},{"type":"Feature","properties":{"kind":"valve"},"geometry":{"type":"Point","coordinates":[85.33338212216204,27.706945964433718]}},{"type":"Feature","properties":{"kind":"valve"},"geometry":{"type":"Point","coordinates":[85.33333104739023,27.70709242626829]}},{"type":"Feature","properties":{"kind":"valve"},"geometry":{"type":"Point","coordinates":[85.33118347201766,27.70622120542732]}},{"type":"Feature","properties":{"kind":"valve"},"geometry":{"type":"Point","coordinates":[85.32918375715029,27.70916676415536]}},{"type":"Feature","properties":{"kind":"valve"},"geometry":{"type":"Point","coordinates":[85.32998930137076,27.7060397929092]}},{"type":"Feature","properties":{"kind":"valve"},"geometry":{"type":"Point","coordinates":[85.32998787964054,27.70604059166083]}},{"type":"Feature","properties":{"kind":"hydrant"},"geometry":{"type":"Point","coordinates":[85.33565145495224,27.703059637573123]}},{"type":"Feature","properties":{"kind":"hydrant"},"geometry":{"type":"Point","coordinates":[85.32730860873563,27.707397420036873]}},{"type":"Feature","properties":{"kind":"hydrant"},"geometry":{"type":"Point","coordinates":[85.3325489059687,27.703983162354703]}},{"type":"Feature","properties":{"kind":"hydrant"},"geometry":{"type":"Point","coordinates":[85.32790193699364,27.709417628642573]}},{"type":"Feature","properties":{"kind":"hydrant"},"geometry":{"type":"Point","coordinates":[85.33009241479078,27.702988980055235]}},{"type":"Feature","properties":{"kind":"hydrant"},"geometry":{"type":"Point","coordinates":[85.33357578174714,27.700137342254138]}},{"type":"Feature","properties":{"kind":"hydrant"},"geometry":{"type":"Point","coordinates":[85.32791679026445,27.705237278289836]}},{"type":"Feature","properties":{"kind":"hydrant"},"geometry":{"type":"Point","coordinates":[85.32444097091683,27.700327381805725]}},{"type":"Feature","properties":{"kind":"hydrant"},"geometry":{"type":"Point","coordinates":[85.32862631679731,27.699477951888618]}},{"type":"Feature","properties":{"kind":"hydrant"},"geometry":{"type":"Point","coordinates":[85.32649710588426,27.703291081222705]}},{"type":"Feature","properties":{"kind":"hydrant"},"geometry":{"type":"Point","coordinates":[85.32331769189794,27.705586023097478]}},{"type":"Feature","properties":{"kind":"hydrant"},"geometry":{"type":"Point","coordinates":[85.32225845053888,27.701174344692664]}},{"type":"Feature","properties":{"kind":"hydrant"},"geometry":{"type":"Point","coordinates":[85.3342701345746,27.705846914997846]}},{"type":"Feature","properties":{"kind":"hydrant"},"geometry":{"type":"Point","coordinates":[85.33142499710269,27.707598986631044]}},{"type":"Feature","properties":{"kind":"hydrant"},"geometry":{"type":"Point","coordinates":[85.32469897148111,27.7036608669646]}},{"type":"Feature","properties":{"kind":"hydrant"},"geometry":{"type":"Point","coordinates":[85.33624316708499,27.708060197012966]}},{"type":"Feature","properties":{"kind":"flowmeter"},"geometry":{"type":"Point","coordinates":[85.33335677370604,27.708085055142284]}},{"type":"Feature","properties":{"kind":"flowmeter"},"geometry":{"type":"Point","coordinates":[85.33316876370553,27.70821638118327]}},{"type":"Feature","properties":{"kind":"flowmeter"},"geometry":{"type":"Point","coordinates":[85.33356892035918,27.708190344841004]}},{"type":"Feature","properties":{"kind":"flowmeter"},"geometry":{"type":"Point","coordinates":[85.3366621374379,27.70782238674654]}},{"type":"Feature","properties":{"kind":"flowmeter"},"geometry":{"type":"Point","coordinates":[85.33673064249939,27.708008092015298]}},{"type":"Feature","properties":{"kind":"flowmeter"},"geometry":{"type":"Point","coordinates":[85.33576895709506,27.703041518130263]}},{"type":"Feature","properties":{"kind":"flowmeter"},"geometry":{"type":"Point","coordinates":[85.3364309811579,27.70803216301486]}},{"type":"Feature","properties":{"kind":"flowmeter"},"geometry":{"type":"Point","coordinates":[85.33576634028134,27.702827129027444]}},{"type":"Feature","properties":{"kind":"flowmeter"},"geometry":{"type":"Point","coordinates":[85.33074993470268,27.699754945071543]}},{"type":"Feature","properties":{"kind":"flowmeter"},"geometry":{"type":"Point","coordinates":[85.33553389442103,27.7029758401735]}},{"type":"Feature","properties":{"kind":"flowmeter"},"geometry":{"type":"Point","coordinates":[85.32426256149823,27.70051881987292]}},{"type":"Feature","properties":{"kind":"logger"},"geometry":{"type":"Point","coordinates":[85.32331769191174,27.705586022195103]}},{"type":"Feature","properties":{"kind":"logger"},"geometry":{"type":"Point","coordinates":[85.32444097091683,27.700327381805725]}},{"type":"Feature","properties":{"kind":"logger"},"geometry":{"type":"Point","coordinates":[85.3367306435133,27.70800809202748]}},{"type":"Feature","properties":{"kind":"logger"},"geometry":{"type":"Point","coordinates":[85.33142499710269,27.707598986631044]}}]}