{"type":"FeatureCollection","features":[{"type":"Feature","properties":{"derived":true},"geometry":{"type":"Polygon","coordinates":[[[85.33590067887279,27.690785608776373],[85.33583391280116,27.69100561510965],[85.33599947702959,27.69152357268114],[85.3360213955846,27.692512819710668],[85.33687298830735,27.693797764473747],[85.33710561462985,27.695129811128155],[85.3374169739102,27.695672027139693],[85.33739510863647,27.696374933924915],[85.3374734466046,27.696725398134518],[85.33823177038595,27.69940912351023],[85.33853281343265,27.70005401634867],[85.33897065919646,27.700476604382217],[85.3394833026702,27.700722597380704],[85.33990330413624,27.701590891918386],[85.3400578396467,27.70170766521423],[85.3402416831808,27.701705720100943],[85.34367525103904,27.70037383036808],[85.34442714836263,27.700020580627083],[85.34451551049466,27.69980244484149],[85.34416934344674,27.69886962970205],[85.34409844615423,27.698197062417712],[85.34432001631686,27.696850616191156],[85.34441474869239,27.696650148471942],[85.3446425054572,27.696470219697638],[85.34469996679971,27.696297309699943],[85.34463764430444,27.694144542530893],[85.34472563961666,27.693383963583425],[85.34469311635269,27.692971141842833],[85.34451988416761,27.692490673373886],[85.34386924866165,27.69143957438623],[85.34303220804543,27.690366094254678],[85.34305740153297,27.69002723742475],[85.34272796304205,27.689365342724667],[85.34214766506504,27.688582482364275],[85.34160656063358,27.688078911948626],[85.34123615779038,27.687928102626394],[85.34121403333792,27.687563340840967],[85.34101731396805,27.687132414270327],[85.34076615259539,27.68705790796224],[85.3356019294146,27.68826414243846],[85.335504507259,27.68847668521535],[85.33590067887279,27.690785608776373]],[[85.34361644014515,27.693352679052733],[85.3437320868351,27.693249114341402],[85.34391698114057,27.693390402569836],[85.34373662879716,27.69349166257632],[85.34361644014515,27.693352679052733]],[[85.34345880907289,27.69934495079001],[85.3435196646475,27.699208690200248],[85.34364783743213,27.699195547149877],[85.34372274113552,27.699270916543618],[85.343588834053,27.699409303830233],[85.34345880907289,27.69934495079001]],[[85.34296437999028,27.691365963418594],[85.34307501481662,27.69127372704221],[85.3431741991302,27.691387219255414],[85.34305147105982,27.691465557979683],[85.34296437999028,27.691365963418594]],[[85.3424735329857,27.69874371233559],[85.34236689289035,27.698706345362538],[85.34236907523002,27.69859232434766],[85.34264256033038,27.69855777769527],[85.34266345597084,27.69869281481942],[85.3424735329857,27.69874371233559]],[[85.3424297019819,27.700326122100098],[85.34229088706422,27.70024139431834],[85.34243652330669,27.700047848046555],[85.34257881240087,27.700213567648813],[85.3424297019819,27.700326122100098]],[[85.34106226265885,27.689170017414828],[85.3409512780014,27.689151681155018],[85.3409248612598,27.689061718005753],[85.34111306127697,27.68873059642929],[85.34122674098737,27.688699017220426],[85.34159345592673,27.689231484526093],[85.3414638080018,27.689317515454466],[85.34126318504171,27.68917298116117],[85.34106226265885,27.689170017414828]],[[85.34097164683844,27.690802497149114],[85.3410844505042,27.690708082035318],[85.3412401760562,27.690831903202493],[85.34105984704263,27.69091671591136],[85.34097164683844,27.690802497149114]],[[85.34077077441637,27.696545266785588],[85.34076499345416,27.696429688718272],[85.34091425491654,27.69638648083907],[85.34105086404439,27.69662274975919],[85.34089950546912,27.696686472767478],[85.34077077441637,27.696545266785588]],[[85.33910783339444,27.68926131087935],[85.33900359633071,27.689185505219832],[85.33882387784406,27.687982339566837],[85.34066624806711,27.68759227369489],[85.34070897127343,27.68782195465468],[85.34056433311787,27.688299114660794],[85.34059465398265,27.688605827747722],[85.34042452493684,27.688915048639686],[85.33957186465489,27.6890963392629],[85.33935156544915,27.689313555209853],[85.33910783339444,27.68926131087935]],[[85.33931340884499,27.69074052071675],[85.33921575009548,27.690290104943188],[85.33926173572425,27.690207455091056],[85.33983081523616,27.69016272378184],[85.34027632348625,27.690211662865977],[85.34037937534393,27.690517483690883],[85.34033181205011,27.690611831993213],[85.3396490247072,27.690650977171277],[85.33937116195247,27.690940539622225],[85.33925757430053,27.690875141320202],[85.33931340884499,27.69074052071675]],[[85.33888221320836,27.699585237172126],[85.33903511537264,27.699419065570822],[85.3393401939682,27.699363201942113],[85.33969747094079,27.6998285893418],[85.33953592986782,27.700017843672615],[85.33931421458634,27.699919633422923],[85.33910007182344,27.699924587133903],[85.33893232331476,27.699772261328903],[85.33888221320836,27.699585237172126]],[[85.33855969096987,27.69719573593187],[85.3385297523486,27.697066281253058],[85.33867217525429,27.69704392945003],[85.3386985201728,27.697168960828538],[85.33855969096987,27.69719573593187]],[[85.33649559820881,27.690672710092045],[85.33638111114456,27.69059698940245],[85.33606759684533,27.688633850954208],[85.33826408086409,27.688142028902867],[85.33869474814443,27.690422484379923],[85.33649559820881,27.690672710092045]],[[85.33759829690528,27.694808484061888],[85.33764229608009,27.69470279452636],[85.33782840593938,27.694693269124123],[85.33785904827255,27.69497326962532],[85.33764565474712,27.69499165965428],[85.33759829690528,27.694808484061888]]]}}]}