{"type":"FeatureCollection","features":[{"type":"Feature","properties":{"derived":true},"geometry":{"type":"Polygon","coordinates":[[[85.33277908468935,27.66725539352691],[85.33346230263332,27.667705065489987],[85.33960613680416,27.670988470591304],[85.34057003711163,27.671706371846536],[85.34136837496783,27.672556735606463],[85.34203259364368,27.673082941757443],[85.34211136667635,27.67327859643691],[85.34203307155204,27.673376224593643],[85.34155530109015,27.673377267219536],[85.34141537244301,27.67362277908071],[85.34113799405237,27.673764032391514],[85.34005525991591,27.67465852938974],[85.33902013646895,27.675389985268893],[85.33789068102132,27.6759133590646],[85.33774858731127,27.67610971633416],[85.33568798632896,27.677432897011055],[85.33550010176286,27.677687737703863],[85.33501482644233,27.678034774354344],[85.33463089512944,27.678119537832874],[85.33414782468694,27.678502442297813],[85.33409307270625,27.67867777045118],[85.33414503635849,27.678816514899747],[85.33481010103513,27.679111955578186],[85.33608639395494,27.6792986478027],[85.33638227080225,27.679402644741614],[85.33673404876221,27.67981736830719],[85.33717751809651,27.680825676642534],[85.33790579008829,27.681945610156063],[85.3384380921685,27.682319834410375],[85.33939529988645,27.682803953420652],[85.33973962415703,27.68287004759821],[85.34011245469736,27.682738111046636],[85.34026438312016,27.6826043184332],[85.34045859914052,27.682231120770314],[85.34072007227354,27.68196435573543],[85.34095867019666,27.68184600249975],[85.34132549541907,27.681878603953493],[85.34148928603015,27.681983075843327],[85.34251815084345,27.683408915819914],[85.34304241333899,27.683878686116575],[85.3432452650666,27.684505483493904],[85.34331793150004,27.685566148720977],[85.34352431596415,27.685975085608444],[85.3438904410316,27.686293658502937],[85.34440282056245,27.686299753031452],[85.3466613926386,27.685849324557946],[85.34739786902328,27.68553108978449],[85.34794325434936,27.6852036038558],[85.34877481027556,27.684377532234983],[85.34914868912476,27.683715836690183],[85.34944653860195,27.68295075538083],[85.34956116518248,27.682310075728267],[85.34965796805751,27.680419508156902],[85.34967326576987,27.67907537217065],[85.3495499203175,27.678741487215117],[85.34884895740903,27.678398733047167],[85.34446372763196,27.675529923868428],[85.34375805100017,27.674982907799983],[85.34258114348313,27.673847668735334],[85.34285367975748,27.673441613373136],[85.34257769409686,27.673063905364426],[85.34252632845467,27.672793471524706],[85.3419231767199,27.67241904779055],[85.34092806298457,27.671385592788944],[85.33991289002712,27.67062347925065],[85.33373661993153,27.667325375084815],[85.33314253127273,27.666933888304698],[85.33262240803667,27.66647090342401],[85.33238078008995,27.666446507777604],[85.33224302385374,27.66656795514124],[85.33224206790217,27.666740558660415],[85.33277908468935,27.66725539352691]],[[85.34502279701857,27.685339242781488],[85.34515266401762,27.68516637644383],[85.34504767616376,27.68501234317138],[85.3451983264458,27.684965703861508],[85.34526204723554,27.685058105265735],[85.34517640636575,27.68516413059839],[85.34527612892603,27.68523618011608],[85.34528207191367,27.685426045180524],[85.34501493443084,27.68570571517007],[85.34491975479904,27.685649122337576],[85.34490922591421,27.685470832578577],[85.34502279701857,27.685339242781488]],[[85.34459756690731,27.67691619714732],[85.34449088557972,27.67683145547343],[85.34458903531024,27.676693453981812],[85.34480889612924,27.67672984629948],[85.34480825833546,27.6768566515411],[85.34459756690731,27.67691619714732]],[[85.34401424919963,27.685778475709895],[85.34403711479594,27.6856357505215],[85.34425676920529,27.68557170308376],[85.34434733893741,27.685617297689113],[85.34430001778834,27.68584421671973],[85.34412752388113,27.685859984166736],[85.34401424919963,27.685778475709895]],[[85.3440260713058,27.68485884213662],[85.3440779455461,27.684771037572634],[85.34427814868152,27.68474589506156],[85.34432754320117,27.6849852193084],[85.34412096411087,27.685084887263184],[85.3440260713058,27.68485884213662]],[[85.34256162309562,27.678685153068372],[85.34247130728768,27.67856713994298],[85.34263896936083,27.678435088331483],[85.34273737746629,27.678612411217305],[85.34256162309562,27.678685153068372]],[[85.33990331887719,27.676063074676936],[85.33990165712227,27.67591622286084],[85.34010525156647,27.6759439070555],[85.34008119797427,27.676079187372572],[85.33990331887719,27.676063074676936]],[[85.33830671550545,27.676415070974773],[85.33834117009073,27.67631979300369],[85.33844429117066,27.67630754127935],[85.33857910327801,27.67650612548906],[85.33838162885633,27.67654034016085],[85.33830671550545,27.676415070974773]]]}}]}