{"type":"FeatureCollection","features":[{"type":"Feature","properties":{"derived":true},"geometry":{"type":"Polygon","coordinates":[[[85.34704195555508,27.698877177363865],[85.34694461977088,27.69902888490494],[85.34699646499594,27.69919520777743],[85.34776424859005,27.699607326141862],[85.34945884641043,27.701582925504884],[85.3495953054214,27.701834541670276],[85.34960352461057,27.70201841960848],[85.34999616926416,27.702716378090546],[85.34995849319253,27.703563101333636],[85.34980245097256,27.70405241635494],[85.34968857028447,27.70489530842577],[85.34938116868527,27.705546418988128],[85.34940495027797,27.706108110346015],[85.34961128880495,27.70627490438787],[85.35032545362228,27.70637447217243],[85.35077244323314,27.706359232944504],[85.35133302077459,27.7061552495623],[85.35186701219864,27.70566691091776],[85.35207776698985,27.705215694281996],[85.35223676333398,27.703310724696948],[85.35239958277347,27.703177918840236],[85.35269361858056,27.70257227478715],[85.35353526679441,27.701466805501898],[85.35388247744812,27.701500910513964],[85.35405916715399,27.701389298560485],[85.35405183056014,27.70115750861009],[85.3536909964007,27.700913550911583],[85.35366809253517,27.70082099349332],[85.35398482926756,27.700548276262516],[85.35483322362448,27.69949504575638],[85.35526753510354,27.6986483015589],[85.35543394969902,27.697747105267485],[85.35524547285107,27.69558715894015],[85.35513915819675,27.69528866774491],[85.35488312373919,27.695154517320116],[85.35437621541497,27.695167540947086],[85.35291176587977,27.695516669592575],[85.3518339610201,27.69607172556247],[85.34873046938759,27.698057718819324],[85.34826329181993,27.69831835707412],[85.34801449286803,27.69833053726396],[85.34781077042726,27.69850139530056],[85.34724168758052,27.698684380284053],[85.34704195555508,27.698877177363865]],[[85.35442948168235,27.698915023054838],[85.35446674066527,27.697923472026424],[85.3547098235436,27.69734396106526],[85.35482567447714,27.697297052784087],[85.35490059252858,27.69737043533108],[85.35492443922162,27.69778048899104],[85.35478576179878,27.69850469040807],[85.35459461036801,27.698917193721886],[85.35442948168235,27.698915023054838]],[[85.35429826222673,27.695862305283466],[85.3542937842869,27.695735930093296],[85.35440946707311,27.695649200621546],[85.35451413301402,27.69567097387255],[85.35450630977465,27.69584978962607],[85.35429826222673,27.695862305283466]],[[85.35275830304282,27.698178129300224],[85.35285315121614,27.69801291519835],[85.35347146777643,27.697892752993837],[85.35366619465175,27.69773135194391],[85.3539657612345,27.69777268160806],[85.35391118187789,27.698669543297704],[85.35384976647914,27.698745470574565],[85.3534343402267,27.698651829922362],[85.35305257375124,27.698803413145722],[85.35290940476004,27.698360880054253],[85.35275830304282,27.698178129300224]],[[85.35345073457094,27.69599547333869],[85.35351986861802,27.69589618972486],[85.3537357574703,27.69592226947004],[85.35375874646353,27.696176202868468],[85.35365767340916,27.696320853693532],[85.35347142739617,27.69627843851208],[85.35345073457094,27.69599547333869]],[[85.35191802178495,27.70176611117614],[85.35178479640341,27.701674838434474],[85.35192847916183,27.701557848525738],[85.35203905915697,27.701671265025976],[85.35191802178495,27.70176611117614]],[[85.35061715408426,27.705391206399998],[85.35122113495024,27.70521004544834],[85.3513380585936,27.705281923630622],[85.35125886094994,27.70545073495521],[85.3508662916773,27.705818441155497],[85.3506551414553,27.70575164761927],[85.35057470250695,27.70559945499905],[85.35061715408426,27.705391206399998]],[[85.35109882453716,27.697116842618822],[85.35126452651956,27.697079351790713],[85.35131743291586,27.697230238023003],[85.35113453805444,27.697248657452274],[85.35109882453716,27.697116842618822]]]}}]}