{"type":"FeatureCollection","features":[{"type":"Feature","properties":{"derived":true},"geometry":{"type":"Polygon","coordinates":[[[85.32932591481935,27.714438282937518],[85.3294334431474,27.714639862222693],[85.33000178432354,27.71614683415407],[85.32999036180617,27.716189518006],[85.330026116453,27.7162117124454],[85.33015293545752,27.71654961382131],[85.33026585240414,27.716622955060355],[85.33042308949845,27.717136715700455],[85.3304774667291,27.717365904870352],[85.33101321152827,27.718877928014756],[85.33107408923081,27.719040837206624],[85.33118225447903,27.719127852923048],[85.33123568730271,27.719127075583735],[85.33349128816258,27.718502637004192],[85.33354404174334,27.71850256254209],[85.33393781821037,27.718364627892647],[85.33441485852762,27.718243915120595],[85.33452321076356,27.718242247329613],[85.33498609072504,27.71813766970702],[85.33576556452371,27.717932208497757],[85.336169053877,27.71780642698634],[85.33629955122306,27.717892895485456],[85.3364035660668,27.718146255740407],[85.33668058188455,27.718496060104425],[85.3368749347765,27.71858026515842],[85.33706425067409,27.71861717853202],[85.33725221484643,27.718697977249725],[85.3384664540282,27.718457105209772],[85.33861922969116,27.71846182265014],[85.33878048339729,27.718430175087686],[85.33921658026009,27.71832456205927],[85.33937880318858,27.71827484799932],[85.33943806251942,27.71823876499584],[85.33945077013281,27.7181586138066],[85.33943286946956,27.718136421302933],[85.33940440360435,27.718131432341128],[85.339090496409,27.718246668644902],[85.33873428476502,27.718342457368312],[85.33862165761263,27.718222222565615],[85.33848468883139,27.717635656437658],[85.33834444669752,27.717152196457686],[85.33829001929183,27.71709525813634],[85.3382256843619,27.71686263898791],[85.3382471750348,27.716776474062417],[85.33847628389675,27.716672048834425],[85.33853928658948,27.71674324755305],[85.33857008912636,27.716823447674315],[85.33875694528338,27.71685065024011],[85.33879600243895,27.716936364432396],[85.33894087612073,27.71710557411],[85.33897823719977,27.717112841057528],[85.3390341916997,27.717079732683423],[85.33904077107147,27.717050554157616],[85.33887330658222,27.7164432989642],[85.33893095883788,27.7163291515598],[85.33889785673986,27.71630094693705],[85.33883250216098,27.716316206173207],[85.33875279290096,27.716055447579855],[85.33870082979786,27.715716826660216],[85.33855221084474,27.715323888028497],[85.3386097032909,27.715306466548054],[85.33862084513505,27.71526802857064],[85.33859331879394,27.715244932959514],[85.33853952276743,27.71525109009174],[85.33846668747846,27.715111819741225],[85.33835931178876,27.714679224235915],[85.33827482324729,27.71419360571172],[85.33821797293798,27.71361788731521],[85.3378864088544,27.712679355535244],[85.33760413658287,27.71227449539566],[85.33728412278917,27.712001458398834],[85.33720580122304,27.711956067797466],[85.33703656824245,27.71195420810267],[85.33702746581264,27.711825342420003],[85.33717780250261,27.711758094448825],[85.33722604595644,27.711629336441757],[85.33723920911662,27.71124170821151],[85.33727123527225,27.711230648724996],[85.33728308906424,27.711204405666578],[85.33723457607815,27.711068493004863],[85.33721910263735,27.710697118399388],[85.33715227854972,27.71025015275117],[85.33706607985624,27.709831455199847],[85.33700838333634,27.70918891928757],[85.33688696451577,27.708787527039927],[85.33686880554968,27.708677350691396],[85.33691719268096,27.708538108968042],[85.33681872973897,27.708439530909793],[85.3367554573884,27.708233051666618],[85.33666279575046,27.70817720917095],[85.33645616463039,27.708094879814826],[85.33446445377686,27.708205725868478],[85.33399472416394,27.708202945672173],[85.33375024216839,27.708221776162972],[85.33338903447213,27.70822650178383],[85.33269144737143,27.708420223421115],[85.33198817400465,27.708656556465098],[85.33166482865252,27.708637906634685],[85.33138040200379,27.708743589685643],[85.33076290550018,27.708908021672443],[85.32985464958266,27.70907529072676],[85.3278411864339,27.709571921162983],[85.3278305421597,27.709605265185154],[85.3280877763307,27.710432099868907],[85.32822286052046,27.71097547931156],[85.3282008225357,27.711008348025086],[85.32823243713044,27.711169413637418],[85.32827398160076,27.711221670653583],[85.32867851802195,27.712473036201974],[85.32869015596134,27.71255627686537],[85.32867991667969,27.712629964695058],[85.32875189124798,27.71288856980768],[85.32886599275574,27.71314462105453],[85.3288746314345,27.713227016921312],[85.32914100965458,27.713858502375057],[85.32932591481935,27.714438282937518]],[[85.32940085372645,27.713819020485072],[85.32980297417438,27.71368952145142],[85.32997403131,27.713608480023908],[85.32998548752505,27.713565785317563],[85.32996357168184,27.71354698441875],[85.32993607331728,27.713546094668388],[85.32922104357085,27.713757632816726],[85.32915555694377,27.713527320098315],[85.32899621387827,27.713195411083777],[85.32897442368582,27.713104853377402],[85.3287797669441,27.712651985171053],[85.32892754909649,27.712629293184285],[85.32896270872881,27.712662835534985],[85.32899054503014,27.712669152158487],[85.32951601522572,27.712561876465482],[85.32956150650946,27.71259944109335],[85.32963893506282,27.712911839500133],[85.32968927879953,27.713027287748673],[85.32982901187289,27.713093329970665],[85.33011672144109,27.713011421196533],[85.33062792234902,27.712911255918304],[85.33064959156448,27.712892178965614],[85.33077473451954,27.712628784096307],[85.33100363422079,27.71257983532268],[85.3310431321539,27.71255493602744],[85.33105105711633,27.71252822272759],[85.33103557557409,27.712504441132154],[85.33094235821727,27.712479714675514],[85.33077592162955,27.712539094954973],[85.33070663027056,27.712319663370888],[85.33103548782039,27.712241559426104],[85.3310777944912,27.712287618770723],[85.33111215779732,27.712292910044233],[85.3311366638376,27.712275700718223],[85.3311651147244,27.71221077267869],[85.33167567516004,27.712089511798844],[85.33170090055025,27.712101470155716],[85.33237797987319,27.713548190653636],[85.33258030298272,27.713890065219083],[85.33259991630645,27.71405000959982],[85.3322841951238,27.714579204289937],[85.33172216299202,27.714881990532756],[85.33161263432434,27.715012533150475],[85.33160779738799,27.715038603790916],[85.33164095008415,27.71513261979742],[85.3318017494788,27.71546085173678],[85.33178873065064,27.71550538939888],[85.33169605370657,27.715555239964214],[85.33158186256036,27.71557469575115],[85.33145674360424,27.71543611490033],[85.33137033545876,27.715307446120676],[85.33134247835825,27.71530387050507],[85.3311703198454,27.715353097593013],[85.33110197175205,27.71534290093051],[85.33103450065856,27.715223844378517],[85.33115846844835,27.71509165902537],[85.33123382701292,27.715050392911824],[85.33124210290414,27.715024380356095],[85.33122943504492,27.71500186307857],[85.33118843479161,27.71499417773557],[85.33090705587733,27.71510067798662],[85.33080343708689,27.715081266697467],[85.33064365235516,27.714839807023697],[85.330680676489,27.714635532584115],[85.33066504147337,27.714551874175303],[85.33113654674007,27.714097476115843],[85.33128984792033,27.71406038113706],[85.33130279705456,27.714032297449034],[85.33128917870091,27.714006889821835],[85.33090586572266,27.71393063273167],[85.33066727249023,27.713949855223802],[85.33055948235149,27.713990330468146],[85.33040957815311,27.714141601840048],[85.3302215464444,27.71407210297783],[85.32997797054621,27.7141972261683],[85.3294397161428,27.71437116076629],[85.32932718649508,27.714058637707126],[85.32940085372645,27.713819020485072]],[[85.32940038808383,27.71248030762515],[85.3294317717347,27.712475254706394],[85.32945485292028,27.712498987512344],[85.3293718296556,27.712513493557307],[85.32940038808383,27.71248030762515]],[[85.32965851300607,27.712542495138614],[85.32992633539324,27.712482513676683],[85.32996186194467,27.712487066351667],[85.32998632623847,27.712470087715236],[85.33031321914586,27.712402377560586],[85.33035732097815,27.71256493344005],[85.33054812907717,27.712654539088717],[85.33055608861041,27.71283873445179],[85.3303680607167,27.712844443038883],[85.33026220849098,27.712898673672264],[85.33011495757113,27.712892131800206],[85.33007903182838,27.712932154611167],[85.32981878763282,27.71298178546964],[85.32971525731693,27.712884789226795],[85.32963725097424,27.712569861896018],[85.32965851300607,27.712542495138614]],[[85.32970124043767,27.712423365383007],[85.32978016628816,27.71240604480642],[85.32982483125494,27.712429411464626],[85.32968654505598,27.71245805461708],[85.32970124043767,27.712423365383007]],[[85.32998048569885,27.712362083724067],[85.33023000368979,27.712307325310103],[85.33026361742374,27.712338524874955],[85.32998440132424,27.712396359601968],[85.32998048569885,27.712362083724067]],[[85.33078942550436,27.712183893626456],[85.3309522402156,27.71214587337555],[85.33098161012211,27.712179631612337],[85.33075097732856,27.712234407130975],[85.33078942550436,27.712183893626456]],[[85.33118190842542,27.71209323503382],[85.33151216595355,27.712013111772567],[85.33156969940103,27.712039957807306],[85.33117309053844,27.712134154484204],[85.33118190842542,27.71209323503382]],[[85.33117327831454,27.71202049702997],[85.3310516931366,27.71170129208826],[85.33102333976784,27.711690040387232],[85.33099435115598,27.711699927209835],[85.33098179737671,27.711728702659972],[85.33100059571709,27.711785589685146],[85.33092579486743,27.712066058457843],[85.33032875231538,27.712208644020027],[85.33013099904818,27.711719253901386],[85.33022422528587,27.711684416984223],[85.3302319077786,27.71165345556145],[85.33020706258135,27.711616718576582],[85.33032550596852,27.71149930534281],[85.33037096127464,27.711502698588586],[85.3304104243239,27.711477944821453],[85.33041653960106,27.71144815471051],[85.33074656568611,27.711349073241472],[85.33076975475052,27.711330704032722],[85.33069341536154,27.711053908659192],[85.33060010353543,27.710823381318367],[85.33105226270752,27.710736286701426],[85.33130393748142,27.71071097733167],[85.33143367673541,27.711032973177566],[85.33143809651101,27.71111254190427],[85.33150057983173,27.711279951316317],[85.33161368480113,27.71148196988455],[85.33169030064047,27.71179573599698],[85.3315968098463,27.711907473623405],[85.33117327831454,27.71202049702997]],[[85.33023705101236,27.712218596716273],[85.33011464586498,27.712242867492574],[85.32993027422823,27.71225499517967],[85.32976492054387,27.712317334672058],[85.32963954126163,27.71230562506716],[85.3295733307905,27.71233303918824],[85.32965833035988,27.712146183472555],[85.32959677769196,27.711905381396445],[85.32955305676984,27.711881054281797],[85.32930968334011,27.711948617083568],[85.32924645652064,27.71176212192761],[85.32917258341993,27.711641062489182],[85.32932392516673,27.711540963385737],[85.32933704068613,27.711508234677595],[85.32917840944118,27.711278275559337],[85.32914124419689,27.71109555907707],[85.32936868205805,27.71104946700164],[85.32949498658908,27.711142329468657],[85.32953290388708,27.71119978058542],[85.32973919627497,27.7117412193107],[85.3297800943452,27.711758072519714],[85.32991210349651,27.71171611203008],[85.33003425276547,27.71173406514875],[85.33023705101236,27.712218596716273]],[[85.32952277162028,27.71204406312661],[85.32930284207056,27.712057782783994],[85.32930774966879,27.712024843964837],[85.32951965885306,27.711965514253837],[85.32952277162028,27.71204406312661]],[[85.3296955271217,27.711388079353725],[85.3297155542419,27.711371471609564],[85.32971837483001,27.71134457906537],[85.32959431971192,27.7110835272841],[85.32968181574934,27.71094460308831],[85.32982829231821,27.710905205158973],[85.32999306500386,27.710980390499177],[85.33009184270396,27.711252240685774],[85.32974811691284,27.711529852435657],[85.3296955271217,27.711388079353725]],[[85.33059871463182,27.71106165789574],[85.33059544957688,27.71110860623441],[85.33031459820458,27.711188867245728],[85.33017432519249,27.711076706708457],[85.3300953805426,27.710935934503457],[85.33012653881627,27.710872744971947],[85.33043185460734,27.710861568320027],[85.33051957812008,27.710836166678124],[85.33059871463182,27.71106165789574]],[[85.3319576269805,27.712462251742803],[85.3319080189359,27.7123562532461],[85.3319306389743,27.71239912790635],[85.3319576269805,27.712462251742803]],[[85.33230545267536,27.71301003861083],[85.33228446608236,27.712936132827917],[85.33225761317266,27.712899948683425],[85.33227011312927,27.712729147892105],[85.33212946067616,27.71261433820253],[85.33191511078,27.71216993787307],[85.33183918318623,27.71204866156757],[85.33209142955424,27.71198229064907],[85.33219093280006,27.711983065665628],[85.3322194719956,27.711948599986158],[85.33239222441941,27.71190314496142],[85.33261396376041,27.712421504512616],[85.33259772026072,27.712454967605346],[85.33262908112943,27.712542697261036],[85.33272542672469,27.71272909254177],[85.33259826781818,27.712857017402545],[85.33257455376122,27.71289238623209],[85.33257661011834,27.71291739261201],[85.33263189171639,27.712967595389156],[85.33271762311334,27.712939592410834],[85.33300038177468,27.713054398203795],[85.33303530850345,27.713166056523214],[85.33297528227308,27.713201241742347],[85.33282043917102,27.713217472963233],[85.33279259476227,27.713237098274902],[85.3327934408925,27.71332912074636],[85.33283407908002,27.713544531004132],[85.33280230778769,27.71358530325113],[85.3326637059645,27.713528804615013],[85.33248063812184,27.713381762962687],[85.33230545267536,27.71301003861083]],[[85.33222316020095,27.71183036165114],[85.3323285105424,27.711800653600637],[85.33234584460827,27.711822719905047],[85.33221893933845,27.711853282016957],[85.33222316020095,27.71183036165114]],[[85.33258159685977,27.71186613925368],[85.33261014005865,27.711846282426773],[85.33327809851767,27.711672272718886],[85.33364090374434,27.712473629631287],[85.33334886159017,27.71258898770386],[85.33304593665095,27.712757532690706],[85.3328655096915,27.712806618702267],[85.3324716804483,27.711885970041372],[85.33258159685977,27.71186613925368]],[[85.33255527228812,27.71174423031161],[85.33279671884623,27.71168684353836],[85.333248159698,27.711563393423035],[85.33325232627536,27.71158480390464],[85.33257183019191,27.711764363695494],[85.33255527228812,27.71174423031161]],[[85.33290663722144,27.71124560309977],[85.33296086891313,27.711195688533397],[85.33296875256174,27.71116990013521],[85.33287563693959,27.71101596774575],[85.33284197049414,27.71100854456876],[85.33264909641542,27.711062489774726],[85.33263160999329,27.71109882310684],[85.33273694870826,27.711492423822484],[85.33274349151155,27.71160931866292],[85.33246830239648,27.711670768189343],[85.33183765973239,27.71185096649725],[85.33177640346916,27.711547267057377],[85.33173906203174,27.711455773091316],[85.33180891207232,27.711352530134743],[85.3318114167817,27.711327440225638],[85.33165128549658,27.711233026711227],[85.3314228357533,27.710674872044148],[85.33161737702893,27.71065202220763],[85.3317407027344,27.710584052119803],[85.33190015776943,27.710614483298354],[85.33193578956883,27.710595205608627],[85.3319369279978,27.710551833510493],[85.33218638520229,27.710513341598336],[85.3322475669201,27.710579707547456],[85.33228123422137,27.71071787365602],[85.33213810513217,27.710756115201065],[85.33206052076498,27.710912475401337],[85.33209299514625,27.710945768279558],[85.33221917189813,27.71094356272975],[85.33236935761832,27.71078398536547],[85.33238054852524,27.710738649105643],[85.332352463213,27.710568676685167],[85.33246863251571,27.71046196185201],[85.33270828597823,27.71045028195928],[85.33272960652533,27.710434496804165],[85.33274235603093,27.710393501396684],[85.33298329692828,27.710315442966575],[85.33311743196454,27.710568707608118],[85.3331439531178,27.710587871854553],[85.33325491626604,27.71077682649764],[85.33325864289897,27.710813301815904],[85.33331455006093,27.710904093543473],[85.33333942103009,27.710919121068542],[85.33353806222038,27.71124194536265],[85.33355319628113,27.71132711551175],[85.33350215380553,27.711418163633333],[85.33330709694016,27.711471675184917],[85.33326258321621,27.711460801143655],[85.33323567048355,27.711491270108176],[85.33287239460243,27.711590929451535],[85.33278107810132,27.71130412893679],[85.33290663722144,27.71124560309977]],[[85.3318338800374,27.710364911736917],[85.33177585142683,27.710191792089656],[85.33206648621848,27.71017551016739],[85.33215142917783,27.710370958085324],[85.33215230878258,27.710445325319284],[85.33191051840035,27.71048263419642],[85.3318338800374,27.710364911736917]],[[85.33289190453283,27.710185482362533],[85.33294245670815,27.710251842086862],[85.33281020385422,27.710294688538962],[85.33289190453283,27.710185482362533]],[[85.333264678435,27.710633467682623],[85.33326442739728,27.710637154213195],[85.33326157393282,27.710632295168544],[85.333264678435,27.710633467682623]],[[85.33346835741047,27.710952479157648],[85.33352724979484,27.711045289435692],[85.33351931651457,27.711060105344362],[85.33344970297335,27.710947652938177],[85.33346835741047,27.710952479157648]],[[85.33371508380378,27.71158442111634],[85.3338167035108,27.71167362241471],[85.33387026821029,27.711814164878515],[85.3339690625472,27.71193237068118],[85.33411028566587,27.712148785949292],[85.33415394677334,27.71216600170872],[85.33441516530166,27.71250527373714],[85.33436876224532,27.712672403194627],[85.33438754689455,27.71273028605652],[85.3345621493256,27.71280171671129],[85.33459733487453,27.71276921439532],[85.3345736663136,27.71265655227162],[85.3346804514743,27.71262371740985],[85.33483412257038,27.712686786696423],[85.33490789095698,27.712902555547515],[85.33475619916092,27.712963402487873],[85.33461669088331,27.712968861843297],[85.33459726018773,27.712991010450352],[85.33459021687074,27.713054540360673],[85.33463834720159,27.713079039459476],[85.33493223461107,27.712997682524254],[85.3350861577454,27.71337969418575],[85.33500051430461,27.713445879272005],[85.33479803506563,27.713513194891714],[85.33463822901811,27.713587231833213],[85.33449602864874,27.713515906737843],[85.33446850895969,27.713442167976076],[85.33444107502827,27.7134232799775],[85.3343462420634,27.71342453270251],[85.33414341985757,27.713493098593574],[85.33407928424619,27.713564274078706],[85.33408993570187,27.713604756670325],[85.33411926106038,27.713613824265817],[85.33420073291136,27.71360183391616],[85.33428344069515,27.713548438497664],[85.33438029168096,27.713567811198693],[85.33439495165706,27.71369899124254],[85.33425236360979,27.71375141044594],[85.33412144530462,27.713843971806682],[85.33403593435592,27.714018682928472],[85.3339394073585,27.714027820069088],[85.33378406070003,27.714000251842517],[85.33370315793992,27.713859965475326],[85.33374598978469,27.713698177252645],[85.3335628668076,27.713601342355236],[85.3335351459576,27.713604614950437],[85.33351567014275,27.7136247948569],[85.33350979298862,27.713743009365132],[85.33338833593848,27.713776122357153],[85.33329607346636,27.713754336843397],[85.33315147894398,27.7138342470899],[85.33295039322864,27.713895518174763],[85.33292581613199,27.713892803746578],[85.33285216546972,27.713779380470967],[85.33305717920976,27.713698400858526],[85.33309508997536,27.713647066075154],[85.33308043807976,27.713609754885326],[85.33292879725965,27.713534746350852],[85.33293032402244,27.713343529925186],[85.33302013661212,27.713297216603895],[85.33313170792013,27.713273859350945],[85.33316977006494,27.713209309451052],[85.33310830033,27.71302255901372],[85.33310255874225,27.71284445441694],[85.33338489843618,27.712659626798825],[85.33375905774058,27.712626069923793],[85.3337930823197,27.712601929457847],[85.33379158809156,27.712574332756326],[85.33373011999026,27.71247750633825],[85.3335329324161,27.712041964780592],[85.33357592538515,27.71201139097328],[85.33371508380378,27.71158442111634]],[[85.33431029910946,27.712182249961078],[85.3344453045924,27.71236722074414],[85.3344392734435,27.712396198981843],[85.33428459844903,27.71217957914151],[85.33431029910946,27.712182249961078]],[[85.33253985695194,27.71366696448817],[85.33261642117785,27.713776561121087],[85.33261183770738,27.71378848293328],[85.33253985695194,27.71366696448817]],[[85.33264378875009,27.71427089958888],[85.33266685715107,27.714256952698655],[85.33276622185002,27.714109078960536],[85.33288810635796,27.714041494996863],[85.33299191146247,27.714169457617675],[85.33304262522019,27.71417300106538],[85.33313892697686,27.71398031897305],[85.33319702679097,27.713909370599666],[85.33329745812553,27.71388068412686],[85.33339708074197,27.71391174731328],[85.33361039170113,27.713898271019477],[85.33366840123311,27.71409856466688],[85.33376076917511,27.7141775928512],[85.33391400487966,27.714183557605928],[85.33388569773155,27.71430581453745],[85.33349769634084,27.714405617346905],[85.33338342273474,27.714458869656717],[85.33323029103768,27.71449136611612],[85.33308873313428,27.71457180423986],[85.33281293221665,27.7145750174666],[85.33269861210698,27.714607705568415],[85.33260955420353,27.71458051319644],[85.33253412600803,27.7144620214901],[85.33264378875009,27.71427089958888]],[[85.33248317574517,27.71458288899695],[85.33246209699278,27.71458959272958],[85.33247745394449,27.714562393923483],[85.33248317574517,27.71458288899695]],[[85.33236577175815,27.714596425467345],[85.33239703974002,27.71454401597623],[85.33236695742316,27.714597294889263],[85.33236577175815,27.714596425467345]],[[85.331837813128,27.7149779179056],[85.33203507971487,27.714888226753033],[85.33227607087045,27.714752166796746],[85.33231127104062,27.714777521670975],[85.33240618999783,27.715261987456795],[85.33250518189138,27.715371068491716],[85.33254219401894,27.715510933474086],[85.33258895452227,27.715583767913287],[85.3326238480894,27.7155963000815],[85.33275291089811,27.71557259863274],[85.33277545068361,27.715534555132667],[85.3327560176895,27.715508986380456],[85.33263510942787,27.715458994065337],[85.33256162084795,27.715183281637202],[85.33243578071661,27.714929854580568],[85.33245745106252,27.714770591417526],[85.33257935968342,27.714718245345253],[85.332752576957,27.71476205615222],[85.3327700072192,27.714791056266456],[85.33280376010194,27.714798166115006],[85.33295690392097,27.71470818566004],[85.33302469210017,27.71470461982115],[85.33311421521904,27.71465810765274],[85.33339060386041,27.714574393525837],[85.33347287070004,27.714740405757908],[85.33346485475886,27.714779919124304],[85.33351298551905,27.714838349569778],[85.33357258136489,27.71496867715535],[85.33346700674929,27.71510554896458],[85.33327709214903,27.715111041247603],[85.33320533940208,27.715215003157393],[85.33320286182008,27.715239258283066],[85.33323659180277,27.71526596795735],[85.33335134369075,27.71523731294198],[85.33350403183074,27.7152694051255],[85.33355016708035,27.715366215668357],[85.3335845057112,27.715382906353426],[85.33365108229034,27.715367525632843],[85.33367322133498,27.71532276612983],[85.33366527683341,27.71529529129894],[85.33358606163812,27.71522287215804],[85.33366224500453,27.714998929659306],[85.33373490070817,27.714935358119877],[85.33393271075857,27.71486823057527],[85.33398244688794,27.714834094249607],[85.33416150674286,27.714763500361972],[85.3342481110434,27.714809889883025],[85.33415052579461,27.714955737216957],[85.33415204327116,27.715042305949723],[85.33424604698742,27.715197446459918],[85.33415844739766,27.715336530203846],[85.33410146095005,27.71537669523913],[85.33419111291843,27.71554148262987],[85.33417743702631,27.715584318421996],[85.33420301264236,27.715618302055912],[85.3341326338524,27.71572878939782],[85.33408719166042,27.71571865740714],[85.33404124960023,27.71566039612097],[85.33393452083257,27.715434043486432],[85.3338838599582,27.715429973522436],[85.33384810549705,27.715485081983324],[85.3340127962312,27.71593218266922],[85.33399382244899,27.71610000277872],[85.33376882467476,27.71617610405166],[85.33346094430676,27.71631227966668],[85.33332548066976,27.71631545896133],[85.33317224399495,27.7164441948238],[85.33297875928679,27.71650084882632],[85.3329283951318,27.71645432854303],[85.3328644817131,27.716290808537234],[85.33295476072303,27.71622956606521],[85.33303599201592,27.716223653619366],[85.33320178880827,27.71608184823563],[85.33320786354076,27.7160094801442],[85.33317840304608,27.715993187004674],[85.33313371639692,27.71600472883841],[85.33291447628402,27.71615392258585],[85.33279748098717,27.716209575402548],[85.33270187378966,27.71619010902533],[85.33254161057604,27.716231782563344],[85.33243682538158,27.716103549596816],[85.3324709695559,27.715993262656294],[85.33270477283898,27.715917014256753],[85.33272284720091,27.715887330176397],[85.33270658771441,27.715858067143692],[85.33264209843088,27.7158490030182],[85.33220486242564,27.715998228852513],[85.33209437859108,27.715892208147327],[85.33208870549618,27.715827803937984],[85.33199931746292,27.715634826125054],[85.33203009738085,27.71553065856938],[85.33223608314823,27.715512436590142],[85.33228858791631,27.71548728799529],[85.33229652927544,27.71545088918464],[85.33224541900523,27.715418026150836],[85.33212402765129,27.715252723020175],[85.33189174337708,27.71531296774787],[85.33177708183514,27.71505425434371],[85.331837813128,27.7149779179056]],[[85.33356066707817,27.714520843627657],[85.33362855021998,27.714516909317314],[85.3338263934395,27.71445221254223],[85.33395498777244,27.71436434714184],[85.33418611084234,27.714292402568805],[85.33428110138813,27.71435393197448],[85.33428017066784,27.714440730510162],[85.3343011307466,27.71446093407095],[85.33433214876509,27.714462089470565],[85.33448767256084,27.71437462503061],[85.33468051883763,27.71430546749107],[85.33477396358823,27.71424959281786],[85.3347723660524,27.714215941977137],[85.33473981102833,27.71419808474618],[85.33459154915069,27.71424055322576],[85.33453206965984,27.714240305569973],[85.33450790929466,27.714129470978698],[85.33461408804665,27.714098077526398],[85.33467205336747,27.714064018921345],[85.33494557290891,27.714024515378945],[85.33510359363834,27.714049969243753],[85.33511846868032,27.71411455163602],[85.33510065543624,27.714269260188637],[85.33496983840486,27.71432939127046],[85.33495210007892,27.714359542207085],[85.33497244908922,27.714390531640213],[85.33511303804424,27.714447212445798],[85.33501947390923,27.714531788351948],[85.33476885429315,27.714620031003545],[85.3344083332574,27.71471311684478],[85.33427971809468,27.714647478049727],[85.33414164557529,27.714661549891108],[85.3338412215171,27.714782373527843],[85.3337045469916,27.714853110292836],[85.33356762970625,27.714752705342136],[85.33346775848162,27.71455116831496],[85.33356066707817,27.714520843627657]],[[85.33402138397075,27.714244142011328],[85.33406448532709,27.714253776223433],[85.3340084512369,27.71427121865338],[85.33402138397075,27.714244142011328]],[[85.33072792144209,27.715109423355063],[85.33070613856079,27.715148344758322],[85.33072020887948,27.715172972947578],[85.33088630605253,27.715242090914437],[85.33074910432252,27.715428993442607],[85.33051409781078,27.715512767708212],[85.33050827530946,27.715484892886774],[85.33048164234233,27.71546785533738],[85.3303868657635,27.715082286392644],[85.33031521803369,27.71491081427373],[85.33047852123546,27.7149182173904],[85.33057714420472,27.714881575176463],[85.33072792144209,27.715109423355063]],[[85.32952374907875,27.714604521041533],[85.33007412027348,27.71606582106416],[85.33006194630129,27.71607945539036],[85.32951417980111,27.71462704006884],[85.32952374907875,27.714604521041533]],[[85.32956900586285,27.71449801977993],[85.32977712684367,27.71434695388643],[85.33000198174392,27.714280303920514],[85.33005377162563,27.714423515792177],[85.3300288640042,27.714453300170597],[85.3300409175336,27.714515390280752],[85.33010209758581,27.714678768661795],[85.33017786832467,27.714791953046678],[85.33018180317477,27.714886641396852],[85.33031423404104,27.715249273120445],[85.33038613226464,27.715552650375606],[85.33046648574191,27.715681209769507],[85.33052772440327,27.715845593397546],[85.33053131685331,27.715935036177488],[85.33059840831234,27.71610018297184],[85.33035814668769,27.716373141760897],[85.3301917390277,27.71612011212966],[85.32993670558558,27.715388656981194],[85.32989469262967,27.715157119210293],[85.32979077630351,27.714993478831534],[85.32975113153172,27.71497864474772],[85.32956900586285,27.71449801977993]],[[85.33007869162861,27.714256764334163],[85.3302109279105,27.71422155520801],[85.33027230314971,27.714398274197283],[85.33013458809184,27.71441133160472],[85.33007869162861,27.714256764334163]],[[85.33012075273395,27.716185614811586],[85.33021368697982,27.716425580276404],[85.33019917015253,27.716446636931295],[85.33010386919894,27.71619099994625],[85.33012075273395,27.716185614811586]],[[85.33037977480504,27.71653806080339],[85.3310262235669,27.716347926846698],[85.33108904568294,27.716406498454248],[85.33109410372022,27.71645034765526],[85.331220318934,27.71662546554084],[85.33127175846315,27.71681485034886],[85.33078618389767,27.71693544423356],[85.33048836229513,27.71707525807759],[85.33034418516894,27.716604170864784],[85.33037977480504,27.71653806080339]],[[85.33074725131534,27.71616013258304],[85.33065149352497,27.7159217131277],[85.33082599300165,27.715742853668967],[85.3309650474701,27.715904434636446],[85.33105181926578,27.7161051951384],[85.33094008905036,27.716229646556215],[85.33077457639683,27.716278794569018],[85.33074725131534,27.71616013258304]],[[85.33091804517362,27.718012572817013],[85.33169167169201,27.717799509276823],[85.33171950726744,27.71777186826577],[85.3317052364448,27.717736991811954],[85.33163860325178,27.717714562953446],[85.33125504067715,27.717445924288494],[85.33111262310742,27.716991666487097],[85.33151698048003,27.716883592004965],[85.33163044467639,27.716871937829072],[85.33165877392904,27.71683842262007],[85.33217164191404,27.716692252111876],[85.33220099035096,27.716695726608126],[85.33259313717164,27.716590024649328],[85.33263282245198,27.716758522686455],[85.33272426081535,27.716933878551565],[85.33286219210021,27.717117183007257],[85.33285084275248,27.71719153748248],[85.33287999041495,27.717221213703095],[85.33305824285767,27.71717038971699],[85.33326546436146,27.71716595951181],[85.33360406872066,27.717014394237573],[85.33375982846279,27.716970125993956],[85.33386272962782,27.716924553377847],[85.33399127518564,27.71698089019484],[85.33405345067371,27.717271097849945],[85.33414471409083,27.717351143765026],[85.3341595570418,27.717391800861567],[85.33405132676887,27.71753822427849],[85.33420343925248,27.71786886774861],[85.3341934000807,27.717899183032795],[85.33423752186974,27.7180528023086],[85.33408018151638,27.71823619315445],[85.33383767120506,27.718230705185174],[85.33371002842806,27.71796887551032],[85.3336093127951,27.717848277369054],[85.33360082224841,27.71775957106785],[85.33353714791667,27.717679619335613],[85.33351641903909,27.717552042044236],[85.33347510911828,27.717465915366407],[85.33342282879704,27.71742911735379],[85.33339356359771,27.717425064078913],[85.33336816518491,27.717440919947812],[85.33336233767422,27.71746601765505],[85.33344267830435,27.717707598396867],[85.33373291392859,27.718298124991165],[85.33367100735697,27.718364923247027],[85.33328844582468,27.71847367538635],[85.33284669836162,27.71833400439133],[85.33281690567766,27.718295088972624],[85.3327407502982,27.718062286152357],[85.3328150478845,27.7180376668758],[85.33284382252262,27.717975312079556],[85.3327474284612,27.71773896474865],[85.33268600376412,27.71765953450066],[85.33263488990289,27.717518380015612],[85.3326139128209,27.717501500848037],[85.33257977259977,27.717501091466143],[85.33255755910633,27.71751564661441],[85.33255149583267,27.717542733810603],[85.33269337580587,27.71793335667863],[85.33263752528349,27.71804836621459],[85.33278452759845,27.71852040594865],[85.33265678502171,27.71864400566779],[85.33231117040722,27.718747769999073],[85.33221418026834,27.71847524874792],[85.33238107982011,27.718394975917903],[85.33239886188966,27.718351171939382],[85.33236387878057,27.718325271497257],[85.33217960543938,27.718341046567875],[85.33211660957927,27.718350105195167],[85.33208262643204,27.718400412621463],[85.3310768461402,27.71881650095521],[85.33084531504373,27.718146924432496],[85.33091804517362,27.718012572817013]],[[85.33117871184731,27.717471111890298],[85.33118939346916,27.71755112985754],[85.33145329979969,27.71775871769986],[85.33089780385649,27.717907016646976],[85.33066669463285,27.71761138528836],[85.33059386453712,27.717425202380362],[85.33084983364637,27.71706240149177],[85.33103504980667,27.717012883674204],[85.33117871184731,27.717471111890298]],[[85.3313021116653,27.71659463521153],[85.33118424061885,27.716301345262927],[85.33139730412321,27.716237785111392],[85.33144688591949,27.7162567461222],[85.33149383407185,27.716208988594456],[85.33191980386977,27.71608191359507],[85.33215711461726,27.716117310404158],[85.3323627022797,27.716206467762955],[85.33251221225632,27.71641573181003],[85.332520023854,27.716517150373864],[85.33159216326048,27.716781597683706],[85.3313021116653,27.71659463521153]],[[85.33117797797627,27.716159237190862],[85.33112379749915,27.715959104186567],[85.33105831207801,27.71587977505484],[85.33103879585329,27.71581342828743],[85.33104767733458,27.7156741582462],[85.33120722589942,27.71567364048568],[85.33122617577584,27.715643222878555],[85.3312063716405,27.71558028714087],[85.33138895942727,27.715509512277528],[85.33151236944593,27.71566342162905],[85.33159480270845,27.715690917079492],[85.33172387707938,27.715668673462666],[85.33186040059975,27.71572432049467],[85.3319269259172,27.715887338530095],[85.33175679334937,27.71595999364703],[85.33151018771791,27.716040864471136],[85.33147482737688,27.71607293033548],[85.33117797797627,27.716159237190862]],[[85.33279141791711,27.716885495370516],[85.33276411579801,27.716804815852367],[85.33277097172761,27.716747859503133],[85.333075805585,27.71663504418018],[85.33315918052067,27.716730691379926],[85.33319940951426,27.7168246451059],[85.3329123996145,27.717054166252574],[85.33279141791711,27.716885495370516]],[[85.33427169999176,27.71744735584629],[85.33428050839242,27.71741740075222],[85.33424807018416,27.71732416851619],[85.33420215330341,27.71724852839533],[85.33413007846966,27.717065724072352],[85.33424745764628,27.717018304805137],[85.33436361631631,27.717086140825646],[85.33436937368157,27.71719209240824],[85.33446013007244,27.717280977807185],[85.3345479804604,27.717511146740566],[85.33455640036617,27.717606797195455],[85.33466194887933,27.7178099370799],[85.33474875810636,27.717915924834593],[85.33476609914645,27.71800682935371],[85.33451856434522,27.71815129415104],[85.33437131936284,27.71803402347907],[85.33415139725993,27.717574670083305],[85.33427169999176,27.71744735584629]],[[85.33223401446446,27.718770090816395],[85.33204704241173,27.718816595915108],[85.33215618529925,27.718551407410796],[85.33223401446446,27.718770090816395]],[[85.33593153230106,27.717805107201084],[85.3359052377104,27.71773240075432],[85.33584206827969,27.717689129140204],[85.33565933454732,27.717676882393953],[85.33565652910268,27.71755257419271],[85.3357405425731,27.717513451276734],[85.33593675082265,27.717459951644557],[85.33607983155984,27.71746723588062],[85.33611102103441,27.717558625038755],[85.33607310799917,27.71771870543822],[85.33607981830112,27.717758081633658],[85.33593153230106,27.717805107201084]],[[85.33653539429213,27.718183680000802],[85.33654724972531,27.718144981714662],[85.33649983025153,27.718085444084643],[85.33661215836533,27.718023050856512],[85.33669745279259,27.718092744184663],[85.33670381548926,27.718250661964497],[85.33667587046267,27.718365878334073],[85.33653539429213,27.718183680000802]],[[85.33773246764522,27.718530473783623],[85.33731907573731,27.718605392694773],[85.33726690613557,27.71848351886597],[85.33802431338566,27.718177255011234],[85.3380411722902,27.718153041741658],[85.33807339662954,27.717841470200945],[85.33815908827758,27.71780306699143],[85.33835622265705,27.717781268757395],[85.33846312589895,27.718272553377687],[85.33842317930896,27.718375650371264],[85.33802413487905,27.718453545397],[85.33793951648607,27.71845730418736],[85.33773246764522,27.718530473783623]],[[85.33795240544718,27.71812747922614],[85.33748876999738,27.71829977092584],[85.33718621503544,27.71822742546177],[85.3371240975233,27.718121107128926],[85.3370967911636,27.717936263478002],[85.33738129312876,27.717795159093342],[85.33756033926653,27.71788897665218],[85.33783756004927,27.717812602214387],[85.33795240544718,27.71812747922614]],[[85.33760432006441,27.7177965405476],[85.33739851904973,27.717701513547247],[85.33720910958023,27.71776769446421],[85.33706128847845,27.71777813786071],[85.33709581124157,27.717665224653487],[85.33710003737008,27.717278524804144],[85.3372183668153,27.717151628328086],[85.337335953172,27.71715059114175],[85.33744911769722,27.71720753212321],[85.33750681230616,27.717394659892296],[85.33771151534826,27.717512770947046],[85.33778776569096,27.717511453314867],[85.33801095440828,27.71746162753671],[85.33807318999354,27.717508446483386],[85.33826699396664,27.717498074711738],[85.33831562086948,27.717675586688785],[85.33804583448698,27.717733367081312],[85.3378354663123,27.71764729703546],[85.33777627258134,27.717692675780178],[85.33779853715838,27.717747919469957],[85.33760432006441,27.7177965405476]],[[85.33885882345048,27.71686601006068],[85.33884639986961,27.71681774848784],[85.33888227618947,27.716760468596632],[85.33892688563981,27.716932470652665],[85.33885882345048,27.71686601006068]],[[85.33865767908134,27.7161885786307],[85.33869562691984,27.71614347589344],[85.33872737604709,27.716247339342992],[85.33865767908134,27.7161885786307]],[[85.33861381126873,27.716031634295167],[85.33859183096907,27.715836641780026],[85.33863206890919,27.715801377014504],[85.33866685673576,27.71602888186613],[85.33861381126873,27.716031634295167]],[[85.33847965416058,27.715705556494427],[85.33837081557371,27.71565591542202],[85.33822424622362,27.715305158703085],[85.33832686942489,27.71521152053372],[85.33846486613866,27.715319305987375],[85.33860669889127,27.715693817811598],[85.33847965416058,27.715705556494427]],[[85.33828511591766,27.715662047707355],[85.33826995752032,27.715700041857737],[85.33833715589158,27.715835906719235],[85.33836383633236,27.71584896190909],[85.33845131322381,27.71584594975861],[85.33848578045829,27.7160897990943],[85.33852243928982,27.716217403415737],[85.33861804916779,27.716428017832058],[85.33855778708188,27.716479642472237],[85.33817190333085,27.716504332033296],[85.33810639169543,27.71642431026478],[85.33783826138301,27.71543504130909],[85.3379026115521,27.715393960124977],[85.33804720268705,27.715336606717646],[85.33814792110168,27.715329636805663],[85.33828511591766,27.715662047707355]],[[85.33800119207473,27.716497005496862],[85.33798737266024,27.716540117872032],[85.33802027712593,27.7165654594259],[85.33806501289533,27.716725916590843],[85.33798543104244,27.716825132572115],[85.33787385971227,27.71685571943437],[85.3377182947022,27.71682842382473],[85.33771068091818,27.716784400964265],[85.33762755503764,27.716646702562308],[85.33748410461503,27.716603822818364],[85.3373748477238,27.716606740583995],[85.33727336082158,27.7165526564248],[85.33711450397755,27.716498025753175],[85.33701507335574,27.716428173191115],[85.33705984804719,27.716307060467077],[85.33705057342956,27.716001915214058],[85.33706179874808,27.715954978768544],[85.3370332466349,27.715862346607494],[85.33697539962226,27.71580341048879],[85.33714024761774,27.715732807141872],[85.33716133075033,27.71575741994838],[85.33731649963735,27.715813948810755],[85.33732883014946,27.7159708049876],[85.33723687240897,27.716009490510718],[85.33723154399226,27.716063352832652],[85.33725885608337,27.716088230429467],[85.33769560954156,27.715981377307234],[85.33787309373128,27.716191726509514],[85.33791878786418,27.716201438594336],[85.33800119207473,27.716497005496862]],[[85.3368165204807,27.71557667168115],[85.3367408920242,27.715525725414103],[85.3364664992441,27.71547188826401],[85.33624220973229,27.715474928066126],[85.33579526378743,27.71508810668689],[85.33577508759043,27.71499317886188],[85.33570636048177,27.714955236538422],[85.33564886161813,27.71476367147026],[85.33574598825994,27.71463700119655],[85.33609625637843,27.714529124960713],[85.3361570598562,27.714608382398968],[85.33621090769239,27.714854141795527],[85.33640474409073,27.71518561231075],[85.33643564030194,27.715208714562536],[85.33646620439958,27.71520785869459],[85.33659311062246,27.71515119184094],[85.3366131877887,27.715118658610116],[85.33657882386015,27.715012420311133],[85.3365094262751,27.714962512594134],[85.33643002048055,27.714939328025316],[85.3366800639349,27.71475232367809],[85.33669218500222,27.71480029605534],[85.33676509679096,27.714914222192764],[85.33691499841385,27.715042061432612],[85.33695142846483,27.715095725659527],[85.33698342984405,27.71510501561908],[85.33708976653935,27.71508501736257],[85.33720607064988,27.71534764001976],[85.33724192650453,27.715468323016907],[85.33721244435966,27.715599465498006],[85.33714296094217,27.715635953099753],[85.33712900895263,27.715657497347465],[85.33692525098171,27.715744765594323],[85.3368165204807,27.71557667168115]],[[85.33675762669327,27.715830830656266],[85.33669659890025,27.715876470398058],[85.33658446529769,27.7158993201439],[85.33651055107345,27.715554400459123],[85.33669444696356,27.71559036319415],[85.33675762669327,27.715830830656266]],[[85.33598488813924,27.715354873925335],[85.3360336438113,27.71550058432646],[85.33608655696794,27.716089524507204],[85.3360029509384,27.71612004568164],[85.33589845081016,27.716036301724028],[85.33584037597637,27.715515206187973],[85.33579319247669,27.715504628673077],[85.33558915266273,27.71561031776514],[85.3355165086091,27.715601475808874],[85.33546184113129,27.715495946017413],[85.33542513438688,27.715397606070052],[85.33540450853877,27.715202137502104],[85.33538109397986,27.714814327546502],[85.33538662597952,27.71467615160111],[85.33551920601182,27.714648579665777],[85.33560268687677,27.715007378488703],[85.33571862488476,27.715136710530462],[85.33574840775357,27.7151482624947],[85.33598488813924,27.715354873925335]],[[85.337141084136,27.714936936803646],[85.33727845332689,27.71491579236862],[85.33740361754592,27.715259203261365],[85.33727166588713,27.715298857445365],[85.33715453826063,27.715034375538636],[85.337141084136,27.714936936803646]],[[85.33776166566663,27.71562229186135],[85.33774197496071,27.715655138948307],[85.33776862391623,27.715759510701254],[85.33769211630978,27.715887265923634],[85.33760976502346,27.715869232542317],[85.33752511090269,27.715904435575993],[85.33741434220318,27.715784940079672],[85.33741051838985,27.715686567379876],[85.33747710786666,27.715583156549382],[85.33772623507002,27.7154751093088],[85.33776166566663,27.71562229186135]],[[85.33830679028082,27.71509980609554],[85.33814526551083,27.715198356128788],[85.33808624609885,27.715189904342473],[85.33794255997636,27.715260665091993],[85.33780420097276,27.715175004232133],[85.33778903491061,27.715064455049298],[85.33771244265061,27.71500807407152],[85.3376849851844,27.714915678211486],[85.33770290724772,27.71486969099086],[85.33756772933697,27.714421088048802],[85.33767347348622,27.7142934900866],[85.3377720473079,27.71426145965886],[85.3378161282903,27.714352255055722],[85.33782638307889,27.714419332615602],[85.33785202561724,27.714440126080724],[85.33801377687992,27.714429348631462],[85.33821331975395,27.714438685658298],[85.33820466609266,27.71452658878538],[85.33806106939605,27.714630816779888],[85.33788617571906,27.714650577307424],[85.33785753092782,27.714688628832754],[85.33787462376607,27.714714696294557],[85.33792836489442,27.714735633317176],[85.33807134205767,27.714725859521085],[85.33823464372237,27.714829898799945],[85.33831235109255,27.714824746339993],[85.3383787552722,27.715092276276604],[85.33830679028082,27.71509980609554]],[[85.33819023744715,27.71416156122365],[85.33778185609513,27.714138549266917],[85.33764003897124,27.714201535693],[85.33750237919017,27.714123121892143],[85.33740406194653,27.713962483257806],[85.33732657309389,27.713791719695955],[85.33736214231092,27.713622317799047],[85.33734086485309,27.713587326559335],[85.33735758170451,27.713365671781208],[85.33738378672905,27.71333891116323],[85.33738631772808,27.713245334307015],[85.33747541029504,27.713110269290418],[85.33766771987256,27.713142777824782],[85.33775792220992,27.713129645855847],[85.33793081518637,27.713139047085058],[85.3381383683732,27.713634052247954],[85.33819023744715,27.71416156122365]],[[85.3370412447443,27.713565571665388],[85.33681884146029,27.71365625357727],[85.33669259573611,27.713661257260846],[85.33658979733572,27.713683214916294],[85.33649093975055,27.71356840947609],[85.33676928705083,27.713460372183942],[85.33722709515845,27.71340682743527],[85.33721996050339,27.713561186336854],[85.3370412447443,27.713565571665388]],[[85.33777881893923,27.71289137142444],[85.33766638416465,27.712838993226605],[85.3378258684846,27.71274837999475],[85.33787131160257,27.71287695716149],[85.33777881893923,27.71289137142444]],[[85.33767883116666,27.71260639028598],[85.33755056951173,27.712614350209314],[85.33747909777183,27.712663054197723],[85.33739693128072,27.71267224442917],[85.33730755732327,27.71259925202554],[85.33719935425113,27.712375602004695],[85.33720787774796,27.712301944113996],[85.33713931720708,27.71222923439686],[85.33710434008096,27.712143961559825],[85.33711233599175,27.712116197992824],[85.33721513081176,27.71207053954533],[85.33742890906314,27.712241699077783],[85.33747711141281,27.71232591142311],[85.33755312320096,27.712336157677196],[85.33775636416577,27.71262844262143],[85.33767883116666,27.71260639028598]],[[85.33713795286869,27.711336619094123],[85.33709664851965,27.71126928113836],[85.33713695285125,27.711260467103852],[85.33713795286869,27.711336619094123]],[[85.33697736317107,27.71100733592538],[85.33689859925067,27.710837552883962],[85.33713047098938,27.710827573976758],[85.33713311749503,27.711004321319532],[85.33697736317107,27.71100733592538]],[[85.33687262323375,27.710988083947804],[85.33686231543449,27.711024623711502],[85.33695533023216,27.71122973871297],[85.3370994209272,27.711435686970596],[85.33713335264501,27.71159793802318],[85.33697122616107,27.711700918903016],[85.33672239937962,27.711768515065785],[85.33656155335977,27.711697757867984],[85.33650633218068,27.71164803527431],[85.33657963549018,27.711493483970166],[85.33656525221754,27.71140731315975],[85.3365338215602,27.711356178385543],[85.33650536305588,27.711345138947614],[85.33647646877807,27.71135524208271],[85.33639430983817,27.711476086525433],[85.33626797918492,27.711385609016467],[85.3362337766616,27.71138126792335],[85.33617397207786,27.711247623155934],[85.33624718835527,27.71118394911031],[85.3364146528164,27.711132062805618],[85.33663072310652,27.71101350136511],[85.33663022557232,27.710973141151023],[85.3364820155916,27.71083363997676],[85.33676938133459,27.710861097317594],[85.33681787585937,27.710854705819102],[85.33687262323375,27.710988083947804]],[[85.3370602848737,27.710322347203373],[85.33710757377143,27.710685482653762],[85.33690430145751,27.71072242053241],[85.33680749368574,27.710622880466747],[85.33679318936075,27.710530363128342],[85.33684086508212,27.71047206328031],[85.33692811686933,27.710441648435285],[85.3370602848737,27.710322347203373]],[[85.33686288883224,27.70961646535491],[85.33669215175323,27.709674706745727],[85.33655641052812,27.70961366280699],[85.33651450590486,27.709540971121797],[85.33664753057714,27.70945346288424],[85.33679525419548,27.709413599483472],[85.33693206276021,27.709448485850483],[85.33694429630165,27.709628611116347],[85.33686288883224,27.70961646535491]],[[85.33539088719002,27.70829452773265],[85.33533654621363,27.708262842012548],[85.33541498668775,27.708258196476393],[85.33539088719002,27.70829452773265]],[[85.33457465181424,27.708310137688255],[85.33456419055007,27.708301151006967],[85.3345877499317,27.70830011331874],[85.33457465181424,27.708310137688255]],[[85.33409995243238,27.70834147464466],[85.33408011737961,27.70831855491167],[85.33415906802261,27.70831587003589],[85.33409995243238,27.70834147464466]],[[85.33273553764899,27.708518267547724],[85.33336926595618,27.708371759559203],[85.33344385386364,27.708477427308658],[85.33367643316329,27.708653959013212],[85.33378490574222,27.7088043056643],[85.33381361973336,27.708863772997578],[85.3339054776142,27.70922590866626],[85.33397361599319,27.709381211213902],[85.33398141442414,27.70950993444119],[85.33392684802665,27.7096392011479],[85.33390043131178,27.709765956007494],[85.33377639687862,27.70986365857836],[85.33363553651151,27.709811748401638],[85.33360945194869,27.709832093379585],[85.33359173753885,27.709901688248493],[85.33342497191065,27.70990869590936],[85.33325688072745,27.709990214918292],[85.33313731010436,27.710142249656734],[85.33308675060228,27.710185529046335],[85.33283805107102,27.70987981764305],[85.33287927345005,27.709837137364882],[85.33287744848577,27.70980314255553],[85.33274440417445,27.709761949727646],[85.33255490605575,27.709457750300277],[85.33232970541287,27.709168313255226],[85.33228714000022,27.70903148523564],[85.33211731080976,27.708893102679863],[85.3320645972477,27.708746485574782],[85.33208795808112,27.70871804577998],[85.33273553764899,27.708518267547724]],[[85.33251517229174,27.709542622404022],[85.33258203729078,27.709650062348913],[85.33250707024263,27.70955165213168],[85.33251517229174,27.709542622404022]],[[85.33242171538706,27.709413382707123],[85.33232746945141,27.709311037807073],[85.33232775789014,27.709292626417362],[85.33242171538706,27.709413382707123]],[[85.33154024371458,27.70883859913623],[85.33149962604429,27.70880627292217],[85.3315857649626,27.708772845756858],[85.33154024371458,27.70883859913623]],[[85.33138770428022,27.70884593552849],[85.33137566018881,27.708970570488162],[85.33145005170414,27.709205011148384],[85.33146581423371,27.709388246922334],[85.33156446641885,27.70945398180817],[85.33161334181206,27.709589835420882],[85.33167617517927,27.709680109874597],[85.33171024820349,27.709696275895908],[85.33174560902705,27.70968561460786],[85.33175786383292,27.709660942181383],[85.3317505392971,27.709613162295412],[85.33167871070486,27.70948745101199],[85.33159672094891,27.709241465850813],[85.33154710214379,27.709189648675917],[85.3316566414981,27.70904351328795],[85.33163548954042,27.708978699183813],[85.33188724143263,27.70900277743509],[85.33197282811261,27.708978996262445],[85.3323385596888,27.709464519293974],[85.33249412688919,27.709699795809097],[85.3323690965327,27.709791142320366],[85.3323674335941,27.709835019891415],[85.33241549977873,27.709884898710328],[85.33244866009314,27.709892569137505],[85.33251475488949,27.709826996734748],[85.33258660583806,27.709797798520675],[85.33268533009975,27.709929244982515],[85.33241861254622,27.710384297844783],[85.3324020521159,27.710388474464576],[85.33223727255347,27.710317513044725],[85.33219948590248,27.71022335849498],[85.33222801850897,27.709986141726326],[85.33219130270132,27.709883607584633],[85.33209426837287,27.709710672448242],[85.3320349857644,27.709689538363445],[85.33200480665145,27.70971363824098],[85.33200258789356,27.70976944550137],[85.33205313765501,27.709873542280352],[85.33200121547915,27.709905357307086],[85.33183270392371,27.709949597730606],[85.33170793153732,27.710106883450027],[85.3315914274285,27.710086284806806],[85.33155541099849,27.7101103969239],[85.33155309148638,27.710147650481275],[85.33161816331435,27.710299935891353],[85.33172760464416,27.710392885143524],[85.33170187215909,27.71050038133446],[85.33160174258965,27.710515689430466],[85.33157010118622,27.71053658100558],[85.33137901674269,27.71058291878359],[85.33134498284706,27.710522796628982],[85.33133659301846,27.710444815238212],[85.33129390970096,27.710315394987436],[85.33122262161311,27.710165126542023],[85.3311981625582,27.710033825103253],[85.33096110640449,27.7094551551541],[85.33103524705447,27.709272878702514],[85.33087310785437,27.709038916097004],[85.33111428760539,27.708932469261388],[85.33138770428022,27.70884593552849]],[[85.3321615089158,27.70908652172074],[85.33215844187987,27.70909400040417],[85.33214478842253,27.70907607713366],[85.3321615089158,27.70908652172074]],[[85.33027104577151,27.70909296002929],[85.33030537012138,27.70910750218854],[85.33073631568111,27.709090830592398],[85.33085915231108,27.70925938084974],[85.33079781361769,27.709425674265063],[85.3308233393349,27.70957275265402],[85.33092761424433,27.709640044900183],[85.33094865267216,27.709828608320574],[85.33105137796602,27.709949494155286],[85.33076399630407,27.71009121301662],[85.33067090739408,27.710158294781515],[85.33065814476105,27.710186997308757],[85.3306753510506,27.71022057966254],[85.33058473762054,27.710339259926215],[85.33056036550796,27.710303888372334],[85.33027858531352,27.71015617535496],[85.33031743734833,27.710029762752026],[85.33036247771417,27.709998415730407],[85.33035762860396,27.709945486806816],[85.33028334035265,27.70986235148153],[85.33023316036211,27.709714804533903],[85.33011362087338,27.709646091716063],[85.33029222186948,27.709522816470948],[85.33030023864055,27.709480597757178],[85.33025767809306,27.709459770832225],[85.33014491186316,27.70949345590533],[85.33006963558547,27.70949937390502],[85.32996973501568,27.709334327439883],[85.32997358878553,27.709200385762045],[85.32994515681632,27.709157327412107],[85.33027104577151,27.70909296002929]],[[85.33109376270968,27.71006636475648],[85.3309919327913,27.710215242602693],[85.3308865530889,27.710144928210656],[85.33088463814279,27.71011419219363],[85.33107430961789,27.710020719903387],[85.33109376270968,27.71006636475648]],[[85.32984170686318,27.709179574028607],[85.32992044208349,27.709465393110314],[85.32994901130971,27.709633737113307],[85.32989612942468,27.709738037027474],[85.329792633928,27.7098094446534],[85.32978202382442,27.709844972197907],[85.32996406686341,27.71027691374181],[85.32999628154798,27.710287557381754],[85.33016528355455,27.710247511408014],[85.33024045006064,27.71024733815791],[85.33040484038995,27.710725651973828],[85.3301463160425,27.71075464714473],[85.33000292525097,27.710756528798385],[85.32995395301461,27.710774751065014],[85.32975125403843,27.710792792188776],[85.3294076010681,27.71091724402687],[85.32926639368985,27.710949275198995],[85.32913611235425,27.710871762350486],[85.32910522864941,27.710786601095243],[85.32923115155468,27.710697515424698],[85.32925537732562,27.71055088534905],[85.32923226473616,27.71053177152193],[85.32912990616475,27.710508384004413],[85.32897736558793,27.710402452701157],[85.32893646604657,27.710309807173363],[85.32901222458625,27.71024995879137],[85.32910019535268,27.71008182964],[85.32918194656428,27.710002958374837],[85.3293155528274,27.71004271080743],[85.3293320184328,27.710088212725807],[85.32935715143732,27.710103835883483],[85.32944042846489,27.71008802123327],[85.32946203724198,27.710068184616464],[85.32945326527134,27.709996046027843],[85.32948223552161,27.709825934558776],[85.32934724875814,27.709419541435516],[85.32955313790005,27.709245324924193],[85.32984170686318,27.709179574028607]],[[85.33053700938235,27.710445851658672],[85.33057025578204,27.710589502558665],[85.33047512537865,27.710683325478584],[85.33034741453932,27.710311736122932],[85.33053700938235,27.710445851658672]],[[85.329091577926,27.7093908654971],[85.32903093110157,27.70940049016258],[85.32894368403866,27.70938556615132],[85.3291200798989,27.709344621147128],[85.329091577926,27.7093908654971]],[[85.32816824236377,27.7102390293061],[85.3279592008183,27.709635326913585],[85.32849694498496,27.709510128505475],[85.328685321889,27.7095403867732],[85.32876559886222,27.70964124736123],[85.32875466973935,27.709745085853623],[85.32881153373746,27.709924397853328],[85.32887865048289,27.709988109863463],[85.32890952988325,27.71020415562027],[85.32880757598443,27.710241428004824],[85.32843090864218,27.71032243969671],[85.32816824236377,27.7102390293061]],[[85.32840132471543,27.710420529476647],[85.3284229327582,27.710445484973583],[85.32845360759207,27.710448264303295],[85.32854004009992,27.71038975127],[85.3288078994502,27.710327879149105],[85.32888319004515,27.71043166890877],[85.32886229545674,27.710523971005312],[85.32895514701312,27.710678728594175],[85.32897698266105,27.7108482904388],[85.32882746232097,27.710890849803654],[85.32833790950512,27.710957797165552],[85.32822258967492,27.710460817018696],[85.32840132471543,27.710420529476647]],[[85.32843227413146,27.711329133027878],[85.32857882328234,27.711302217205564],[85.32869133731185,27.711259211386658],[85.32879194815104,27.71158654930174],[85.32852704603992,27.711649728020248],[85.32849669898454,27.71149315656744],[85.32847192476852,27.711468875430796],[85.32843227413146,27.711329133027878]],[[85.32883604651221,27.711688387386747],[85.32908123879089,27.71167046513204],[85.32917888284551,27.711960338300777],[85.32903973681012,27.712063840466715],[85.32891725389901,27.71211220175655],[85.32890811579202,27.71214146846452],[85.32894757247465,27.712274278501912],[85.32876237278735,27.712382214040865],[85.32862127766363,27.71190671029063],[85.32854991361587,27.711719056202927],[85.32876872613024,27.711670157457334],[85.32883604651221,27.711688387386747]]]}}]}