{"type":"FeatureCollection","features":[{"type":"Feature","properties":{"kind":"valve"},"geometry":{"type":"Point","coordinates":[85.333110169326,27.689020867701394]}},{"type":"Feature","properties":{"kind":"valve"},"geometry":{"type":"Point","coordinates":[85.33001652979202,27.694117878987218]}},{"type":"Feature","properties":{"kind":"valve"},"geometry":{"type":"Point","coordinates":[85.33002033296053,27.694376071428294]}},{"type":"Feature","properties":{"kind":"valve"},"geometry":{"type":"Point","coordinates":[85.33567738858345,27.701712164632085]}},{"type":"Feature","properties":{"kind":"valve"},"geometry":{"type":"Point","coordinates":[85.33967685455745,27.701675981425126]}},{"type":"Feature","properties":{"kind":"valve"},"geometry":{"type":"Point","coordinates":[85.33616738013197,27.6924200319119]}},{"type":"Feature","properties":{"kind":"valve"},"geometry":{"type":"Point","coordinates":[85.33309043215105,27.692336538131812]}},{"type":"Feature","properties":{"kind":"valve"},"geometry":{"type":"Point","coordinates":[85.33605525370899,27.702462145508584]}},{"type":"Feature","properties":{"kind":"valve"},"geometry":{"type":"Point","coordinates":[85.33122581061978,27.698166441769253]}},{"type":"Feature","properties":{"kind":"valve"},"geometry":{"type":"Point","coordinates":[85.33202338557518,27.69969574567515]}},{"type":"Feature","properties":{"kind":"valve"},"geometry":{"type":"Point","coordinates":[85.33004086506254,27.694250360030296]}},{"type":"Feature","properties":{"kind":"valve"},"geometry":{"type":"Point","coordinates":[85.32999788541143,27.69560705624153]}},{"type":"Feature","properties":{"kind":"valve"},"geometry":{"type":"Point","coordinates":[85.3286282599642,27.691578781815302]}},{"type":"Feature","properties":{"kind":"valve"},"geometry":{"type":"Point","coordinates":[85.33003944560076,27.694171953697143]}},{"type":"Feature","properties":{"kind":"valve"},"geometry":{"type":"Point","coordinates":[85.34004017157262,27.701515433031425]}},{"type":"Feature","properties":{"kind":"valve"},"geometry":{"type":"Point","coordinates":[85.33999820017972,27.70142662676175]}},{"type":"Feature","properties":{"kind":"valve"},"geometry":{"type":"Point","coordinates":[85.33831876123372,27.69932014950223]}},{"type":"Feature","properties":{"kind":"valve"},"geometry":{"type":"Point","coordinates":[85.33501008632548,27.698954104605228]}},{"type":"Feature","properties":{"kind":"valve"},"geometry":{"type":"Point","coordinates":[85.33639808515221,27.699608029405518]}},{"type":"Feature","properties":{"kind":"valve"},"geometry":{"type":"Point","coordinates":[85.33455580965548,27.700520110883627]}},{"type":"Feature","properties":{"kind":"valve"},"geometry":{"type":"Point","coordinates":[85.33784571550103,27.69782946882576]}},{"type":"Feature","properties":{"kind":"valve"},"geometry":{"type":"Point","coordinates":[85.33763774637751,27.697022653618454]}},{"type":"Feature","properties":{"kind":"valve"},"geometry":{"type":"Point","coordinates":[85.33458622612474,27.698009558171748]}},{"type":"Feature","properties":{"kind":"valve"},"geometry":{"type":"Point","coordinates":[85.33514893513909,27.697281794404596]}},{"type":"Feature","properties":{"kind":"valve"},"geometry":{"type":"Point","coordinates":[85.33555947316394,27.698723937095693]}},{"type":"Feature","properties":{"kind":"valve"},"geometry":{"type":"Point","coordinates":[85.3375068929362,27.696003128191784]}},{"type":"Feature","properties":{"kind":"valve"},"geometry":{"type":"Point","coordinates":[85.33723348916382,27.69510652599662]}},{"type":"Feature","properties":{"kind":"valve"},"geometry":{"type":"Point","coordinates":[85.333171643707,27.697191246540278]}},{"type":"Feature","properties":{"kind":"valve"},"geometry":{"type":"Point","coordinates":[85.33239503271818,27.697399198199456]}},{"type":"Feature","properties":{"kind":"valve"},"geometry":{"type":"Point","coordinates":[85.33727507648605,27.695041761865877]}},{"type":"Feature","properties":{"kind":"valve"},"geometry":{"type":"Point","coordinates":[85.335606576124,27.694180932107507]}},{"type":"Feature","properties":{"kind":"valve"},"geometry":{"type":"Point","coordinates":[85.33260386380594,27.69364939206468]}},{"type":"Feature","properties":{"kind":"valve"},"geometry":{"type":"Point","coordinates":[85.33210939538785,27.69443503982906]}},{"type":"Feature","properties":{"kind":"valve"},"geometry":{"type":"Point","coordinates":[85.3367393705039,27.69471461838205]}},{"type":"Feature","properties":{"kind":"valve"},"geometry":{"type":"Point","coordinates":[85.33180967485669,27.694753940288635]}},{"type":"Feature","properties":{"kind":"valve"},"geometry":{"type":"Point","coordinates":[85.33078583485728,27.692611933402734]}},{"type":"Feature","properties":{"kind":"valve"},"geometry":{"type":"Point","coordinates":[85.33212103537825,27.691888281897157]}},{"type":"Feature","properties":{"kind":"valve"},"geometry":{"type":"Point","coordinates":[85.32911530567264,27.692329917320674]}},{"type":"Feature","properties":{"kind":"valve"},"geometry":{"type":"Point","coordinates":[85.33328786192504,27.68957228152357]}},{"type":"Feature","properties":{"kind":"valve"},"geometry":{"type":"Point","coordinates":[85.33290983647878,27.6913688883989]}},{"type":"Feature","properties":{"kind":"valve"},"geometry":{"type":"Point","coordinates":[85.33575330506673,27.690334097824632]}},{"type":"Feature","properties":{"kind":"valve"},"geometry":{"type":"Point","coordinates":[85.33343844834742,27.69283487235959]}},{"type":"Feature","properties":{"kind":"valve"},"geometry":{"type":"Point","coordinates":[85.33306549552172,27.69230841317693]}},{"type":"Feature","properties":{"kind":"valve"},"geometry":{"type":"Point","coordinates":[85.33324264883082,27.690444087922263]}},{"type":"Feature","properties":{"kind":"valve"},"geometry":{"type":"Point","coordinates":[85.33373872996223,27.69125932312944]}},{"type":"Feature","properties":{"kind":"valve"},"geometry":{"type":"Point","coordinates":[85.33624829859694,27.69839184909253]}},{"type":"Feature","properties":{"kind":"valve"},"geometry":{"type":"Point","coordinates":[85.3346680723667,27.699735889142392]}},{"type":"Feature","properties":{"kind":"valve"},"geometry":{"type":"Point","coordinates":[85.33763511585298,27.696996306322944]}},{"type":"Feature","properties":{"kind":"valve"},"geometry":{"type":"Point","coordinates":[85.33191392064488,27.697582451626165]}},{"type":"Feature","properties":{"kind":"valve"},"geometry":{"type":"Point","coordinates":[85.33833074494036,27.699353342985177]}},{"type":"Feature","properties":{"kind":"valve"},"geometry":{"type":"Point","coordinates":[85.33830837657132,27.699318685472825]}},{"type":"Feature","properties":{"kind":"valve"},"geometry":{"type":"Point","coordinates":[85.33751747343065,27.695967094482366]}},{"type":"Feature","properties":{"kind":"valve"},"geometry":{"type":"Point","coordinates":[85.33722240813279,27.695069953279525]}},{"type":"Feature","properties":{"kind":"valve"},"geometry":{"type":"Point","coordinates":[85.33725172639807,27.695058837536592]}},{"type":"Feature","properties":{"kind":"valve"},"geometry":{"type":"Point","coordinates":[85.33726304388465,27.694987691677227]}},{"type":"Feature","properties":{"kind":"valve"},"geometry":{"type":"Point","coordinates":[85.33401420600784,27.691361105234456]}},{"type":"Feature","properties":{"kind":"valve"},"geometry":{"type":"Point","coordinates":[85.33579022574668,27.69039751263016]}},{"type":"Feature","properties":{"kind":"valve"},"geometry":{"type":"Point","coordinates":[85.33553584417531,27.69040333720632]}},{"type":"Feature","properties":{"kind":"valve"},"geometry":{"type":"Point","coordinates":[85.33246298901167,27.691498436679222]}},{"type":"Feature","properties":{"kind":"valve"},"geometry":{"type":"Point","coordinates":[85.33418773211109,27.69540337316159]}},{"type":"Feature","properties":{"kind":"valve"},"geometry":{"type":"Point","coordinates":[85.33724673021699,27.6950516338366]}},{"type":"Feature","properties":{"kind":"hydrant"},"geometry":{"type":"Point","coordinates":[85.33360560422554,27.688904520209313]}},{"type":"Feature","properties":{"kind":"hydrant"},"geometry":{"type":"Point","coordinates":[85.32925586709842,27.692724233671274]}},{"type":"Feature","properties":{"kind":"hydrant"},"geometry":{"type":"Point","coordinates":[85.3298080277495,27.69465630583988]}},{"type":"Feature","properties":{"kind":"hydrant"},"geometry":{"type":"Point","coordinates":[85.33082222092845,27.698556862821746]}},{"type":"Feature","properties":{"kind":"hydrant"},"geometry":{"type":"Point","coordinates":[85.33389458981765,27.69415090531694]}},{"type":"Feature","properties":{"kind":"hydrant"},"geometry":{"type":"Point","coordinates":[85.33824421669559,27.699010283234244]}},{"type":"Feature","properties":{"kind":"hydrant"},"geometry":{"type":"Point","coordinates":[85.33626294938816,27.701961086877]}},{"type":"Feature","properties":{"kind":"hydrant"},"geometry":{"type":"Point","coordinates":[85.33353461797282,27.69937777003692]}},{"type":"Feature","properties":{"kind":"hydrant"},"geometry":{"type":"Point","coordinates":[85.33555336884234,27.697751271607864]}},{"type":"Feature","properties":{"kind":"hydrant"},"geometry":{"type":"Point","coordinates":[85.333251486608,27.6962617219161]}},{"type":"Feature","properties":{"kind":"hydrant"},"geometry":{"type":"Point","coordinates":[85.337240501886,27.694997211857903]}},{"type":"Feature","properties":{"kind":"hydrant"},"geometry":{"type":"Point","coordinates":[85.3332572599115,27.691265783479896]}},{"type":"Feature","properties":{"kind":"hydrant"},"geometry":{"type":"Point","coordinates":[85.32849347758406,27.690635635968878]}},{"type":"Feature","properties":{"kind":"flowmeter"},"geometry":{"type":"Point","coordinates":[85.3313752385172,27.69525798950871]}},{"type":"Feature","properties":{"kind":"flowmeter"},"geometry":{"type":"Point","coordinates":[85.34033125294039,27.701722006271847]}},{"type":"Feature","properties":{"kind":"flowmeter"},"geometry":{"type":"Point","coordinates":[85.33818336415264,27.698693225477413]}},{"type":"Feature","properties":{"kind":"flowmeter"},"geometry":{"type":"Point","coordinates":[85.33755609751664,27.696072447449186]}},{"type":"Feature","properties":{"kind":"flowmeter"},"geometry":{"type":"Point","coordinates":[85.33734419384494,27.695217330492536]}},{"type":"Feature","properties":{"kind":"flowmeter"},"geometry":{"type":"Point","coordinates":[85.33704564618314,27.69386228053493]}},{"type":"Feature","properties":{"kind":"flowmeter"},"geometry":{"type":"Point","coordinates":[85.33952187537848,27.70055452208454]}},{"type":"Feature","properties":{"kind":"logger"},"geometry":{"type":"Point","coordinates":[85.33360560422554,27.688904520209313]}},{"type":"Feature","properties":{"kind":"logger"},"geometry":{"type":"Point","coordinates":[85.32925586709842,27.692724233671274]}},{"type":"Feature","properties":{"kind":"logger"},"geometry":{"type":"Point","coordinates":[85.33555336884234,27.697751271607864]}},{"type":"Feature","properties":{"kind":"logger"},"geometry":{"type":"Point","coordinates":[85.34033125294039,27.701722006271847]}}]}