{"type":"FeatureCollection","features":[{"type":"Feature","properties":{"derived":true},"geometry":{"type":"Polygon","coordinates":[[[85.34063923116815,27.687929352564016],[85.34358363850934,27.699008444480253],[85.34358853774545,27.699025094994827],[85.34376432110356,27.69956923098173],[85.34376801213206,27.699580019048124],[85.34384494494182,27.699792886904586],[85.34385935929457,27.69982681828634],[85.34387752693813,27.6998592906943],[85.34389926441214,27.699889976209906],[85.34392435220623,27.69991856495902],[85.34395699669471,27.699952140536773],[85.34398529525963,27.699978439433504],[85.34401642663424,27.70000206691535],[85.34405007402744,27.700022782548924],[85.34408589504443,27.700040375531653],[85.34412352517109,27.70005466683697],[85.34416258148319,27.70006551103613],[85.34420266654321,27.700072797778176],[85.34424337244468,27.700076452912853],[85.34428428496327,27.700076439245233],[85.34432498777194,27.700072756914228],[85.34436506667777,27.700065443391168],[85.34440411383676,27.700054573098477],[85.34639747732676,27.699399677089165],[85.34640457980521,27.69939727607108],[85.34649885845693,27.6993645021779],[85.34653820465515,27.69934862576394],[85.3465754303525,27.699329114324666],[85.34661011318164,27.699306189239678],[85.34667955669906,27.699254961938728],[85.34671731541142,27.699223269081525],[85.3515397970383,27.694621822934256],[85.35156745836643,27.694592444188668],[85.35159146395925,27.694560620271087],[85.35162621166086,27.69450880844322],[85.35163369869782,27.69449715781196],[85.35163936736838,27.694487943410415],[85.3516623223648,27.694443809017834],[85.35175988880823,27.694217330489742],[85.35177633319574,27.694169467260775],[85.35181603175285,27.694016765210684],[85.3518235119061,27.69397892156402],[85.35182643064697,27.69394058458445],[85.35182475491047,27.693902188635484],[85.3518072305214,27.693733253478484],[85.35180665040964,27.693728069966255],[85.35174492399707,27.6932141399422],[85.35173920487605,27.693181091294655],[85.35173007482886,27.693148655478414],[85.35171761219662,27.69311711080099],[85.3517019239147,27.693086727923536],[85.35168314459494,27.693057767538356],[85.35166143537074,27.693030478132282],[85.34834867674971,27.689250258898525],[85.34832164711058,27.68922245799322],[85.3482915808848,27.68919724868931],[85.34536127643612,27.6869797435824],[85.34533502029768,27.686961473548017],[85.34504477760655,27.68677609534506],[85.34501460876594,27.686758578961385],[85.34498281291035,27.68674351464847],[85.34494964087824,27.68673102124875],[85.34491535436449,27.686721197322637],[85.3448802238558,27.686714120371022],[85.34322338230301,27.68644857921612],[85.34319012925378,27.686444506076583],[85.34315661170726,27.68644289497557],[85.34312305930305,27.686443756951153],[85.34291920481841,27.686456525917762],[85.34288558167108,27.68645989158637],[85.34285239074012,27.68646574065074],[85.34230691907695,27.68658310971725],[85.34230202020737,27.68658419256534],[85.34089286082191,27.686903966784975],[85.340854608046,27.686914461932442],[85.34081770395716,27.686928263032637],[85.34078250811902,27.686945235618808],[85.34074936345189,27.68696521432378],[85.3407185928916,27.686988004491152],[85.34069049624314,27.687013384071786],[85.3406653472596,27.687041105787273],[85.34064339097492,27.687070899539133],[85.34062484131648,27.687102475040433],[85.3406098790206,27.687135524644006],[85.34059864987162,27.68716972633994],[85.34059126328131,27.687204746892945],[85.34058779122269,27.687240245089086],[85.3405882675287,27.68727587506032],[85.34062910118266,27.68786835854528],[85.3406327006052,27.68789904842924],[85.34063923116815,27.687929352564016]]]}}]}