{"type":"FeatureCollection","features":[{"type":"Feature","properties":{"kind":"valve"},"geometry":{"type":"Point","coordinates":[85.34029630085098,27.70153031656395]}},{"type":"Feature","properties":{"kind":"valve"},"geometry":{"type":"Point","coordinates":[85.34020823713445,27.706606912276815]}},{"type":"Feature","properties":{"kind":"valve"},"geometry":{"type":"Point","coordinates":[85.3406908804409,27.705277305663035]}},{"type":"Feature","properties":{"kind":"valve"},"geometry":{"type":"Point","coordinates":[85.34071095992063,27.705315312737607]}},{"type":"Feature","properties":{"kind":"valve"},"geometry":{"type":"Point","coordinates":[85.34097965387652,27.706008654285277]}},{"type":"Feature","properties":{"kind":"valve"},"geometry":{"type":"Point","coordinates":[85.33640977034969,27.704689097823394]}},{"type":"Feature","properties":{"kind":"valve"},"geometry":{"type":"Point","coordinates":[85.33626524148566,27.703352358076025]}},{"type":"Feature","properties":{"kind":"valve"},"geometry":{"type":"Point","coordinates":[85.33922502170465,27.703960178609]}},{"type":"Feature","properties":{"kind":"valve"},"geometry":{"type":"Point","coordinates":[85.34283321834695,27.707845551337336]}},{"type":"Feature","properties":{"kind":"valve"},"geometry":{"type":"Point","coordinates":[85.33638735377258,27.704791676799225]}},{"type":"Feature","properties":{"kind":"hydrant"},"geometry":{"type":"Point","coordinates":[85.33718413572512,27.707933551207304]}},{"type":"Feature","properties":{"kind":"hydrant"},"geometry":{"type":"Point","coordinates":[85.33634793818297,27.70291395219454]}},{"type":"Feature","properties":{"kind":"hydrant"},"geometry":{"type":"Point","coordinates":[85.33752242145601,27.702485839687665]}},{"type":"Feature","properties":{"kind":"hydrant"},"geometry":{"type":"Point","coordinates":[85.34011775463301,27.70793463311766]}},{"type":"Feature","properties":{"kind":"hydrant"},"geometry":{"type":"Point","coordinates":[85.33642781985316,27.705212195828786]}},{"type":"Feature","properties":{"kind":"flowmeter"},"geometry":{"type":"Point","coordinates":[85.34303642161328,27.707781150010433]}},{"type":"Feature","properties":{"kind":"flowmeter"},"geometry":{"type":"Point","coordinates":[85.34292288228707,27.707821019387904]}},{"type":"Feature","properties":{"kind":"flowmeter"},"geometry":{"type":"Point","coordinates":[85.34275070323284,27.707861932129013]}},{"type":"Feature","properties":{"kind":"logger"},"geometry":{"type":"Point","coordinates":[85.34292288228707,27.707821019387904]}},{"type":"Feature","properties":{"kind":"logger"},"geometry":{"type":"Point","coordinates":[85.34020823713445,27.706606912276815]}},{"type":"Feature","properties":{"kind":"logger"},"geometry":{"type":"Point","coordinates":[85.33642781985316,27.705212195828786]}},{"type":"Feature","properties":{"kind":"logger"},"geometry":{"type":"Point","coordinates":[85.33752242145601,27.702485839687665]}}]}