{"type":"FeatureCollection","features":[{"type":"Feature","properties":{"derived":true},"geometry":{"type":"Polygon","coordinates":[[[85.3362374794259,27.702577403941874],[85.33599355583529,27.7028892385972],[85.33597271592066,27.702918838376902],[85.33595518788161,27.702950092334333],[85.33594113584647,27.70298270782004],[85.33593069139599,27.703016379435514],[85.33592395233127,27.70305079189277],[85.3359168454475,27.703101474048353],[85.33591399234547,27.70313302864875],[85.33591425623788,27.703164684392895],[85.33598390512529,27.7043724631703],[85.33598404029344,27.704374674567685],[85.33603137234914,27.70510758494324],[85.3360323450171,27.705119309826276],[85.3360451090425,27.70524521474494],[85.3360460978598,27.705253816198905],[85.336059958955,27.70536162281792],[85.33606370230572,27.705384323783292],[85.3364651302064,27.707375862971194],[85.33646720234375,27.707385402469242],[85.33652010469805,27.707612504429232],[85.33652103550429,27.707616392414717],[85.33657956464411,27.7078544304878],[85.33659123967641,27.70789204581026],[85.33660740873204,27.707928319687134],[85.33662788285595,27.707962828204334],[85.33664751358123,27.707991980925716],[85.33666960461824,27.708021411912956],[85.33669482786992,27.708048776010457],[85.33672294085527,27.70807381015383],[85.33675367331227,27.708096273677498],[85.33678672979613,27.70811595062833],[85.33682179251944,27.708132651841773],[85.33685852440729,27.708146216760444],[85.33689657233776,27.7081565149777],[85.33693557053678,27.708163447491305],[85.33770484433576,27.708265588662027],[85.33774350778084,27.70826904715654],[85.34102939845157,27.70842194968834],[85.34103942873433,27.708422305603058],[85.34113031835862,27.708424528530944],[85.34118005730355,27.708423026577027],[85.34180885447215,27.708369527663336],[85.34185456164776,27.70836328192078],[85.34268472188155,27.708206277507113],[85.34269778749169,27.708203604834694],[85.34269964643572,27.70820319567267],[85.34272974349446,27.708195462070485],[85.34317753220675,27.70806352564878],[85.34321374653919,27.70805111498503],[85.34324846249271,27.708035680930312],[85.34328136228135,27.708017364766366],[85.34331214474456,27.707996334157453],[85.34334052810404,27.707972781615485],[85.34336625254312,27.70794692273781],[85.34338908258502,27.70791899423357],[85.34340880924853,27.70788925175688],[85.34342525196075,27.707857967566532],[85.34343826021012,27.70782542803379],[85.34344771492401,27.707791931020854],[85.34345352955866,27.707757783154356],[85.34345565089116,27.707723297018436],[85.34345762237338,27.70746662299149],[85.34345598005592,27.70743160958428],[85.34345053090021,27.707396902890476],[85.34344132626303,27.70736282998824],[85.34342845289292,27.70732971198253],[85.3428381081031,27.706020420537655],[85.34283661801098,27.706017161745468],[85.34205089429622,27.70432247852912],[85.3420482736533,27.704316956596028],[85.34162883187211,27.703453225089085],[85.3416279166597,27.703451354957622],[85.34131732564788,27.702821560330715],[85.34131282098826,27.702812748998607],[85.34076500793239,27.701778215857058],[85.34076205426626,27.7017727571296],[85.34061461899826,27.701506027675],[85.34060120704855,27.701483765745408],[85.34057905576853,27.701449899103878],[85.34055559583861,27.701418028353416],[85.34052849243935,27.701388535990137],[85.34049804751811,27.701361750572566],[85.34046460024754,27.701337970502344],[85.34042852324711,27.70131746069996],[85.34033327700384,27.701269415034925],[85.34029798195233,27.70125358123651],[85.34026112291924,27.701240880450005],[85.34022304995734,27.70123143329533],[85.34018412464776,27.701225329492456],[85.34014471666622,27.70122262700934],[85.34010520027213,27.70122335151144],[85.34006595075452,27.70122749611795],[85.34002734086789,27.701235021467213],[85.33998973729229,27.701245856090445],[85.33642678205811,27.70244604345128],[85.33638957954987,27.702460508142554],[85.33635418808856,27.70247821062156],[85.33632096227112,27.702498973522474],[85.33629023499691,27.702522588816255],[85.33626231413224,27.702548819894865],[85.3362374794259,27.702577403941874]]]}}]}