{"type":"FeatureCollection","features":[{"type":"Feature","properties":{"derived":true},"geometry":{"type":"Polygon","coordinates":[[[85.34679984693501,27.698881994646452],[85.34712497316283,27.69905655325618],[85.34715919838416,27.699072990402616],[85.34719503501685,27.69908643426083],[85.34723215355359,27.69909676121816],[85.34727021270001,27.699103876320954],[85.34730886251275,27.699107714147637],[85.34734774761723,27.699108239410258],[85.34738651047542,27.699105447279035],[85.34742479467323,27.699099363426704],[85.34746224819786,27.6990900437925],[85.34787598025031,27.698967776492257],[85.34788786773963,27.698964080115005],[85.34832440319722,27.698821534192497],[85.34835490744955,27.698810299460355],[85.34838428407325,27.69879689371149],[85.3549433319608,27.69549675650491],[85.35497614001999,27.69547835226637],[85.35500682323868,27.695457242952738],[85.35503510106665,27.69543362157651],[85.35506071494778,27.695407704119095],[85.3550834306842,27.695379727555885],[85.35510304057763,27.69534994768952],[85.35511936532833,27.695318636810853],[85.35513225567459,27.69528608120929],[85.35514159375732,27.69525257855503],[85.35514729419765,27.695218435177363],[85.35517693266608,27.694954704540997],[85.35517892131165,27.694914738733182],[85.35517592960534,27.694874822473473],[85.35516799429396,27.694835445976487],[85.35514352263847,27.694743627870665],[85.35513409769678,27.69471396669051],[85.35512186429716,27.694685129346503],[85.35509940759327,27.694638342073823],[85.35508792312427,27.694616469791907],[85.35193198903758,27.689094917394257],[85.3519299319501,27.68909136691183],[85.35122842360926,27.687896837579046],[85.3512066210485,27.687864051571257],[85.35042914949896,27.686824294260266],[85.35040031603226,27.686790273202334],[85.35036717948316,27.68675951408481],[85.35013452254051,27.686567627130493],[85.35011122132174,27.686549820187714],[85.35008647315452,27.686533633966192],[85.34997605952552,27.68646699865343],[85.34996321673509,27.686459559263426],[85.34893167465978,27.68588641373353],[85.34890263491326,27.685871721998772],[85.34887233542933,27.68585920756907],[85.3485132859879,27.68572662078877],[85.34847307938223,27.685713935775517],[85.34835213454267,27.68568204388978],[85.34834383129525,27.685679939724043],[85.34825398760893,27.685658089557457],[85.34822864328808,27.685652698345447],[85.34775216841642,27.68556564558576],[85.34770488900654,27.685559564385823],[85.34765713430792,27.68555847469724],[85.34695826339008,27.685579201472294],[85.34692379974717,27.68558153541467],[85.34688968454405,27.685586473341015],[85.34622005703648,27.6857096759352],[85.34618647172918,27.685717199364994],[85.34615373001341,27.685727246317043],[85.34594505795094,27.685800293594752],[85.34590932284023,27.68581461422556],[85.34587530742635,27.685831938575745],[85.34584332938255,27.68585210485183],[85.34581368735529,27.685874924719272],[85.3457866581754,27.68590018506135],[85.34576249427253,27.685927649969404],[85.3457414213178,27.685957062946013],[85.34572363611613,27.68598814930035],[85.34570930476825,27.686020618713506],[85.34569856111932,27.686054167949834],[85.34543889202908,27.68704422336542],[85.34543131172745,27.68708217824187],[85.34542832139363,27.687120636268382],[85.34542995513435,27.687159158867015],[85.34660544253408,27.69860574856865],[85.34661066758296,27.698639234647768],[85.34661938918234,27.698672138803477],[85.3466315308401,27.698704172440607],[85.34664698606731,27.69873505459882],[85.34666561931208,27.698764514416936],[85.3466872671484,27.698792293508625],[85.34671173970945,27.698818148228636],[85.34673882235279,27.69884185180986],[85.34676827754303,27.698863196352278],[85.34679984693501,27.698881994646452]]]}}]}