{"type":"FeatureCollection","features":[{"type":"Feature","properties":{"derived":true},"geometry":{"type":"Polygon","coordinates":[[[85.33629783773344,27.708369274278493],[85.3365552648842,27.7082952037843],[85.33659099646341,27.70828324212279],[85.33662530618037,27.708268343592717],[85.33665789009197,27.70825064017735],[85.33668845954416,27.7082302887079],[85.33671674372899,27.70820746947409],[85.33674249208369,27.708182384627058],[85.33676547651042,27.708155256388405],[85.33678549339687,27.708126325081604],[85.33696068171172,27.70784418437532],[85.33697938678498,27.707809900183527],[85.33699392626895,27.707774051892894],[85.33700413809956,27.70773703909571],[85.33700990845247,27.707699274364355],[85.33701117301162,27.707661178652433],[85.337007917686,27.707623176602453],[85.33694879366708,27.707217228098898],[85.33682266021235,27.70635287861881],[85.3368219919332,27.70634850830368],[85.33622830231307,27.702635761666247],[85.33621797316746,27.70259136851152],[85.33617357438904,27.702446920419025],[85.33615891736403,27.702408056305195],[85.33604508213728,27.702154873622963],[85.33604124641869,27.702146638778533],[85.335920124473,27.70189541720852],[85.33590551429316,27.70186829208476],[85.33590325065315,27.701864503041453],[85.33588749895257,27.701840426732936],[85.3354304651705,27.701200030778185],[85.33539712305853,27.70115977312794],[85.33526270468435,27.701019039393167],[85.33525825153446,27.701014455541564],[85.3352133085747,27.700968970759117],[85.33520628119985,27.700962041418993],[85.33519352517352,27.70094978571514],[85.33516573375152,27.700925530456203],[85.33397605306311,27.69998250197152],[85.33394434760184,27.699959802319896],[85.33391024628747,27.699940044573435],[85.33387409236435,27.699923427601444],[85.33383624973654,27.69991011866005],[85.33379709930504,27.699900251708637],[85.33247964757864,27.699630938859805],[85.33245728524211,27.699626953045772],[85.33230146428805,27.699603214527603],[85.33229119136807,27.699601769914196],[85.32868314542034,27.6991364678167],[85.32864460917337,27.699133159478937],[85.32860589409913,27.699133136747353],[85.32856735298309,27.699136399828923],[85.32852933702561,27.69914291898914],[85.32828052421839,27.699196663495222],[85.3282742562069,27.69919806456367],[85.32513909647037,27.69992249951273],[85.32512005587837,27.699927343521075],[85.32247833846658,27.700661926733172],[85.3224488463694,27.70067125339255],[85.3224202501263,27.700682576493556],[85.32216535115367,27.700794184998152],[85.322129861314,27.70081174028352],[85.32209652138525,27.70083236596269],[85.32206566550713,27.700855855321404],[85.32203760292433,27.70088197294502],[85.32201261488719,27.700910457077793],[85.32199095183299,27.700941022246198],[85.32197283087594,27.700973362119978],[85.32195843363117,27.70100715258216],[85.32191998709736,27.701113104126463],[85.32191045658759,27.701143992465585],[85.32190403997522,27.701175511171925],[85.32190078778633,27.701207412072282],[85.32190072563088,27.701239443983894],[85.32190385400108,27.701271354692217],[85.32249463461366,27.705249359410537],[85.32249490936563,27.70525117395615],[85.32252191862574,27.70542619648539],[85.32252209339407,27.705427315995056],[85.3225327011093,27.705494493866663],[85.32254006997337,27.70552893008913],[85.32255115696448,27.7055625677978],[85.3225658575321,27.705595089778136],[85.32263703125383,27.705732824429],[85.32265726845709,27.705767032698727],[85.32268149999763,27.705799118569896],[85.32270944794874,27.705828714024918],[85.32274079175654,27.70585547961038],[85.32757734744627,27.70956373741425],[85.32760728828922,27.70958459851773],[85.32763929257166,27.709602872582288],[85.32767307901828,27.709618399002405],[85.3279059601347,27.709713390706508],[85.3279446483169,27.7097270795883],[85.3279847093934,27.70973716671202],[85.32802572127629,27.709743545798343],[85.32806725185952,27.70974614963629],[85.32810886357176,27.709744950791286],[85.3281501179868,27.709739961894343],[85.33624825947473,27.708380521224157],[85.33629783773344,27.708369274278493]]]}}]}